{"type":"FeatureCollection","bbox":[136.6711240860078,34.57357416201802,137.83811566760403,35.42462355942979],"displayBbox":[136.6711240860078,34.57841544101984,137.83811566760403,35.42462355942979],"DataVersion":"2019-boundaries-v1","Attribution":{"BoundarySource":"MLIT National Land Numerical Information, via Fabio Crisci / piuccio","BoundarySourceURL":"https://github.com/piuccio/open-data-jp-prefectures-geojson/tree/513fb852832c99470e16b95a30ddd68bf3469dc0","BoundaryDate":"2019-01-01","CapitalSource":"Geospatial Information Authority of Japan (GSI), prefecture representative points","CapitalSourceURL":"https://maps.gsi.go.jp/","CapitalSourceRetrieved":"2026-10-04","Notice":"Simplified and enriched by Ashiato Kai. Modern geographic context, not historical immigration-era boundaries. See GEOLOCATION.md and THIRD_PARTY_NOTICES.md."},"features":[{"type":"Feature","id":"JP-23","bbox":[136.6711240860078,34.57357416201802,137.83811566760403,35.42462355942979],"properties":{"Kind":"prefecture","PrefectureCode":"23","PrefectureName":"Aichi","PrefectureNameJapanese":"愛知県"},"geometry":{"type":"MultiPolygon","coordinates":[[[[136.84866975430577,35.05604525198686],[136.84058503167398,35.05603594580231],[136.83797710835688,35.05183694641801],[136.84552233488796,35.03391183836072],[136.84815011703438,35.03670102723066],[136.84408269835785,35.0416215589878],[136.847727327754,35.04680405426376],[136.8520284946194,35.04385127871359],[136.8549564461831,35.05530846801145],[136.85209916964106,35.053980198127704],[136.84866975430577,35.05604525198686]]],[[[136.87815730201794,35.07192489162048],[136.87375358006375,35.07191930593126],[136.8694575878974,35.06806205432042],[136.86759788613358,35.06325097275425],[136.87030330675225,35.06301377476592],[136.86525383919343,35.05000650499625],[136.87237827473768,35.049729946379955],[136.87505691264641,35.05199313527504],[136.8819548899063,35.069347865411714],[136.87815730201794,35.07192489162048]]],[[[136.8699873929039,35.08475338695928],[136.86976953303758,35.08443364020036],[136.8687783011777,35.08481453186522],[136.86876194610704,35.084787892147574],[136.86979907936404,35.08442183839719],[136.8699873929039,35.08475338695928]]],[[[137.56198425357047,35.289317053839],[137.56081868993067,35.285662891629215],[137.55801313879533,35.284013721156384],[137.55199202301355,35.284227332625335],[137.5483259142096,35.281827053775544],[137.54342922168132,35.2805534410885],[137.53952282661726,35.281807613130866],[137.53175616091812,35.28210177507691],[137.52931394308405,35.284178171185715],[137.52136588772555,35.28425869378373],[137.51873616124487,35.28164980189689],[137.52075116693288,35.27355730642461],[137.5162117246914,35.275010919318504],[137.51318364530903,35.2722023059917],[137.51412669329227,35.26995953170706],[137.50917752262467,35.266452306129054],[137.5061141889188,35.266489801563125],[137.5048022444281,35.26294483773415],[137.49723503217103,35.26419425236293],[137.496554448629,35.259018973247066],[137.49219221779663,35.25949702676644],[137.4842997279502,35.25742869397908],[137.4815933333657,35.25441286516167],[137.47657944208765,35.25340563975851],[137.4694716341087,35.245475080710435],[137.46610080420885,35.24664425243037],[137.462144694622,35.241123441193906],[137.45785275030426,35.23954953228514],[137.4533655253988,35.2405075863561],[137.45045022010163,35.235092333044804],[137.44205050632593,35.23370313499174],[137.44122688741095,35.230099000268694],[137.43785632910635,35.22932510756772],[137.43471355378756,35.22413844123611],[137.43031296956792,35.222960386912405],[137.42491522695627,35.22688094629871],[137.42344077766984,35.23121480172176],[137.42055744507013,35.233878694346345],[137.41680688722818,35.24040174784244],[137.40892771724043,35.23490674804805],[137.40641299606295,35.238168413741334],[137.4037574446504,35.23837953228963],[137.40100438424497,35.241588135284246],[137.3949135539175,35.239847027118685],[137.38819355428916,35.2401198022871],[137.38318577210578,35.24672146822121],[137.38678411159754,35.2518120267037],[137.38512024620252,35.258703946130254],[137.38286608290343,35.260195918706756],[137.37927827537214,35.25874758573252],[137.37580411157057,35.25968841418904],[137.37309744539084,35.26333230614108],[137.3687554987673,35.2604045317438],[137.36196910489036,35.26097369378101],[137.35050241155716,35.25717622460314],[137.34409907940903,35.25785789182828],[137.3399501947457,35.26454510757071],[137.3464066147735,35.27123289168463],[137.34462994831358,35.273717613277256],[137.3256546686281,35.28045374764241],[137.32129243779582,35.28426153204413],[137.31475549876734,35.286439306029195],[137.30808105070003,35.28966291870876],[137.303794383604,35.29058655932232],[137.29843380007992,35.28874850513944],[137.29523213985146,35.290051864701866],[137.29271130957932,35.28856769374414],[137.28714852068777,35.28873158619382],[137.2829151878857,35.287704667436515],[137.27425713395962,35.28882636034831],[137.27172603073177,35.28612525197883],[137.26797130992804,35.28683302742235],[137.2626637738142,35.285201945913116],[137.25945211402393,35.27871222488932],[137.26087739287743,35.275407505052385],[137.25740988315965,35.272559720854474],[137.25376155575123,35.272758333430374],[137.24994319082566,35.26854694588491],[137.24359070005085,35.268537252092585],[137.2424254223954,35.26463169429729],[137.23767652355275,35.265232532255595],[137.2344420884317,35.26386253203026],[137.2335270822091,35.261123081065364],[137.23011791241174,35.261034747855376],[137.22457455337303,35.256492532104744],[137.2213612190451,35.259938639756456],[137.21127594013262,35.259690864841616],[137.20548177726232,35.25487502676111],[137.1999575881722,35.25146364013494],[137.19706871574874,35.253337532301316],[137.18447230934964,35.25409641441803],[137.18375341109106,35.255598918955],[137.17636897524812,35.26039641356368],[137.17555204908786,35.266405305760316],[137.1766412189172,35.27011641394142],[137.1736459396085,35.2721664140488],[137.17304678338246,35.27514419794642],[137.16545538295964,35.2822572516709],[137.1589317772798,35.28219474788938],[137.15254983101,35.279313640212365],[137.14935844373724,35.28159364013442],[137.14582983138166,35.27979946837081],[137.1383256678953,35.28787558628932],[137.13159428015194,35.29362780208146],[137.12252542221051,35.29578197335945],[137.11894569418848,35.29790141371933],[137.10102708193438,35.30161610839673],[137.09776678321055,35.29715555918176],[137.09893150508492,35.29252750494044],[137.096033449684,35.290554171138126],[137.09208732796787,35.29276861318101],[137.08131066105818,35.29219083833658],[137.07978399533522,35.29619999983021],[137.08143985676406,35.30009361283004],[137.07978374802167,35.30677889233209],[137.07216403424286,35.3066527750056],[137.06676958494847,35.3089716400292],[137.0671704406634,35.31150108130993],[137.06352211415435,35.31819691885278],[137.06407822343135,35.32066330596683],[137.07297880742613,35.326456919351415],[137.06821771737384,35.33568191938514],[137.06375466894292,35.33618550465735],[137.06175744465042,35.33903133282979],[137.0574041117104,35.33847300042868],[137.04989855967085,35.334369386737876],[137.04627632878965,35.33961772138076],[137.04664247696883,35.348514360049705],[137.04984975436275,35.35960046838699],[137.0450900519644,35.36741322524023],[137.0407539428403,35.366909333299134],[137.03398172497668,35.36804597294332],[137.02989953313704,35.37072374840233],[137.02828147920695,35.375324278892435],[137.02299538293062,35.375034279008844],[137.01611955867077,35.37766619803665],[137.01417236096574,35.38177091879294],[137.0021237478128,35.38148061313984],[136.99959321655376,35.38516561310263],[136.9992451879151,35.390048359844],[136.99547408596038,35.39305808136544],[136.9914919463963,35.39306802696791],[136.98934089486647,35.39634277509907],[136.98983358035548,35.39885333331472],[136.98731275008345,35.40198386526322],[136.9815735798569,35.401577198129246],[136.97826472133988,35.40317605423155],[136.9785766925604,35.406420225413115],[136.98459474704998,35.411889386785845],[136.98525144010193,35.417477972730296],[136.99133341120807,35.42462355942979],[136.98572452666565,35.4245193603802],[136.97441622642782,35.42161738663316],[136.96865649769927,35.42205097317395],[136.96437260681046,35.42093902711446],[136.96112147937288,35.41489264038307],[136.96309224381207,35.40655269375185],[136.96171302193852,35.399771333380386],[136.95670466868557,35.39645383777446],[136.9503496634063,35.39492802730666],[136.9351201167001,35.38824613465147],[136.926146445702,35.38104422521087],[136.92207418867292,35.379178414352396],[136.90852693896716,35.37756594611159],[136.89489747144125,35.37813927920445],[136.8861782753072,35.37752650544394],[136.87805046705546,35.374470693667604],[136.8711285210644,35.37291653207234],[136.8649318288409,35.37260541430845],[136.8612623871495,35.36837710781731],[136.84434180293192,35.36100241433002],[136.8342501172492,35.35599991926091],[136.81713066055158,35.35932130623337],[136.8042320486702,35.36014158596549],[136.79288678269893,35.363457693917496],[136.79445566799473,35.36833461305201],[136.77567345026955,35.36960155906473],[136.7681153832184,35.366901838349236],[136.7618745270878,35.36111544112475],[136.75911175130636,35.35719491861067],[136.75010033666126,35.33653908121369],[136.73652083007232,35.315952414272545],[136.7282974706518,35.29968574779906],[136.72573330744626,35.29561436041445],[136.71938358028808,35.28875158621679],[136.71038330734382,35.282699360187394],[136.70620355435062,35.27803741409542],[136.70171577186545,35.27014461308346],[136.69601994806226,35.258640441403315],[136.6906440859559,35.253214891753885],[136.68658769116905,35.2508332252732],[136.67960130965275,35.245029892015964],[136.67792686103587,35.241506531701134],[136.67873297015046,35.23227627872734],[136.68095936418342,35.2237832252157],[136.68207297039135,35.21232350522564],[136.68205518809657,35.20551377484088],[136.68313269821556,35.19983017102561],[136.67231739283352,35.18877738706681],[136.6711240860078,35.17340905428449],[136.67390158189255,35.160179640278216],[136.67433992224971,35.152501027200685],[136.67177797677232,35.145490747999645],[136.67122630385086,35.13983825173398],[136.67277771711804,35.13477713525663],[136.67639328132498,35.12886717118306],[136.6810910510112,35.12844133320101],[136.68746216584634,35.12614466704281],[136.69519466899885,35.12460550523991],[136.6999355252044,35.12028608123774],[136.71407167256973,35.10516694609771],[136.71997888471788,35.10336889196083],[136.73127527883116,35.09728110763706],[136.74186360612055,35.08595499992339],[136.74957389062263,35.08072833264646],[136.75097221769374,35.07845333295501],[136.75204722410012,35.071701107919864],[136.75169693906253,35.061823333180314],[136.75340111476964,35.05301555922074],[136.76085749727577,35.037714171072196],[136.77270749695344,35.02438999999856],[136.77062400789168,35.02143788275214],[136.77743968909044,35.022176279211976],[136.78137167256466,35.01815583842125],[136.78581688743952,35.01955064014999],[136.79388066126353,35.014462467568876],[136.79660788594526,35.02226444065144],[136.78338766480897,35.031234332698375],[136.7807742799091,35.03354191932419],[136.78613897513367,35.03566953182349],[136.80024678306268,35.02880280240748],[136.80065500602382,35.04470969419708],[136.7969401692535,35.04469310800056],[136.7969333326073,35.05149083783198],[136.8171512451339,35.051571748037816],[136.8171636063155,35.0502135586089],[136.8300825806466,35.05024983815957],[136.8303900003982,35.05423805444269],[136.83362680883022,35.059594666560656],[136.8336070300404,35.063928468024415],[136.82360016931239,35.06825155856262],[136.82358616057297,35.06335430575666],[136.8186644228249,35.06455658601766],[136.81980050578875,35.072075108079844],[136.82363586340443,35.07243236016535],[136.82303861194248,35.07786853170745],[136.82799063615903,35.08264233277748],[136.83269269830942,35.08167674778372],[136.84725134897064,35.08304756819075],[136.84966032426462,35.07802666669738],[136.84571142724064,35.064278333078676],[136.84259683487608,35.05927822481027],[136.8473691053,35.059511999978895],[136.84743927400336,35.056660333407706],[136.8554795593343,35.056587640307384],[136.85805810629665,35.05878225229918],[136.8599467437473,35.06525555889698],[136.85836252860793,35.06998953169159],[136.8624719708049,35.06978472098814],[136.86929338518166,35.08210141394915],[136.8667130215888,35.084909585708886],[136.86853674417546,35.08820674764337],[136.87533044144675,35.09039936044218],[136.88481710822305,35.088758333330475],[136.8882137738467,35.09366189218264],[136.8903406605931,35.08992400039233],[136.8905691963114,35.08430566667323],[136.8895868614445,35.07034072144717],[136.88674749669963,35.07044769400591],[136.88396306074674,35.067267774887966],[136.8863770560564,35.06581450463574],[136.87921941574348,35.047394891760916],[136.88124046667429,35.045679225415995],[136.8893009211007,35.04547264035011],[136.88926328087575,35.04225346762348],[136.87026866396775,35.042231586218804],[136.8676755767665,35.04007433296414],[136.85423474743573,35.020501225351325],[136.85267350188064,35.01520927898508],[136.87058282683608,35.01262019826362],[136.86995557668854,35.00862780193154],[136.86713508421678,35.00473002686931],[136.86406150543417,35.00853991928193],[136.84965741855513,35.0106196941436],[136.84383927436306,35.00473674840225],[136.8543368870378,35.00323072122086],[136.85150697776487,34.99825413472058],[136.84631019495964,34.99899669414219],[136.8377391441462,34.986703279232984],[136.8339374193764,34.98226900011434],[136.8386742538138,34.98005163977143],[136.8361204409057,34.976375278696196],[136.83108844357685,34.978731026715536],[136.82060357969146,34.96639464040038],[136.82889204912885,34.961370945612714],[136.82627708232155,34.95290310819195],[136.8267073926321,34.945796026865196],[136.82560082991438,34.93989182924457],[136.82280457776915,34.93562122493961],[136.82428175110203,34.930558558930386],[136.82339593957101,34.91970882929911],[136.82218923464552,34.91509479279051],[136.82222674356944,34.902027306215246],[136.82601632929027,34.89260791862063],[136.82250291817525,34.88909602735981],[136.82169603114698,34.884233197903825],[136.82749313929696,34.875303721389685],[136.8327701946888,34.874447467876394],[136.83543208812046,34.87895363969875],[136.83688405975158,34.88410380164919],[136.84107900139486,34.87783391900024],[136.83721863812968,34.87586980234954],[136.8433205058367,34.87233305382745],[136.8496289109455,34.869992918938124],[136.85465352843767,34.8659995315532],[136.85721547301569,34.86208008103097],[136.8569098312238,34.85611377533053],[136.86135846981756,34.85058222528954],[136.86364272443222,34.843379775356425],[136.86660875509006,34.838011251717944],[136.8618444103913,34.814052973366074],[136.85746089530414,34.80397086456378],[136.85846557742457,34.80037202684764],[136.8561192219246,34.793617801720245],[136.84689852065026,34.774149359905095],[136.84204938966764,34.76235641411728],[136.8452963289625,34.75611480165685],[136.84747169905972,34.754943054278556],[136.8508908297481,34.7491646673156],[136.85652627756576,34.74549425165844],[136.8587573282881,34.74076294625303],[136.86175907911831,34.73808849468833],[136.86551880734714,34.73768080232719],[136.8717211149376,34.7302866672959],[136.880622438175,34.72738258643727],[136.88844861201392,34.72097333315287],[136.89754444871744,34.71929749508337],[136.91017000034526,34.7144274953327],[136.92483749685312,34.70693777495842],[136.93041700414153,34.70478030586645],[136.93559131019083,34.708204279404015],[136.942551673421,34.70085666720149],[136.95535918307985,34.699662143593116],[136.9605094421571,34.70144944093897],[136.96786785971403,34.700220413941],[136.9691916725577,34.69815082929739],[136.97376966333934,34.69941382908502],[136.9737742282981,34.70507700030339],[136.9698602717342,34.71027769426024],[136.9730059140917,34.716972413945825],[136.96946111483862,34.718484721093034],[136.96317863808372,34.718781532441824],[136.9638575228065,34.72293664041365],[136.9695765500178,34.72431928780492],[136.9665054470688,34.73198553160705],[136.96439489021213,34.73425763997818],[136.95676871570367,34.73777082896066],[136.95200130971273,34.738066586303944],[136.94492069993044,34.74348380193595],[136.94284847038068,34.74720855912773],[136.93741291757215,34.75007244119024],[136.93478357959862,34.7537936667444],[136.92743011730613,34.757101973077624],[136.9270155253463,34.764076640024996],[136.9195788847578,34.765740386709524],[136.91479797724492,34.770052305869285],[136.91601968915734,34.78295472098364],[136.9211057717141,34.79317233333654],[136.9192073667267,34.79801091886884],[136.92203511043203,34.803679135283915],[136.92002191957602,34.810982532318064],[136.9223259403899,34.813801999562656],[136.9253655247992,34.81398908103131],[136.926885940234,34.82759541439691],[136.92376992244408,34.82963810841204],[136.93539578498758,34.830043063236815],[136.93600927370903,34.835831386809105],[136.92936954576794,34.83907125203672],[136.93043980465336,34.84610194584815],[136.92728741917915,34.8461039459404],[136.92665197081192,34.85290238713549],[136.92957311270902,34.85229019793434],[136.93043817058515,34.84850825195434],[136.93456247677693,34.84848119764922],[136.93544561642216,34.85712169411096],[136.92807077814393,34.85861086529923],[136.9282198308806,34.86553180225093],[136.93972194581124,34.86144333314337],[136.94578442321267,34.86935702720507],[136.9460130866347,34.87416274791252],[136.94071461658632,34.876327134589644],[136.93734722389536,34.87350658635995],[136.93431513623466,34.874680332931064],[136.93640491605413,34.878194531852216],[136.93990250269837,34.87728049509883],[136.94416077819744,34.88088863989884],[136.9627348118621,34.87412144115166],[136.9641930607612,34.87652113544209],[136.95717805382424,34.8811100808656],[136.96529749658225,34.89350899974062],[136.96930871572476,34.90121194577472],[136.97255693925138,34.91181602738783],[136.96834508405846,34.91466249497819],[136.97340450081708,34.918410559000165],[136.97596897518815,34.93821735994328],[136.98004192019857,34.9509676403444],[136.98103577178347,34.95684991878875],[136.98411269784276,34.95573897277541],[136.98638603109055,34.95198077519268],[136.98329771691613,34.94442000927609],[136.98156328082086,34.94420174831208],[136.97943055837368,34.93334863992783],[136.9821491045975,34.92938969387933],[136.97780296983126,34.91503430618832],[136.9773515560296,34.89460853155856],[136.97970557735061,34.897075864759415],[136.98306763886046,34.89702877535774],[136.98383431899867,34.893260991001966],[136.97679883270007,34.89330366743036],[136.97060671892496,34.877478306378805],[136.97624783427023,34.87528535993147],[136.97485827468972,34.8728319464372],[136.9680699481696,34.874883225380586],[136.96860455285787,34.871725613046635],[136.95528963670745,34.854840613203805],[136.95710919633245,34.85332744090874],[136.96465788615262,34.852986224634606],[136.96421329370855,34.85026330590688],[136.95546666735288,34.85014172116354],[136.95421766461357,34.84833213502009],[136.95674352839114,34.83329002681336],[136.96441808013037,34.822757387343586],[136.97654347560103,34.81896649490784],[136.99053447508606,34.81590613525998],[136.99697472080675,34.816471973402884],[136.99762533084436,34.81090819795503],[137.0002193902128,34.80467527924077],[137.00599352787913,34.799000225280224],[137.01215075155596,34.79602477512333],[137.01154007771243,34.79293897275545],[137.01376389069105,34.79087155907524],[137.01767868991965,34.790289694114165],[137.01683717269748,34.78593938739289],[137.02511066122804,34.777941107596064],[137.03284224437414,34.77602489243486],[137.03379936404951,34.77731569386424],[137.040769610829,34.77559889167554],[137.04843736729072,34.777124080711815],[137.04874962359634,34.77926368477131],[137.05559569378636,34.78044935995007],[137.0627056943124,34.7826742521151],[137.06298756162676,34.78445882901178],[137.0696508302217,34.78652191875159],[137.07626236081933,34.787057531579876],[137.07717525273574,34.785111413960635],[137.082341284123,34.78361346808714],[137.08281581140068,34.78104082877127],[137.0881686121918,34.77622053185212],[137.09264302175814,34.77796125240991],[137.0986497537832,34.78359105428376],[137.10379510975656,34.78479389212447],[137.10742364488533,34.78764691936988],[137.10555907868854,34.790650801593245],[137.1176653311901,34.7900283601208],[137.12165099879462,34.78712444114012],[137.12511243808865,34.7828870811739],[137.13242163395125,34.78204246758588],[137.1325536706155,34.785887440752845],[137.13434727580625,34.78862653198894],[137.13995308736514,34.78914074814708],[137.14593347644882,34.788127892088596],[137.1502076645521,34.7822431620923],[137.15258697840636,34.781322829185285],[137.16280785979495,34.78687191870415],[137.16499780790252,34.78494344128683],[137.16863693884375,34.786935613188064],[137.17449119261448,34.78479772143777],[137.17783844408893,34.779254197823036],[137.17411535693827,34.7757901621863],[137.17554182919218,34.77365313468448],[137.17345849481376,34.7703273329401],[137.1681795328592,34.768240332925075],[137.16952719842152,34.76525135966256],[137.1779425810853,34.765665748375625],[137.1893621661311,34.775710747553035],[137.1901752530855,34.779199135032115],[137.18687383915642,34.780587413978026],[137.18860936433077,34.785964532437276],[137.1866579766844,34.78800341422624],[137.19017647166686,34.7899803327262],[137.1906150584383,34.79284289188598],[137.1873262781853,34.793699747945084],[137.19072503203472,34.797920775323576],[137.19309625199048,34.804865919326744],[137.19856800341074,34.81107361295693],[137.2096697797366,34.80274816159846],[137.21590121906604,34.80820339606993],[137.21912944167047,34.812496972657186],[137.21445442303332,34.81588333294951],[137.2162619973933,34.81758094630368],[137.22041936356288,34.81456022517432],[137.22287136242346,34.81680955911389],[137.216032529078,34.82175877474771],[137.2160721136372,34.82318572094431],[137.2308308949299,34.815843413842515],[137.23797435833,34.813391783703935],[137.24385846959274,34.812389865200146],[137.24720577232858,34.813115829432036],[137.24855569428996,34.80966066740592],[137.25319128395063,34.80589646774786],[137.2578613877929,34.80438582884295],[137.26391269831242,34.80594761309192],[137.2695640596337,34.80477155886041],[137.27943680896158,34.80757855880347],[137.28033286556933,34.80498500035753],[137.28450688718317,34.80591705412877],[137.29284286600557,34.80450091868249],[137.2945008300493,34.81057313484234],[137.3012333851127,34.810131279035375],[137.31066406009836,34.804686332808046],[137.31552766477,34.79894327930896],[137.31555197074692,34.79643433267836],[137.30332769122003,34.792938586046944],[137.30854360620253,34.77880564026816],[137.31927630435803,34.780515639984856],[137.3256010888192,34.78552566687608],[137.33103955902845,34.780511945569856],[137.32568719800588,34.770953531780094],[137.32113649805103,34.771255999864536],[137.32031422811917,34.7328344412565],[137.3288108564359,34.73035841430942],[137.33883202267975,34.72854677501368],[137.34731005211722,34.73207564007879],[137.34868822268345,34.72936805389264],[137.33835108863195,34.724880107730826],[137.33824444882237,34.72113730564217],[137.32972372227198,34.72117286483592],[137.32973367057252,34.724680162359675],[137.3085654219567,34.72462022524326],[137.30848374822642,34.70210974836624],[137.31178625213386,34.699598558826494],[137.31986605727275,34.700086027348334],[137.32506321689402,34.701556332558766],[137.32182875479327,34.69513972102135],[137.3114554985725,34.69626577474577],[137.30823846982958,34.69205819762777],[137.31582878117342,34.68851282910384],[137.3113388592011,34.68330935983914],[137.30838156905418,34.68131527867723],[137.30054424092407,34.68165181128211],[137.2940421659133,34.68369577513994],[137.2936817248318,34.68142386461972],[137.28615565475968,34.680209081084286],[137.2865347468811,34.68497305436301],[137.29113693931833,34.6911821977003],[137.2904607516624,34.69372941408125],[137.30088399490046,34.693776972929015],[137.30092968855433,34.72807182865205],[137.28482700356346,34.730946775073676],[137.26173061027953,34.715907559086645],[137.26690547300927,34.70861544134959],[137.26171422822915,34.69883086515233],[137.25798824885862,34.69679925168418],[137.25217316505962,34.70521138689605],[137.24547569434787,34.70620846794651],[137.23266924768768,34.69914438680405],[137.2395496369063,34.690634828934265],[137.23301894906535,34.68870380193897],[137.23026917028608,34.68351486481919],[137.2294773280163,34.67911386511281],[137.2235852271766,34.675632999563334],[137.2194335537156,34.67580416213241],[137.21186031060495,34.67915474829306],[137.20634408591093,34.677909413888415],[137.19784130982862,34.66888230607361],[137.19447289191055,34.66778186504109],[137.1910408037901,34.669772694254505],[137.18610438371036,34.66906074775534],[137.18380610866507,34.666138532067635],[137.17503830057717,34.659169332998374],[137.16984050603457,34.65651944101944],[137.15786050575775,34.654676359626365],[137.1563870556182,34.65634244095094],[137.15223444866092,34.6546827753898],[137.1433385861069,34.654017251894686],[137.13732180325871,34.655751640326],[137.13152544694185,34.656351414386336],[137.12700311340302,34.65472358572498],[137.1298536063589,34.65161072095805],[137.13701833962477,34.650771559060274],[137.14024474739722,34.64664013473447],[137.13655802883,34.64121200043354],[137.13331905303198,34.63941244083151],[137.12676394320147,34.637979828906055],[137.11941204932668,34.634639027369246],[137.1169702460801,34.635789774678415],[137.10774902679623,34.636966387388895],[137.1025583009249,34.63280836021772],[137.102004967855,34.638194972819804],[137.10647795109662,34.641563279222],[137.10192216637495,34.64563730611684],[137.0968165892143,34.645835162362914],[137.08767377372578,34.64809089228089],[137.0894170303717,34.6497289732136],[137.0902198048002,34.656063532406165],[137.0815701694279,34.661810414319234],[137.07517158210294,34.663003802083836],[137.0683208947935,34.661230134862876],[137.0596205583422,34.65322772088268],[137.0461171343983,34.62871282873414],[137.04204516155505,34.62030522520604],[137.0354253311142,34.60929419766916],[137.0303842803104,34.60208110785692],[137.03025878081814,34.59880833283836],[137.0272563294161,34.5904981079014],[137.02277213972252,34.58441433275533],[137.01776450143063,34.58455625206943],[137.01531630400427,34.58126030601835],[137.01806286590863,34.57841544101984],[137.03119452720568,34.58089182859504],[137.03464089476154,34.57864627900261],[137.03881836617472,34.57885041431524],[137.06839185490026,34.585895802149594],[137.09469143995807,34.59077361341156],[137.09733150504496,34.59084310762336],[137.10333775593278,34.58896361268063],[137.1108818025532,34.58895727875546],[137.1172641121491,34.58714227869325],[137.12766163387732,34.58835544075106],[137.1321081707555,34.588197946078424],[137.14292963739297,34.59015389238829],[137.14359258073307,34.590454026732004],[137.14421719766563,34.590597667348504],[137.14623094700062,34.591325027328196],[137.14733802862713,34.59204408116949],[137.14925053228626,34.592422107594246],[137.16404425403914,34.59668155940648],[137.17958814527674,34.602828531711395],[137.1927334501886,34.60524769362621],[137.20680321679504,34.610549305905806],[137.2187324377519,34.61374161318497],[137.2219738911822,34.613245414044684],[137.2405830613593,34.62013272084846],[137.2549943581032,34.62467749517032],[137.27435355387342,34.63023689181915],[137.30887072560358,34.63972725211107],[137.3353524638452,34.64575516227097],[137.3413590663679,34.64752684738613],[137.35742158224025,34.65077063995312],[137.385726108673,34.65696927920891],[137.41553077802303,34.66242833310116],[137.4353729699866,34.666680693759076],[137.47384566764356,34.67261935969577],[137.48496389077104,34.67410510806434],[137.48591083012082,34.679614441253534],[137.4846386122822,34.683808613077076],[137.48806639444865,34.68732666739186],[137.49178999960884,34.702459721339096],[137.4898880539905,34.705648333304],[137.4896636056909,34.711031387288756],[137.48731389122315,34.71710194599808],[137.48262472085423,34.71992638739289],[137.48143639357477,34.73095222496528],[137.47860693935888,34.73410082879025],[137.4805602722388,34.74056527886461],[137.47802666709708,34.74551777522521],[137.47410693868437,34.749940559209506],[137.47495944202467,34.75519610821385],[137.47744221838377,34.756665279379206],[137.4767550059388,34.76780638665548],[137.47904360607765,34.77133499991038],[137.476717497015,34.77478555920624],[137.48202917001026,34.782284162184396],[137.48858389133363,34.78398472081824],[137.4929422182089,34.78686610818437],[137.49165167308627,34.79584694587987],[137.49436055789351,34.80176582942954],[137.48742888483525,34.80924249524503],[137.48701389087842,34.81174944088406],[137.49357389122213,34.81529500006428],[137.49499944167098,34.81938610778269],[137.50165778198107,34.82335055858147],[137.49887778238383,34.82680000002006],[137.4999683398671,34.83128805410047],[137.50794944171344,34.83498749537665],[137.50988083023617,34.834438053673296],[137.51779693897765,34.83584666718997],[137.52388055764163,34.84098000012693],[137.53437944195775,34.84418166665063],[137.53883847041914,34.84179177497049],[137.54227360634195,34.842049161839384],[137.54427944164297,34.8450011082146],[137.55099861209635,34.84942749488306],[137.55158944239895,34.85186444089129],[137.55884333265374,34.8514816669454],[137.5651952793387,34.85213749484956],[137.5741350063255,34.8504569461312],[137.57720083025413,34.85137082910052],[137.58701722356602,34.85003999974623],[137.5952133326292,34.85907500001127],[137.59647389075747,34.86368472067335],[137.59753194584266,34.8725008286504],[137.60917861240307,34.87514889230761],[137.61625277584494,34.87534082921593],[137.61692610905277,34.878329720640124],[137.62078639407684,34.87910833298321],[137.62869888484568,34.8825627746524],[137.6335927759859,34.885486386987225],[137.63579250332145,34.889555278753164],[137.64125167322618,34.89308333262977],[137.64201306085408,34.89613666677383],[137.64044055758575,34.904640000435734],[137.64338917017415,34.90822777469208],[137.64638306092957,34.908416108017036],[137.64786360582082,34.91213222542194],[137.64696306069675,34.918790829233444],[137.6489913880422,34.91994749498099],[137.65284138841946,34.925485558811545],[137.65259167276758,34.93053472060092],[137.65099834030127,34.93335638668793],[137.6566616733976,34.93820916172348],[137.65950610941945,34.94457638699072],[137.66340555092552,34.947149720583184],[137.67062082968755,34.94827389202652],[137.67549833967666,34.94535082917747],[137.68289583727312,34.95495000024238],[137.68581778226485,34.954588613074066],[137.68953083028362,34.95680610831528],[137.68997138836892,34.96364222480889],[137.69416333257186,34.9677438923668],[137.69613055817877,34.97142944091604],[137.70421972795816,34.96995055887123],[137.70725111504703,34.97228416198453],[137.70176805375274,34.98046416239123],[137.69990917037194,34.984838332622985],[137.70813167273855,34.99445694613121],[137.70200472114107,34.998473892156426],[137.70104639367617,35.00353889190637],[137.70674834006388,35.017545559380096],[137.71094416304277,35.02089638655906],[137.71299527920883,35.02538972055919],[137.71652000019787,35.02746889197584],[137.71734805366975,35.03514861301812],[137.72216167312274,35.03634194592411],[137.72329888473575,35.03908444109413],[137.72875250312563,35.040336945793456],[137.73136778199762,35.04510083813324],[137.7352991701207,35.04807194636328],[137.73584444886228,35.05143638658001],[137.74027610915516,35.056512504648424],[137.7547441630128,35.065425838331805],[137.7582325028278,35.068423332670704],[137.76159666695264,35.068562775251905],[137.76381000013146,35.07219110803328],[137.76846693879827,35.07233583772876],[137.77173693940824,35.073979170702216],[137.77567472081182,35.07798166732016],[137.77405833962075,35.0841277753766],[137.77455861179055,35.09269972101538],[137.77683416276648,35.09745917070421],[137.7798299996548,35.09772055865693],[137.78611722393077,35.09560694590391],[137.79296778173784,35.095551667275686],[137.79519027181368,35.10307861328744],[137.8013238909848,35.106592504640446],[137.79831472074784,35.11831389227234],[137.79921472088267,35.123592775086536],[137.79731083003082,35.12710194589812],[137.79200306099256,35.12905250526893],[137.79313693881875,35.135217505383594],[137.7987344487359,35.13545944100048],[137.80098749687556,35.13086027927852],[137.80586167307786,35.13112444074039],[137.80985834029025,35.13702555908236],[137.81485778216097,35.14047277469882],[137.8123963943782,35.14375361303888],[137.81356972816047,35.151012224734416],[137.82186082991348,35.14800750524222],[137.82896333279166,35.15191250455848],[137.82729500585992,35.155481946134955],[137.82129082970812,35.15844027859606],[137.82172583717772,35.16102222499575],[137.82573693940833,35.16592305440548],[137.82547194607355,35.168200279019686],[137.8181441630228,35.17467972079254],[137.81044194633887,35.17481389244722],[137.8049841631887,35.179243891692295],[137.8031997283848,35.18311805415493],[137.80740019456334,35.187825252333596],[137.8138143059855,35.186280531821126],[137.81663744516197,35.18839635960438],[137.81696814476413,35.19300522501118],[137.8203448121634,35.19730491878704],[137.8216584437822,35.20318908131111],[137.82395510994047,35.204778532303465],[137.82891428017,35.2043310269554],[137.8277176386582,35.208665467837136],[137.8286318031153,35.21158102674303],[137.83551177684706,35.211201027205675],[137.83811566760403,35.21246658556453],[137.8267482225525,35.215948532099105],[137.82151936362777,35.21564853175437],[137.80677630428306,35.20980630641594],[137.8004246426832,35.20565102667359],[137.79420241241144,35.204957413753675],[137.78349243832542,35.2059760272719],[137.77909518789272,35.20275158631671],[137.77345160840503,35.205448775440686],[137.767719973598,35.206894891586046],[137.76609330686074,35.20999710837992],[137.76928836606533,35.21598766699731],[137.7680214137573,35.21846183774369],[137.76037977990302,35.220765441272135],[137.7470039166975,35.22048489236397],[137.74331306124884,35.218871837765164],[137.7407428024385,35.2210643327528],[137.73551946804912,35.22269738737458],[137.7294208298075,35.22098350528461],[137.72241997370293,35.22210017098615],[137.7221547474437,35.230522946077144],[137.7182663936792,35.22919294589781],[137.71177386497197,35.22887433318397],[137.70576108860337,35.23384905359103],[137.69981994773252,35.231614053945464],[137.6940624376315,35.23370905432944],[137.68722352784357,35.23072600040467],[137.68126075198222,35.23508850463082],[137.67858433180152,35.23089155929807],[137.67363457837314,35.231169332898446],[137.66787847031526,35.22729710757551],[137.66129788628848,35.22717294627449],[137.65697094665188,35.22825905391227],[137.65391508361427,35.226712666956075],[137.65379535687032,35.21798961273049],[137.64868671931674,35.21444322527469],[137.64538616064283,35.21402238662387],[137.6446166926063,35.20900655910549],[137.6401105837365,35.20937794583557],[137.63298474704845,35.212198504857156],[137.62680364457265,35.2118846126848],[137.6127269387972,35.20881933284596],[137.6030844231077,35.20607350478849],[137.60222914356018,35.20435322492142],[137.5914838387082,35.19933905395425],[137.58351466906674,35.199700999601475],[137.57789133601636,35.19903517123623],[137.57660053188908,35.20666517056122],[137.57872583672804,35.219435135323295],[137.57559108875785,35.2204240271472],[137.57239805392715,35.22660791932009],[137.56852111525734,35.22783513508347],[137.5626311152339,35.235365108213216],[137.55714639379107,35.23726261297924],[137.55041722377587,35.242905107884496],[137.5479164196072,35.25092122483471],[137.54599669259335,35.25178566667523],[137.54842197079734,35.25973510788896],[137.5521094681775,35.25990789193571],[137.55748199739628,35.26455372127725],[137.557743385349,35.26744205410756],[137.5558997796512,35.27242317139229],[137.55721367117405,35.274852054079076],[137.56407119333096,35.27765650534349],[137.56659647164986,35.281221224579895],[137.57074619987725,35.28309705388597],[137.56741147865682,35.28720927858541],[137.56682119334346,35.29000872062602],[137.56198425357047,35.289317053839]]],[[[137.31616313921757,34.695799135421794],[137.31615021955702,34.697896892227845],[137.31612839211164,34.69789674833629],[137.31614133605387,34.69579908056318],[137.31616313921757,34.695799135421794]]],[[[137.31180066107174,34.69685000042722],[137.31179564195543,34.69790882892937],[137.31177380012082,34.69790877497002],[137.311778832727,34.6968499455686],[137.31180066107174,34.69685000042722]]],[[[137.31615036344863,34.69840138671469],[137.31614335862912,34.69942255880409],[137.31612153028448,34.699422387033565],[137.31612852071476,34.69840122483669],[137.31615036344863,34.69840138671469]]],[[[137.27500000005,34.73972455934097],[137.2866838652683,34.746420198133706],[137.28664072568904,34.746486134627446],[137.27500000005,34.73972455934097]]],[[[137.31880941592192,34.74849169383663],[137.31429949392657,34.74856953195837],[137.31195693896166,34.74464755883781],[137.3115076385667,34.74032569407558],[137.30828861242958,34.74037022490603],[137.30805875470787,34.73505122513399],[137.3186878860372,34.733119198092595],[137.31880941592192,34.74849169383663]]],[[[137.30162603091662,34.797934802049554],[137.3015567192673,34.79791527866723],[137.30198350243677,34.79676161305804],[137.30206121915,34.79675955900649],[137.30162603091662,34.797934802049554]]],[[[137.29855019483568,34.808113748051085],[137.29846430598298,34.808119224922336],[137.29833878130978,34.80719819773867],[137.2984246692631,34.807190027397894],[137.29855019483568,34.808113748051085]]],[[[137.29862844394756,34.80990366692072],[137.29926758762917,34.803949386954685],[137.3015047474462,34.79804819756629],[137.30459719760267,34.79740982910039],[137.3113735019856,34.79906369403432],[137.30803980509302,34.80507466726215],[137.30082075187624,34.809624558726455],[137.29862844394756,34.80990366692072]]],[[[136.9571363288785,34.827601359814935],[136.95489182879487,34.83048938687574],[136.94601413704288,34.82481877466677],[136.94556267197981,34.820022000415065],[136.9571363288785,34.827601359814935]]],[[[137.04990596558787,34.71436719758816],[137.0499623350937,34.7144152249827],[137.04996041504114,34.71463066657208],[137.04981500635756,34.71445961282092],[137.04990596558787,34.71436719758816]]],[[[137.0502958882447,34.71456953155871],[137.05019674428434,34.714714666848465],[137.05003469544488,34.71475372080761],[137.05004230910538,34.714545640169206],[137.0502958882447,34.71456953155871]]],[[[137.04514533059262,34.71511774838541],[137.04484422767905,34.715125558997386],[137.04436202288912,34.714792774766806],[137.04473680905653,34.71474041443861],[137.04514533059262,34.71511774838541]]],[[[137.04864230929525,34.71533972085149],[137.0487223345682,34.71541541409016],[137.04870413678657,34.71553836040704],[137.0485668867525,34.715459891860576],[137.04864230929525,34.71533972085149]]],[[[137.03873557728514,34.71708325179071],[137.0388001953728,34.717164919225695],[137.03865447462442,34.71756880205862],[137.0385712189866,34.717547080733254],[137.038630441142,34.71715453205604],[137.03873557728514,34.71708325179071]]],[[[137.03790538342673,34.71785227915939],[137.03797319140972,34.717996305585075],[137.03812416329959,34.718150720979054],[137.03802530532369,34.718188828851396],[137.03792985667758,34.71805233334857],[137.03790538342673,34.71785227915939]]],[[[137.03861360583335,34.71821749474162],[137.03872000012802,34.71846027931849],[137.0385211150575,34.718486386637494],[137.0384044487064,34.718324441220034],[137.03861360583335,34.71821749474162]]],[[[137.03854360620255,34.71914389177721],[137.0386255506287,34.71938861259446],[137.0384500002674,34.719498613170515],[137.0382513876915,34.71931000015644],[137.03854360620255,34.71914389177721]]],[[[137.03828360590376,34.71959666715253],[137.03820805385863,34.71980722542315],[137.0380172240158,34.71969499992434],[137.03828360590376,34.71959666715253]]],[[[137.04632968916394,34.71985700020048],[137.04520630372804,34.71792980161911],[137.04431066080838,34.717787027049724],[137.0444012450215,34.715895107972926],[137.04495778237583,34.71579433264242],[137.04541085632604,34.71822749520277],[137.04632968916394,34.71985700020048]]],[[[137.0354460308098,34.72107489179285],[137.03528885899368,34.72090649463905],[137.0356253052637,34.72093491861165],[137.0354460308098,34.72107489179285]]],[[[137.04406320425358,34.721521558972825],[137.04398830061962,34.721315595338524],[137.0442090014443,34.7212951708355],[137.04428390417888,34.72141774843038],[137.04406320425358,34.721521558972825]]],[[[137.0333191701436,34.72185133317254],[137.0330752794007,34.72183833257304],[137.03310936370622,34.72176191897745],[137.0333191701436,34.72185133317254]]],[[[137.0441586636914,34.722425775129466],[137.04369824857542,34.72239189227207],[137.04369917038048,34.722355801579056],[137.0441586636914,34.722425775129466]]],[[[137.03819066097026,34.72259174771102],[137.03778313858106,34.72261419838662],[137.0377538647491,34.72255558597158],[137.03819066097026,34.72259174771102]]],[[[137.03981085618614,34.72276210808485],[137.03976795132996,34.722547946230804],[137.04015085567755,34.7225483599189],[137.04006394339638,34.72282736019457],[137.03981085618614,34.72276210808485]]],[[[137.03917693936432,34.724438081052654],[137.03896391695127,34.72444300034425],[137.03896868965342,34.72432572065554],[137.03915405971213,34.72427874816577],[137.03917693936432,34.724438081052654]]],[[[137.0321598828724,34.72498108091219],[137.03108247707473,34.725676586005704],[137.03105795076385,34.72565069362469],[137.03213547257405,34.724953387189146],[137.0321598828724,34.72498108091219]]],[[[137.0557296370132,34.72645572085486],[137.05579700432838,34.72655080167823],[137.05564802893343,34.726655802023686],[137.05564983117483,34.726464494640766],[137.0557296370132,34.72645572085486]]],[[[137.03341058443095,34.72892116188217],[137.0332514143214,34.72902927927788],[137.03296593982634,34.72891808080482],[137.03274972841734,34.728991774850556],[137.032765421587,34.72879677485133],[137.03298306111947,34.72887222527305],[137.03341058443095,34.72892116188217]]],[[[137.03398472061838,34.729703892220925],[137.0337186121243,34.729963054351515],[137.03353472055096,34.729698053822176],[137.03382111505243,34.72953472075079],[137.03398472061838,34.729703892220925]]],[[[137.0409510886219,34.7324218287045],[137.0362880804306,34.73150008116386],[137.03250814533476,34.723001225226426],[137.03708444898814,34.721079892023454],[137.0374828657417,34.723958306230884],[137.04408547326602,34.72649605365001],[137.046829222091,34.72061782934941],[137.0502078077442,34.71906186461342],[137.05309608301786,34.72053280204722],[137.05201910529752,34.72335658603765],[137.05466822296023,34.7267516400762],[137.04925508395502,34.72848680192442],[137.0409510886219,34.7324218287045]]],[[[137.09804416290785,34.76553846822577],[137.09787289242013,34.76527982860125],[137.09821538303356,34.765236748377276],[137.09824852125234,34.76546333256681],[137.09804416290785,34.76553846822577]]],[[[137.10391834025927,34.76750758600633],[137.103773644738,34.76758213530735],[137.10372379981357,34.76748016207989],[137.10391834025927,34.76750758600633]]],[[[137.10245577191642,34.76946433271286],[137.0988404145536,34.76866544065763],[137.0985910892075,34.76602649522664],[137.1023556162188,34.76619253166007],[137.10245577191642,34.76946433271286]]],[[[137.0957736058673,34.77008044115951],[137.09600333318735,34.770255720824935],[137.09593111492904,34.77050044074281],[137.09567250318355,34.770297667003774],[137.0957736058673,34.77008044115951]]],[[[137.14278352813733,34.77046410813216],[137.14264627810337,34.77061319774094],[137.14237955896954,34.77040316197639],[137.14275605744615,34.77030741385613],[137.14278352813733,34.77046410813216]]],[[[137.09371027241116,34.77213502691001],[137.09459914433512,34.77261702665453],[137.09429027217834,34.77289141430737],[137.09371027241116,34.77213502691001]]],[[[137.14750311267858,34.77340972058221],[137.14470671933964,34.77224205432742],[137.14640099890698,34.770500359803805],[137.14750311267858,34.77340972058221]]],[[[137.09156561596046,34.77542555904239],[137.0898773015963,34.77584874762164],[137.08985844371227,34.77579599968567],[137.09154775632396,34.77537091893282],[137.09156561596046,34.77542555904239]]],[[[137.08944564230262,34.776132775107556],[137.08899247662157,34.775722224700985],[137.08906138807265,34.775676747783734],[137.08944564230262,34.776132775107556]]],[[[137.15230422795787,34.77864091864353],[137.15211477317825,34.77863763971533],[137.15207983091955,34.77857146759919],[137.15226547257362,34.77849602707005],[137.15230422795787,34.77864091864353]]],[[[137.02364005204686,34.77931346764245],[137.02345316483172,34.7794816669454],[137.0232564723084,34.77930446812678],[137.02345963725247,34.77915091877992],[137.02364005204686,34.77931346764245]]],[[[137.14590756158475,34.78001713498287],[137.1432786381987,34.779002829217234],[137.14575063618292,34.77832227895004],[137.14590756158475,34.78001713498287]]],[[[137.15280367095272,34.78052449470971],[137.1527492736601,34.780389973218746],[137.15299785976345,34.78039461282117],[137.15294988273092,34.780481775113856],[137.15280367095272,34.78052449470971]]],[[[137.10693861172763,34.78288916220515],[137.1069382493008,34.78294035970987],[137.10617175082575,34.782941694303815],[137.10617255481964,34.78288849490815],[137.10693861172763,34.78288916220515]]],[[[137.08301272425786,34.779184387049895],[137.080751828634,34.78197000021538],[137.08069031140883,34.78196735980589],[137.0829661996305,34.779166054369966],[137.08301272425786,34.779184387049895]]],[[[137.14689861178158,34.78483702720712],[137.1468175226106,34.784876585685936],[137.1465421403076,34.78455227936428],[137.14661403391062,34.78451161292065],[137.14689861178158,34.78483702720712]]],[[[137.1405707777193,34.78503010805309],[137.137733994928,34.78484122524242],[137.13774549905565,34.78478082857242],[137.1405707777193,34.78503010805309]]],[[[137.10833333341668,34.78575058642048],[137.10859007816964,34.7859872520101],[137.1078912186049,34.78703735978638],[137.10784522727545,34.787016494615614],[137.10852311285146,34.78599436025155],[137.10833333341668,34.78575058642048]]],[[[137.0135851360452,34.788265080968756],[137.01400905307537,34.788763532011444],[137.0142061089249,34.78904944087907],[137.01417797723195,34.78908438673511],[137.0138574192846,34.78863116169879],[137.0136023607604,34.788340197742],[137.0135851360452,34.788265080968756]]],[[[137.11431221793453,34.789342198084],[137.1140008555551,34.789712305978185],[137.1139713883689,34.78969516220201],[137.11428282719078,34.78932569372586],[137.11431221793453,34.789342198084]]],[[[137.17320503168696,34.77272086507594],[137.17340674422599,34.77335674781568],[137.17336075199717,34.77336666733788],[137.17320503168696,34.77272086507594]]],[[[137.17271002594703,34.77453858558732],[137.17262544740652,34.77461225175409],[137.17093097268628,34.77374155872599],[137.17105639393753,34.773722413958296],[137.172599779856,34.774513441442195],[137.17271002594703,34.77453858558732]]],[[[137.23239389056562,34.780121666781554],[137.23205500623362,34.78010916170848],[137.2322672237534,34.779808054298314],[137.23259972829487,34.77994500036152],[137.23239389056562,34.780121666781554]]],[[[137.17516296999509,34.78043149491759],[137.1751204671359,34.780434918636615],[137.17501066081343,34.77951449489808],[137.17505306114992,34.77951105409193],[137.17516296999509,34.78043149491759]]],[[[137.17254089494645,34.780741135095354],[137.17245522732696,34.78061205360342],[137.17395364534457,34.77917416175819],[137.17394316464538,34.77934869408699],[137.17254089494645,34.780741135095354]]],[[[137.23664085619066,34.78447738742153],[137.236613579753,34.78349591860183],[137.2372665891818,34.78377764022599],[137.23664085619066,34.78447738742153]]],[[[137.23639533137953,34.78487102697636],[137.2363156415537,34.78482113528719],[137.23634822309214,34.78459310768585],[137.2364667438452,34.78442130569874],[137.23656022027797,34.78453344126535],[137.2364540598071,34.78465697304091],[137.23639533137953,34.78487102697636]]],[[[137.18815975366977,34.78648261298224],[137.1881139431041,34.78689794598347],[137.18808094697818,34.78689541439189],[137.1881267440541,34.78648008139072],[137.18815975366977,34.78648261298224]]],[[[137.236240531975,34.78997905389025],[137.23619693913747,34.790255919175365],[137.23615236064302,34.79025089196517],[137.2361920234432,34.7899788020801],[137.236240531975,34.78997905389025]]],[[[137.23576966313954,34.78946744126944],[137.23441169944044,34.79050241435499],[137.2313511410424,34.78848758583348],[137.23490868998408,34.78668219772527],[137.23576966313954,34.78946744126944]]],[[[137.19296749695252,34.793503936757304],[137.1929196368318,34.79350475693906],[137.191950259397,34.78725122486418],[137.19200852107645,34.78731719823014],[137.19296749695252,34.793503936757304]]],[[[137.19166652419085,34.794215531621546],[137.19033500595583,34.79452669435153],[137.19032900118248,34.794510359965216],[137.19166652419085,34.794215531621546]]],[[[137.2618315052199,34.803218972877346],[137.2616090534151,34.80320525192087],[137.26153299595103,34.80292658619305],[137.26189027231828,34.803008973085696],[137.2618315052199,34.803218972877346]]],[[[137.25726435756417,34.80322858573072],[137.257022633288,34.803359026997555],[137.25686581130822,34.80316505402408],[137.25723080385853,34.80303244089447],[137.25726435756417,34.80322858573072]]],[[[137.24755686136018,34.80896736025551],[137.24627491555498,34.80923469362625],[137.2462623088585,34.809193666554506],[137.24754425376432,34.80892633318376],[137.24755686136018,34.80896736025551]]],[[[137.23191516165548,34.8121649186761],[137.23099620021458,34.81125894614348],[137.2313105582357,34.809861162262905],[137.2322914793683,34.81060969408219],[137.23191516165548,34.8121649186761]]],[[[137.22500000014998,34.814727026930825],[137.2251046173842,34.81481616233606],[137.23054036264773,34.81502141370731],[137.23054269818704,34.815064946290306],[137.22509360608512,34.81485916162109],[137.22500000014998,34.814727026930825]]],[[[136.80583147943923,34.87764219792916],[136.79981403379065,34.87721580236746],[136.7984521139739,34.87557658559098],[136.8005643318785,34.87040744075085],[136.8064783006331,34.845858081185554],[136.8069654993584,34.84018969389933],[136.81420316494416,34.84020638711513],[136.8126412835685,34.84673153243432],[136.82446963656457,34.84874369356663],[136.82338566841395,34.859187559158556],[136.8206509209033,34.865934918861456],[136.81537605715937,34.872061278705075],[136.80583147943923,34.87764219792916]]],[[[136.82188092096783,34.90015249494172],[136.8210186635805,34.90028815317578],[136.82101490261573,34.90027163982438],[136.82187520127957,34.9001333690598],[136.82188092096783,34.90015249494172]]],[[[136.8224172757367,34.932118279235226],[136.82190133557822,34.932359891995475],[136.82186571972727,34.93229794579361],[136.8224172757367,34.932118279235226]]],[[[136.82205457825626,34.960939225165134],[136.8186911668639,34.96434944087406],[136.81101922225935,34.95477710827697],[136.8202721399474,34.94976877480917],[136.82305652373964,34.95318408068084],[136.82427228303948,34.959695026604265],[136.82205457825626,34.960939225165134]]],[[[136.9793561736485,34.92990713500632],[136.9791736193671,34.92973611722806],[136.9787940856786,34.926412577278654],[136.9788055637258,34.926411631191854],[136.9789465891139,34.92766501812616],[136.97918617390292,34.92973099109241],[136.9793561736485,34.92990713500632]]],[[[136.9823378857849,34.94649510766317],[136.98214269782727,34.94634476619808],[136.98166189418112,34.94430595455623],[136.98167333265826,34.94430958601862],[136.9821552011017,34.94634204484953],[136.9823378857849,34.94649510766317]]],[[[136.9829879382428,34.94924336029288],[136.98278933915674,34.949084495053455],[136.98230744463297,34.94705160364862],[136.98231923474498,34.94704935984015],[136.9827988458901,34.9490759191184],[136.9829879382428,34.94924336029288]]],[[[137.02782693936183,34.573917774985375],[137.02759527939872,34.573945829336594],[137.02711861173464,34.5736980544217],[137.02731610915123,34.57357416201802],[137.02782693936183,34.573917774985375]]],[[[137.02870583690492,34.57457694566955],[137.0285083403877,34.57440805388865],[137.02870583690492,34.57418833332497],[137.02887277625769,34.57423416187714],[137.02870583690492,34.57457694566955]]],[[[137.03060639396995,34.575427775371566],[137.03074250276438,34.57568138688657],[137.03050416263704,34.57569833281184],[137.0303338912961,34.57550110788986],[137.03060639396995,34.575427775371566]]],[[[137.0365309468458,34.577231360339056],[137.03601180330213,34.57721944072466],[137.03623910515068,34.57698008076619],[137.0365309468458,34.577231360339056]]],[[[137.0332288854048,34.57739972062069],[137.0330655514341,34.57738833340494],[137.03304500642196,34.57727555931967],[137.0332086119879,34.57723610786013],[137.0332288854048,34.57739972062069]]],[[[137.03899949413142,34.57765644109196],[137.03843527926483,34.57762358615963],[137.0384146946825,34.577466774971754],[137.03887630409827,34.57738594570486],[137.03899949413142,34.57765644109196]]],[[[137.03878121877824,34.57848391899773],[137.03869411224355,34.57856819806392],[137.03855664097625,34.578516747849676],[137.0386063294186,34.57843738717571],[137.03878121877824,34.57848391899773]]],[[[137.01538833970017,34.578937224973004],[137.01534055782054,34.57926972142059],[137.01504778172978,34.57907805430881],[137.01538833970017,34.578937224973004]]],[[[137.01445500619366,34.58053138661427],[137.01425749708585,34.58034027888084],[137.0146186117596,34.5800358286906],[137.01475472055392,34.5804361079401],[137.01445500619366,34.58053138661427]]],[[[137.1227244493739,34.58614055893969],[137.12280639380015,34.586275279180825],[137.12260333317738,34.586229161946335],[137.1227244493739,34.58614055893969]]],[[[137.1232152786622,34.58627472070185],[137.1232061091747,34.58640833297824],[137.12305444930348,34.58639694576249],[137.12309138805722,34.58628361319825],[137.1232152786622,34.58627472070185]]],[[[137.12253138831295,34.58669416180618],[137.12259861173663,34.58654833313909],[137.12269805427184,34.58659194576171],[137.12264610943043,34.58669138739765],[137.12253138831295,34.58669416180618]]],[[[137.12346693864833,34.586851946060506],[137.12355138768646,34.58695055942081],[137.1233836056689,34.586983613103314],[137.12336111542322,34.586896666647874],[137.12346693864833,34.586851946060506]]],[[[137.12487666732443,34.58703833325251],[137.12469138809718,34.58705749510739],[137.1247194424484,34.5869361082149],[137.12487666732443,34.58703833325251]]],[[[137.13188795106817,34.5871391076837],[137.13193019492257,34.58729744142386],[137.13174924772966,34.5872806133097],[137.13188795106817,34.5871391076837]]],[[[137.1142136063729,34.58720972065214],[137.1138888845644,34.58730749494498],[137.11381360591326,34.587168332952274],[137.11402472086422,34.587133333136876],[137.1142136063729,34.58720972065214]]],[[[137.1200730222522,34.58710038737303],[137.11992914421467,34.587324278992355],[137.11968024604653,34.58716594615157],[137.1200730222522,34.58710038737303]]],[[[137.11181610912615,34.58729499976448],[137.11193944215165,34.587409720881965],[137.11175583656268,34.587488891798955],[137.1117269386474,34.5873613868186],[137.11181610912615,34.58729499976448]]],[[[137.10672591396985,34.58741422468677],[137.10671063628695,34.58751172108913],[137.10657953311897,34.58750782882328],[137.10657452659314,34.587381440800925],[137.10672591396985,34.58741422468677]]],[[[137.13026555071463,34.58738772076674],[137.13031121918743,34.58746608139461],[137.13009097341978,34.58754599964823],[137.13007533061204,34.58743419773009],[137.13026555071463,34.58738772076674]]],[[[137.10860444933599,34.5873650002946],[137.10846639440865,34.58759082905357],[137.10833847034417,34.58736653184002],[137.10860444933599,34.5873650002946]]],[[[137.11287250316354,34.587387774726096],[137.11263888537633,34.58762194559637],[137.1123650058404,34.58737527864622],[137.11287250316354,34.587387774726096]]],[[[137.12617861225317,34.587511667129775],[137.12610221844272,34.587625828868966],[137.12599055771818,34.58752333313538],[137.12617861225317,34.587511667129775]]],[[[137.12986693880828,34.587567495243775],[137.1298622182668,34.587664999740014],[137.12974027199607,34.58769055937188],[137.1297525027759,34.587549161664526],[137.12986693880828,34.587567495243775]]],[[[137.12477116695584,34.58754897280693],[137.1248286902919,34.58764491877804],[137.12471289178654,34.587720495104804],[137.1246641116595,34.58755902722737],[137.12477116695584,34.58754897280693]]],[[[137.10833038903627,34.5877479729906],[137.10805466858812,34.58772182879943],[137.10806771685168,34.587607387371065],[137.10832992228814,34.58757291905505],[137.10833038903627,34.5877479729906]]],[[[137.13056416340544,34.587787775185745],[137.13041666739537,34.587824441444866],[137.1303574974006,34.58765944103044],[137.13057749675409,34.58768722468574],[137.13056416340544,34.587787775185745]]],[[[137.11099972795512,34.58798972064915],[137.11095778177628,34.587798333226544],[137.1111902718137,34.58782361316929],[137.11099972795512,34.58798972064915]]],[[[137.12887111501004,34.587853892443206],[137.12895167268164,34.58791972101835],[137.1289041632965,34.588010000361294],[137.12878583679696,34.58795138704693],[137.12887111501004,34.587853892443206]]],[[[137.1032084945764,34.588004224915096],[137.10307377433526,34.587967829351896],[137.10313488956353,34.58783922539999],[137.10329072588638,34.587843945941415],[137.1032084945764,34.588004224915096]]],[[[137.10992666678226,34.58790082896013],[137.11001500628754,34.5879611078189],[137.10988972802863,34.58804277525394],[137.10983610864957,34.587933333156855],[137.10992666678226,34.58790082896013]]],[[[137.10456525318398,34.58825158614184],[137.1044310887238,34.58810435992831],[137.10474442331656,34.588007135121245],[137.10475635462217,34.58823630576097],[137.10456525318398,34.58825158614184]]],[[[137.10268182910318,34.588330332578835],[137.10275655017472,34.588384225351774],[137.1026296108679,34.588495612682436],[137.10260128402206,34.588346162445475],[137.10268182910318,34.588330332578835]]],[[[137.10307377433526,34.58886894644479],[137.10276350193408,34.58891033324534],[137.10264433187047,34.58873144100323],[137.1029868350745,34.58861838722885],[137.10307377433526,34.58886894644479]]],[[[137.09932647203914,34.589421053738704],[137.09908508410945,34.58941605440742],[137.0991686895834,34.58925994559007],[137.09932647203914,34.589421053738704]]],[[[137.09978258120123,34.589822558764126],[137.10001814512134,34.58985299991605],[137.10002258057773,34.589997720618385],[137.09976758770404,34.58998716167821],[137.09978258120123,34.589822558764126]]],[[[137.09867966343575,34.589949468393286],[137.09853299570125,34.59008919785822],[137.0983777169581,34.589990865086406],[137.0984954993679,34.5898889188386],[137.09867966343575,34.589949468393286]]],[[[137.14402311317622,34.59037036010409],[137.1440106359821,34.590510468183595],[137.14382999995462,34.59048138680663],[137.1438309208604,34.59038133273236],[137.14402311317622,34.59037036010409]]],[[[137.15135888490465,34.591536946273095],[137.15145778155147,34.591697495043434],[137.15130389136152,34.59175805359138],[137.15122360618454,34.591587495366696],[137.15135888490465,34.591536946273095]]],[[[137.14724880688698,34.59179508137794],[137.14719666689268,34.59192813517535],[137.14703581055426,34.591773414011925],[137.14724880688698,34.59179508137794]]],[[[137.0364485599531,34.61166380244259],[137.03600291800035,34.61103180207607],[137.03608243785425,34.6110005317492],[137.0364485599531,34.61166380244259]]],[[[137.2219835795786,34.612211720694404],[137.22183435776947,34.61231013530454],[137.22162143967773,34.61222533283291],[137.22183486408778,34.61206782916702],[137.2219835795786,34.612211720694404]]],[[[137.0368045008271,34.612275053650876],[137.03712992230817,34.612809197886236],[137.0370572498922,34.61283861291173],[137.0368045008271,34.612275053650876]]],[[[137.03755778196614,34.61352258599862],[137.03716797712048,34.613015972709036],[137.0372371727574,34.61298727893984],[137.03755778196614,34.61352258599862]]],[[[137.03682814490298,34.61382589225116],[137.03758341084574,34.61506919778532],[137.03748160759017,34.615111892200105],[137.03682814490298,34.61382589225116]]],[[[137.1043302459442,34.63527963964373],[137.1052743056647,34.636588891564145],[137.10525061032752,34.6366013058057],[137.1043302459442,34.63527963964373]]],[[[137.10393756236863,34.63792597300528],[137.10390341061395,34.637935612838305],[137.10344406029526,34.63668466666411],[137.1034726326559,34.63667782911858],[137.10393756236863,34.63792597300528]]],[[[137.13364055796546,34.64012989208089],[137.13333666715357,34.64040061319781],[137.13316671866914,34.64038380217079],[137.13364055796546,34.64012989208089]]],[[[137.11842325642817,34.64570164001873],[137.11826002587952,34.64558113536117],[137.11845944244942,34.645376467649896],[137.11859450083557,34.645510945973456],[137.11842325642817,34.64570164001873]]],[[[137.11430500627114,34.64608769379208],[137.11336185486573,34.64351982897699],[137.11569296955497,34.643332305941215],[137.11430500627114,34.64608769379208]]],[[[137.11596408637354,34.64701019766255],[137.1158193000207,34.64670127874109],[137.11594396943872,34.64670349467059],[137.11596408637354,34.64701019766255]]],[[[137.11960372183432,34.64752166729119],[137.11973505792662,34.64716974818538],[137.1198005060885,34.6465964951322],[137.119992437601,34.64668394610726],[137.1198324383164,34.64739227913043],[137.11960372183432,34.64752166729119]]],[[[137.11125827494948,34.64682064036032],[137.11150377368028,34.64724708088812],[137.11113756164923,34.6472682788081],[137.11125827494948,34.64682064036032]]],[[[137.12442868983226,34.649726748290846],[137.12627830120266,34.64775466724416],[137.12828693879123,34.648240495402604],[137.12628214040853,34.64930682874723],[137.12442868983226,34.649726748290846]]],[[[137.13503297019554,34.65068097304851],[137.13488775576536,34.65078749504693],[137.13457338515366,34.650651468090814],[137.13483299604604,34.65043455880789],[137.13503297019554,34.65068097304851]]],[[[137.09116328086077,34.650000000099965],[137.0912079771665,34.65128749472217],[137.0911575881522,34.65128819799202],[137.09116328086077,34.650000000099965]]],[[[137.10523141429837,34.6513908286239],[137.1048225294362,34.650951865036575],[137.10530844392963,34.650625305913195],[137.10523141429837,34.6513908286239]]],[[[137.09889785964856,34.65210113475962],[137.09877250314855,34.65184727862908],[137.0991127238732,34.651480278791894],[137.09913111500896,34.651807441360404],[137.09890927384401,34.65185736002917],[137.09889785964856,34.65210113475962]]],[[[137.10207752335907,34.65252710763997],[137.10154330717796,34.65277149480869],[137.10132763895945,34.6520552252685],[137.1019995854126,34.6520059729973],[137.10207752335907,34.65252710763997]]],[[[137.09817671938015,34.65318010807556],[137.09808455325958,34.65277274756431],[137.0985812838992,34.65275880177734],[137.09817671938015,34.65318010807556]]],[[[137.12582693866239,34.65278177495901],[137.12461243841335,34.65221141412553],[137.12523147864988,34.65017600012237],[137.12738345018613,34.65132244057821],[137.12582693866239,34.65278177495901]]],[[[137.0933432806679,34.6532559191254],[137.09188111522133,34.653682532323046],[137.0914554732915,34.65231386489302],[137.0933432806679,34.6532559191254]]],[[[137.127081971356,34.653680026811855],[137.12730533057663,34.65268472102309],[137.1276881449919,34.65291519837774],[137.127081971356,34.653680026811855]]],[[[137.1583333333167,34.65569910822734],[137.15896883294533,34.655776666659904],[137.15895399503086,34.65585969386984],[137.1583333333167,34.65569910822734]]],[[[137.13237722363,34.65651141367084],[137.1325030873477,34.65636774787333],[137.13255289180256,34.65650038708327],[137.13237722363,34.65651141367084]]],[[[137.1352970821946,34.656465134558346],[137.13489919604115,34.65653202703146],[137.1348802464263,34.656411667164775],[137.1352970821946,34.656465134558346]]],[[[137.16024503208268,34.65636336008106],[137.158523580399,34.65711864041299],[137.15850055775456,34.6570814948152],[137.16024503208268,34.65636336008106]]],[[[137.08874408567112,34.657501694047994],[137.08780693903907,34.65803497313556],[137.08775202283766,34.65796172065694],[137.08868425377534,34.6574328653345],[137.08874408567112,34.657501694047994]]],[[[137.12541583697134,34.65818722476064],[137.12508277574955,34.65805277521548],[137.12522693887217,34.6579011081497],[137.1254622177072,34.65803722503796],[137.12541583697134,34.65818722476064]]],[[[137.12326583674906,34.6590686134258],[137.12300555136517,34.65882305444046],[137.1231705580749,34.65869416180618],[137.1234369390636,34.65891194612948],[137.12326583674906,34.6590686134258]]],[[[137.22372286571772,34.67614427943499],[137.2246393899959,34.67661291885116],[137.2245968610564,34.67664305423364],[137.22372286571772,34.67614427943499]]],[[[137.23778944242883,34.69048225175459],[137.23773878092004,34.6905894680296],[137.235499948364,34.68986755884083],[137.23560085589486,34.689802586420285],[137.23778944242883,34.69048225175459]]],[[[137.24683678319104,34.71086086503692],[137.2465230609905,34.71056941364759],[137.2465984700434,34.71053213495014],[137.24683678319104,34.71086086503692]]],[[[137.2532598572567,34.715445532385445],[137.25190489009867,34.713342694409846],[137.24691350165688,34.71331327938441],[137.24930333308237,34.7106704947476],[137.25220855967734,34.711902865424975],[137.2532598572567,34.715445532385445]]],[[[137.26874669280573,34.72059425182334],[137.26869608255822,34.72064838741318],[137.2685392740683,34.72054855906879],[137.2685897799944,34.72049441358638],[137.26874669280573,34.72059425182334]]],[[[137.27519158172618,34.729932721118246],[137.27290299597655,34.73257580163198],[137.27283555131976,34.73252716179911],[137.27519158172618,34.729932721118246]]],[[[136.80080824870174,35.0401834683924],[136.80080422783294,35.04189730641559],[136.8007796106906,35.04252277500609],[136.80078894925066,35.039619999963065],[136.80080824870174,35.0401834683924]]],[[[136.80079224436668,35.04362574763019],[136.80079243772093,35.04471364042223],[136.80076961112877,35.04471761272771],[136.80079224436668,35.04362574763019]]],[[[136.80345758759768,35.04850019812568],[136.8012823353116,35.04849338666054],[136.80129085638794,35.048474748211106],[136.80345216558499,35.04848522531296],[136.80345758759768,35.04850019812568]]],[[[136.80407082990496,35.048488414308906],[136.80638616059287,35.048491505278776],[136.80638596633935,35.04850799974446],[136.80407082990496,35.048488414308906]]],[[[136.83090260677,35.049372000017854],[136.81003686131214,35.04930741430576],[136.81005861231517,35.03628127855819],[136.81085352756827,35.02665255936819],[136.81792014300026,35.026003044704794],[136.8258573930043,35.028226468276955],[136.83897133585856,35.030196694022266],[136.83090260677,35.049372000017854]]],[[[136.8130304930629,35.04998244093696],[136.81303227012324,35.05089264927642],[136.81298974118363,35.05089180211502],[136.8130304930629,35.04998244093696]]],[[[136.81007644587135,35.049983531814576],[136.8100758748019,35.050895892231665],[136.8100365240664,35.05089596417747],[136.81003719765863,35.04998350483493],[136.81007644587135,35.049983531814576]]],[[[136.8115545527005,35.04998471172513],[136.81155400771138,35.05089617102152],[136.81151224409484,35.05089614404187],[136.81151278908396,35.04998467575223],[136.8115545527005,35.04998471172513]]],[[[136.81453568117684,35.049984117273254],[136.81453417571174,35.050897648607645],[136.81448923479047,35.05089752270254],[136.81453568117684,35.049984117273254]]],[[[136.81608503229847,35.04998995477263],[136.81608277589942,35.050900783644295],[136.81604024606054,35.05090002731447],[136.81608503229847,35.04998995477263]]],[[[136.82434374766592,35.07855561285129],[136.8252801946253,35.079565639642624],[136.82520367131247,35.079613107658815],[136.82427883280195,35.07860500002079],[136.82434374766592,35.07855561285129]]],[[[137.00751922233428,34.65666372105392],[137.00756435840844,34.65678333268471],[137.0074721140469,34.656937721098984],[137.00738834039964,34.656926892362264],[137.007395772397,34.65674264016076],[137.00751922233428,34.65666372105392]]],[[[137.0067304413568,34.65687997293247],[137.00681992210184,34.65699133328343],[137.0066875616817,34.657053080735125],[137.00666014315118,34.65690972070712],[137.0067304413568,34.65687997293247]]],[[[137.00732128424988,34.656910027375886],[137.00719542233094,34.65700497330096],[137.00705233479744,34.656850360056126],[137.00729669318787,34.65675566684058],[137.00732128424988,34.656910027375886]]],[[[137.00958143973173,34.6582828289894],[137.009422970194,34.658307054027375],[137.00929763887495,34.658173027163514],[137.0095977561316,34.658196494972344],[137.00958143973173,34.6582828289894]]],[[[137.00718194599006,34.659370559004174],[137.00722221763135,34.65957166719875],[137.00704527871676,34.65958749526675],[137.00696861241158,34.65942333302047],[137.00718194599006,34.659370559004174]]],[[[137.00863150474026,34.65964886500319],[137.00650836636805,34.65839161278274],[137.00906319101352,34.65742436044593],[137.00863150474026,34.65964886500319]]],[[[137.00764861229368,34.65981389239727],[137.00778888494915,34.659940278621036],[137.00767360625196,34.66007361300689],[137.0074544486639,34.659931108234105],[137.00764861229368,34.65981389239727]]],[[[137.0059945270259,34.660351667195755],[137.00561871563127,34.66019889216517],[137.00588535742338,34.65998361335312],[137.00624041516312,34.66008089211954],[137.0059945270259,34.660351667195755]]],[[[137.00560350180024,34.660907747694466],[137.0052893389319,34.66087810783847],[137.00528680913897,34.6606039728951],[137.00553985677902,34.66075213530286],[137.00560350180024,34.660907747694466]]],[[[136.99587839237392,34.66742449514436],[136.99454019487416,34.667066332944955],[136.99529625222033,34.66658274769571],[136.99587839237392,34.66742449514436]]],[[[137.00669929963306,34.668932359640735],[137.00652783399244,34.668905639883405],[137.0065738001408,34.66866049458622],[137.00683389127119,34.668799134972176],[137.00669929963306,34.668932359640735]]],[[[136.9924453051068,34.67015216229248],[136.99248377360732,34.67032774772741],[136.99230897507925,34.67032505425789],[136.99232136234104,34.67020030569961],[136.9924453051068,34.67015216229248]]],[[[136.99076861178207,34.67018913522048],[136.990340947277,34.66999886475588],[136.9905016336436,34.66976774798326],[136.9911093001541,34.67007425222499],[136.99076861178207,34.67018913522048]]],[[[136.99855422799533,34.67281310783869],[136.99800260723464,34.672708585932526],[136.99842175066328,34.67244005376551],[136.99855422799533,34.67281310783869]]],[[[137.01047011740206,34.67738389235279],[137.01053477326127,34.67747194587366],[137.01045955936127,34.67765766666804],[137.01030352788553,34.67753538674873],[137.01047011740206,34.67738389235279]]],[[[136.9987483403637,34.67894227896306],[136.99868830072455,34.678942639591185],[136.99868192003464,34.67821816193867],[136.9987419201036,34.67821780220987],[136.9987483403637,34.67894227896306]]],[[[136.99949204911889,34.68110313490183],[136.9980004668481,34.67941994577393],[136.99986549889377,34.67914969410316],[136.99949204911889,34.68110313490183]]],[[[136.99895005200335,34.68200066729702],[136.99889131008592,34.682011053567294],[136.99870938982656,34.681308081402904],[136.9987680292212,34.68129769423325],[136.99895005200335,34.68200066729702]]],[[[137.00572486441104,34.68074380178507],[137.0035563039803,34.680746613065764],[137.00356280158212,34.682553892448254],[137.00181163360003,34.68255261271298],[137.00223046676274,34.67930555920424],[137.00572486441104,34.68074380178507]]],[[[137.00574516210963,34.684629197679385],[137.00516758781396,34.68476691895819],[137.00515085592735,34.684719279171475],[137.00572858580563,34.68458158577164],[137.00574516210963,34.684629197679385]]],[[[136.99999999970032,34.681651440761414],[137.00072263284335,34.68313397315438],[137.00435357995377,34.684794666640585],[137.00429953339676,34.684816333107335],[137.00067596612303,34.68315905434696],[136.99999999970032,34.681651440761414]]],[[[137.0083733327632,34.68560249525899],[137.004490609654,34.67793438716228],[137.00010708197635,34.67839044955963],[137.00069878102397,34.6740186130686],[137.0032200258836,34.6664878017707],[137.00605644624807,34.66682394586849],[137.0046340991844,34.67228573909563],[137.00660788624498,34.67610755921652],[137.0101473282367,34.67732297317673],[137.01026238659995,34.683861585843545],[137.0083733327632,34.68560249525899]]],[[[137.00862583721266,34.68620333321729],[137.00841389128811,34.68616972105582],[137.00841861182948,34.68601444141342],[137.0086438911028,34.68604610834126],[137.00862583721266,34.68620333321729]]],[[[137.00855916957005,34.69192610790361],[137.00778639382713,34.69267361269709],[137.00680472086128,34.69205999986917],[137.007937782103,34.69121110820612],[137.00855916957005,34.69192610790361]]],[[[136.97296136167756,34.69276802712278],[136.97305403411644,34.6930461982235],[136.97292024557294,34.69326972112077],[136.9727514401269,34.69320338712669],[136.97279061009863,34.69292191911131],[136.97296136167756,34.69276802712278]]],[[[136.97323192001716,34.69404527936621],[136.97333627824673,34.69422194578624],[136.97295428041582,34.694914531680354],[136.97277620026148,34.69474889184795],[136.97323192001716,34.69404527936621]]],[[[136.99135269806868,34.69894266707047],[136.9914445530237,34.69912310794513],[136.99141727568679,34.69937477512582],[136.99124775617906,34.69937102675152],[136.9912113875955,34.69906797320846],[136.99135269806868,34.69894266707047]]],[[[136.9753723082855,34.70086697523078],[136.97578418878936,34.70068291908149],[136.9758121136382,34.700784305951004],[136.9753723082855,34.70086697523078]]],[[[136.9753723082855,34.70086697523078],[136.97453513568803,34.70047297324919],[136.9743739169228,34.700515720723956],[136.974285913764,34.700340333139934],[136.97418591364908,34.69958497276832],[136.97425272428382,34.69949538680271],[136.97436695167357,34.70032162184543],[136.9753723082855,34.70086697523078]]],[[[136.97813333308693,34.701179252220754],[136.9781808946326,34.70124541444437],[136.9764574707358,34.70082289226269],[136.976996004562,34.700900359863795],[136.97813333308693,34.701179252220754]]],[[[137.01087824863237,34.70214569426844],[137.0098446434156,34.70213238700012],[137.00985241175943,34.702065134798204],[137.01087824863237,34.70214569426844]]],[[[136.9378325286483,34.703521333242975],[136.93780379980558,34.70356582899984],[136.93685647194866,34.703147919440994],[136.9368851882009,34.703103494730556],[136.9378325286483,34.703521333242975]]],[[[136.99336027175923,34.70298555943606],[136.9937080539836,34.70344194558936],[136.99311472086777,34.703644721127034],[136.99297138781935,34.70322777474206],[136.99336027175923,34.70298555943606]]],[[[136.9392104150287,34.703590197929316],[136.93764527900646,34.70389080171918],[136.9376302459392,34.703837828952715],[136.93919535678037,34.70353713523065],[136.9392104150287,34.703590197929316]]],[[[136.98761216586877,34.70456133263946],[136.9877981447686,34.70467872114614],[136.98778427992067,34.704834495415696],[136.9875692996835,34.70468622508929],[136.98761216586877,34.70456133263946]]],[[[136.92547639412032,34.70562999972475],[136.92531778159037,34.7052511081522],[136.92577999984712,34.70532833293629],[136.92547639412032,34.70562999972475]]],[[[136.9263755506912,34.706149162154134],[136.92589639370362,34.7064566673414],[136.9258236061745,34.706093054351015],[136.9263755506912,34.706149162154134]]],[[[136.92427610855566,34.7064447207473],[136.9244258366831,34.70651555944556],[136.92430639412487,34.70672305372602],[136.92413778203309,34.70669027883338],[136.92427610855566,34.7064447207473]]],[[[136.91910688727307,34.707831108418986],[136.9190943579183,34.707864558702454],[136.91873016936188,34.707752468102],[136.9187420494061,34.70771905379138],[136.91910688727307,34.707831108418986]]],[[[136.99999999970032,34.709129829278254],[136.99884355428662,34.70832719784198],[136.99771997369794,34.707905973382026],[136.9977440863206,34.70786210804988],[136.9988656937968,34.70828258607253],[136.99999999970032,34.709129829278254]]],[[[137.00761639408142,34.70913972092143],[136.99799250335138,34.70497733293763],[136.99890405977465,34.7004684946254],[137.01140358041096,34.70451122511298],[137.01337306061828,34.70709361307985],[137.00761639408142,34.70913972092143]]],[[[136.9713803373328,34.71117225169809],[136.97129588829466,34.711209999841685],[136.9709018287565,34.710524333331364],[136.97098625171418,34.71049527893405],[136.9713803373328,34.71117225169809]]],[[[137.02221389095837,34.71257416166827],[137.0223499997528,34.71295610823785],[137.02179167274755,34.71277694619914],[137.02221389095837,34.71257416166827]]],[[[136.90361778183524,34.71581472117248],[136.90356639367417,34.71543889179145],[136.90410055769462,34.715148333428886],[136.9044391704315,34.71541277457993],[136.90361778183524,34.71581472117248]]],[[[136.97009944193576,34.71914138716534],[136.96970749670368,34.71907249459997],[136.9696583397606,34.71852944078114],[136.97041805375022,34.71879249517758],[136.97009944193576,34.71914138716534]]],[[[136.96633741863707,34.719255801614],[136.96625924776617,34.71925766680795],[136.9662410508838,34.71878425199168],[136.96632077758193,34.718781775258776],[136.96633741863707,34.719255801614]]],[[[136.8921679507904,34.71889564022166],[136.89185041456506,34.7190036398062],[136.89154817131111,34.7198392251002],[136.89149308693652,34.71982249501218],[136.8918016344379,34.71896216217408],[136.8921679507904,34.71889564022166]]],[[[136.96764674430187,34.722711225342834],[136.96763060956505,34.72283558629334],[136.96750527914537,34.72283277501259],[136.96745630386545,34.72272649493186],[136.96764674430187,34.722711225342834]]],[[[136.85916264643902,34.73800773017268],[136.8577313232421,34.737982360297735],[136.85772903986333,34.73791500017717],[136.85916494240826,34.737941927677866],[136.85916264643902,34.73800773017268]]],[[[136.85746862497717,34.739327927741726],[136.85758094670337,34.73967018902806],[136.85897272401212,34.74055738731363],[136.8589417252805,34.7405971346501],[136.85758889760962,34.739721477364355],[136.85746862497717,34.739327927741726]]],[[[136.94970044102263,34.74119110808323],[136.94959061041845,34.74130036042334],[136.94936267184994,34.74122874830812],[136.94937024594014,34.74108613471742],[136.94970044102263,34.74119110808323]]],[[[136.82168250264544,35.00803583758386],[136.82167639355077,35.017635279344745],[136.81658666694113,35.0167261079236],[136.80903555075008,35.012791946291316],[136.80022472089422,35.00361110836599],[136.81199221766678,34.996027225376224],[136.82168250264544,35.00803583758386]]]]}},{"type":"Feature","id":"JP-23-capital","properties":{"Kind":"capital","PrefectureCode":"23","PrefectureName":"Aichi","CapitalName":"Nagoya","CapitalNameJapanese":"名古屋市","PointKind":"prefecture-representative-point"},"geometry":{"type":"Point","coordinates":[136.906586,35.18021]}}]}
