{"type":"FeatureCollection","bbox":[139.16475691330095,36.79184894637183,141.04611156859403,37.976644413708755],"displayBbox":[139.16475691330095,36.79184894637183,141.042099948354,37.976644413708755],"DataVersion":"2019-boundaries-v1","Attribution":{"BoundarySource":"MLIT National Land Numerical Information, via Fabio Crisci / piuccio","BoundarySourceURL":"https://github.com/piuccio/open-data-jp-prefectures-geojson/tree/513fb852832c99470e16b95a30ddd68bf3469dc0","BoundaryDate":"2019-01-01","CapitalSource":"Geospatial Information Authority of Japan (GSI), prefecture representative points","CapitalSourceURL":"https://maps.gsi.go.jp/","CapitalSourceRetrieved":"2026-10-04","Notice":"Simplified and enriched by Ashiato Kai. Modern geographic context, not historical immigration-era boundaries. See GEOLOCATION.md and THIRD_PARTY_NOTICES.md."},"features":[{"type":"Feature","id":"JP-07","bbox":[139.16475691330095,36.79184894637183,141.04611156859403,37.976644413708755],"properties":{"Kind":"prefecture","PrefectureCode":"07","PrefectureName":"Fukushima","PrefectureNameJapanese":"福島県"},"geometry":{"type":"MultiPolygon","coordinates":[[[[140.28000258085444,37.976644413708755],[140.27723671859974,37.975577747615034],[140.27329775638646,37.97080161280422],[140.27131769115863,37.966640224866524],[140.27335933926213,37.956789972978925],[140.2762782751223,37.9565880266162],[140.27807466911077,37.952628585940545],[140.2752887807527,37.947246639920536],[140.2785854471607,37.94253583815845],[140.27934124460285,37.93371969420855],[140.27665756239662,37.926633585971274],[140.27219802941556,37.920048305684816],[140.26658267155312,37.91708830588067],[140.2645676128052,37.91208691877631],[140.2646436963496,37.90621605362804],[140.2670567185927,37.89672327865645],[140.27072007816912,37.890737440580494],[140.2649394159214,37.8862307750303],[140.2649157718455,37.879517720866204],[140.26993250318253,37.87429494585513],[140.2685632808708,37.871075774927135],[140.26993272441575,37.866681054287255],[140.26562871569274,37.8625479734103],[140.2653000521558,37.85481769428122],[140.26730335856325,37.847679919093025],[140.26218491570137,37.84039186539235],[140.26211596557937,37.834416305668015],[140.26878099864427,37.82409100039939],[140.2750110889906,37.8208804413793],[140.27830805397355,37.82107322544903],[140.2865842539602,37.81523125192081],[140.29058399505539,37.81510402662957],[140.29314985708027,37.81170680162762],[140.29880182904128,37.80780819828976],[140.2921928273372,37.80409433278726],[140.29033641979004,37.80125627925395],[140.28644885922756,37.80083572119162],[140.28221131040368,37.798229054227534],[140.28233900064447,37.791969359998006],[140.27860586267047,37.78819964030123],[140.27628797700856,37.7817680001931],[140.26617525258587,37.77917691937938],[140.26048031101766,37.77096527902444],[140.25541158177919,37.76817308102295],[140.25495014323462,37.76461780197002],[140.24929413691495,37.7606453328159],[140.24437124533677,37.758413972726714],[140.24042722443687,37.75352705403037],[140.23892603111153,37.748136532075364],[140.2355073276011,37.745886000238784],[140.21868267226762,37.74618246804653],[140.215546809138,37.74819553209818],[140.20740975405693,37.748976414330116],[140.20438778197058,37.74769838687109],[140.1995985863058,37.752811135225784],[140.1915626330092,37.75310450486904],[140.17826163386735,37.75650258602559],[140.17140486444305,37.755990666735954],[140.16693230927876,37.757244864858706],[140.16156082956866,37.756716252353215],[140.15402180296394,37.75339769374864],[140.14600975364726,37.75272022455874],[140.14399910517466,37.74625250544881],[140.14008403435082,37.73942727884588],[140.13270391705214,37.73811925180206],[140.12737105063354,37.73391791867704],[140.1153711672456,37.734356000029436],[140.1070835800432,37.73818346789278],[140.10228325616742,37.73761264031117],[140.09649016888625,37.74376258577479],[140.0962157200795,37.74693422483466],[140.0911365236317,37.751502252027365],[140.0867837482714,37.75799525197937],[140.08032116698837,37.75608805432029],[140.07732946788076,37.75732027930752],[140.06904272424242,37.75790250489672],[140.06717275042217,37.764134107902805],[140.06460411219007,37.76779717070292],[140.05892574602638,37.77115186496667],[140.05355708209368,37.77080744081081],[140.05448518784124,37.775035748201276],[140.0525218553994,37.77879238725893],[140.04848208817793,37.7790493325607],[140.0447028662444,37.773991612822726],[140.0374980537922,37.76797997319727],[140.03087411165097,37.76768805416043],[140.02185958535165,37.765295585922615],[140.01928233521164,37.76195977472389],[140.01291894915028,37.76178505443676],[140.01023474713588,37.763990333287325],[140.0019943842335,37.7594000811489],[139.9985465885543,37.761358972738435],[139.99256875534388,37.758699531758054],[139.98649871644272,37.76040813482763],[139.98311119332698,37.76436535957373],[139.97803977961223,37.7662409190832],[139.97875788556803,37.77375200015473],[139.9733870039072,37.77577810797334],[139.97199282720726,37.77886950502369],[139.9672597798151,37.78380755917158],[139.968816199608,37.78746755888079],[139.9601458879224,37.79564753230784],[139.95936422777697,37.797952802280065],[139.96213038860662,37.8058025050816],[139.9598981705642,37.808951386797105],[139.95791902714143,37.814861386843575],[139.94987588826166,37.816369198279915],[139.94834450109795,37.818043919391414],[139.94087805427887,37.821738918916026],[139.93726416281095,37.828195305668885],[139.93259856007558,37.82939391939391],[139.92817380028077,37.82771086516436],[139.93016325622932,37.825524505351666],[139.92795211379905,37.82162977539389],[139.9254648381318,37.81415646764691],[139.92292620038393,37.81331786512743],[139.916361672853,37.814392027070426],[139.9100885598392,37.814094532236936],[139.90747769124255,37.815407027112656],[139.90251455320413,37.81370122543126],[139.89807949437318,37.81017538658489],[139.88923413684597,37.811059838340896],[139.88655185488426,37.8091637212288],[139.88007180337104,37.810105946332385],[139.87616871601347,37.813247612787166],[139.87679372235243,37.816571775067416],[139.87200758797985,37.81716289225375],[139.86368335880002,37.82479372075369],[139.85857858563327,37.82653733263186],[139.85598549933138,37.82588289238163],[139.85059014262106,37.8212990002487],[139.84520063600064,37.81986958631239],[139.83833358013067,37.814698197663745],[139.83085627759522,37.815128775072935],[139.82730233493487,37.81284377492034],[139.82161394312902,37.811993775292535],[139.8158949680784,37.807434081217934],[139.8132963041811,37.80399963957177],[139.80823819683542,37.80364935993009],[139.80412900105262,37.80627299979915],[139.8025837481415,37.814114080800266],[139.79923761272573,37.8168885315805],[139.79495674355894,37.81764158609036],[139.79326924757777,37.820837135425506],[139.78886700410897,37.823316026713314],[139.78830977967266,37.82649574798046],[139.78241474704305,37.8320404676935],[139.77642775603613,37.82994602668782],[139.77317133608835,37.830042414226114],[139.75789642038353,37.82461969384383],[139.75542194566628,37.82213191905288],[139.74130678308165,37.8202927748917],[139.73845844400205,37.823150000172404],[139.73622291825313,37.82810913532836],[139.73284871589556,37.83068969407418],[139.73040564190694,37.83054138687555],[139.72932674413403,37.83126138680359],[139.72755175131238,37.834005802026184],[139.72746260691383,37.835293865019935],[139.72407869007952,37.83691774835546],[139.72085647224844,37.83968664042618],[139.71991758812624,37.84132746788839],[139.71921313927498,37.84195802664169],[139.71938425418,37.84259497327946],[139.71927258086498,37.84419025187867],[139.71883230876415,37.845063026837295],[139.71599868978774,37.8470196944034],[139.71648011666412,37.85134827889999],[139.71563652380655,37.85415827898146],[139.70616810607328,37.85592830574677],[139.69597658934822,37.848530559038124],[139.69200374787476,37.84877638692075],[139.68729980524188,37.846830558883255],[139.68082919571088,37.84695086479064],[139.68935622560934,37.846706386790345],[139.6925487550211,37.84839583789767],[139.69775130967525,37.8476925051051],[139.7106898046908,37.854393838404974],[139.71496983119278,37.85259689223284],[139.71491591413815,37.84988886537889],[139.71619175084868,37.84640691884431],[139.71856481171676,37.844926918942235],[139.71905425425052,37.84238525227761],[139.718846472187,37.84194997321276],[139.71948564194884,37.841403585607054],[139.72055561574916,37.839568027042844],[139.72377924821376,37.83684191931917],[139.7271609212396,37.83487997273261],[139.7275475883506,37.83324525166711],[139.72893647164096,37.83128027886181],[139.73054119312167,37.83028138657676],[139.73253233529908,37.83050358567198],[139.73597817135555,37.82791941434954],[139.73804844398057,37.823170838363524],[139.74150538306708,37.81771277462491],[139.73883866387325,37.815638332742935],[139.72903827489654,37.81343697313787],[139.72162124492456,37.809422838393346],[139.71353997389076,37.79899230615007],[139.70494846979614,37.79583899977007],[139.70315814533217,37.79202455858655],[139.70052144011242,37.790313720701704],[139.6965596890784,37.7851220811192],[139.68921680910853,37.781140170882225],[139.68018972827338,37.77504436010918],[139.67769046734122,37.77008797328142],[139.6687064460457,37.76326494642018],[139.6665010889542,37.756999135002104],[139.65788766478397,37.7550074676206],[139.65910097343124,37.75041472076282],[139.6572319708788,37.74085030579704],[139.6523605322128,37.73794308090851],[139.65007933889046,37.73309002708311],[139.64961260693633,37.729061999611645],[139.64294761344172,37.72760810792789],[139.640337588409,37.72295727925507],[139.63527481178323,37.71985838725482],[139.6327647733757,37.71653863974649],[139.6266450577233,37.7114019730227],[139.62448756165168,37.70834946805354],[139.6233789107082,37.702438081252524],[139.62171919568436,37.69982113503738],[139.62424197119003,37.69519002669841],[139.62831783360116,37.691946135206024],[139.62727756171012,37.68836472095518],[139.62416808019282,37.689218054369746],[139.61783364510666,37.688826135217994],[139.60941167311034,37.68427110772552],[139.60683944208665,37.6809063869203],[139.60531500578293,37.67477138728975],[139.60085472096864,37.67078694636052],[139.60092330686518,37.668830559382855],[139.59383108863392,37.66507583767981],[139.58865968919338,37.66724777506482],[139.5848049421944,37.66231972137808],[139.57999328056553,37.66087086499846],[139.5684932556593,37.65313391919506],[139.5630576650792,37.6538136402873],[139.55884347614563,37.651463918624984],[139.54932121869933,37.64909335967087],[139.55259705590947,37.6424916937367],[139.55500486388348,37.641472531632076],[139.55169094667986,37.636822532134204],[139.54772814523778,37.63399835963662],[139.54603953319793,37.62889086512138],[139.54788756176163,37.62176030609328],[139.55214953257496,37.61875391925804],[139.55137671906039,37.61591808075485],[139.5481038909818,37.61364725211905],[139.5485077819087,37.609865000369496],[139.55436664110766,37.60239555880804],[139.55768719800585,37.60250805410345],[139.56235000025242,37.60010972138656],[139.56570552459038,37.59280997290199],[139.5641535537436,37.58883108078982],[139.56723574623277,37.58413691918355],[139.56826185470095,37.579852468017066],[139.57040296962145,37.57951246762633],[139.5716451617949,37.574494693975],[139.57039182881988,37.57290441380769],[139.57183208768072,37.568269693791365],[139.56759063579932,37.562749720723104],[139.56871756186604,37.553552505244],[139.57022474737425,37.55053110782444],[139.56573722389385,37.54611002715609],[139.57062778214652,37.54399864022514],[139.5701991436756,37.53906391896476],[139.57656277615126,37.53457033315442],[139.57853247669254,37.53015810811024],[139.58551530498744,37.52776674783718],[139.59058450097405,37.52794063984868],[139.58695917012972,37.520226505349],[139.5851057717141,37.51289705405583],[139.57841377427633,37.50968736018359],[139.56703199672938,37.50234572127806],[139.56177752331416,37.503870413888535],[139.55593972803604,37.504290414371155],[139.5552347207058,37.506070413718646],[139.548814695342,37.50901705409382],[139.54501358031257,37.50936761342467],[139.5428463553751,37.51202508129251],[139.53915717266545,37.511157865043515],[139.53164433162067,37.51285758640853],[139.5279587812728,37.51241810840901],[139.52326569435638,37.514529224644036],[139.52009538269579,37.51383725208757],[139.51657425359895,37.50985977460897],[139.51378783374162,37.50862446764512],[139.50836422842644,37.51074583795014],[139.50570447538132,37.509558053861156],[139.50235836604577,37.511773027403365],[139.49673722374393,37.512570252115495],[139.4859863287062,37.510309639778086],[139.48375800292956,37.50692410776139],[139.4757976646306,37.50258269443583],[139.471777665407,37.50638322490596],[139.46609795115955,37.50832958624147],[139.46360486407332,37.51290122511148],[139.457948196752,37.515794225423235],[139.4571987548187,37.51786755934046],[139.45064678272286,37.51735835960068],[139.43895119304318,37.51318944074018],[139.43382286573274,37.514563026562485],[139.42842922223087,37.51424969376842],[139.42799338468706,37.511431386649235],[139.42343228317338,37.51144413543852],[139.4142164202517,37.508297467853936],[139.41155114087246,37.50555000033228],[139.41065503210416,37.50202027911263],[139.41403224359328,37.49680089184773],[139.40789082999788,37.492461440842874],[139.40863583737405,37.48914646783527],[139.40696693937286,37.48667510836958],[139.40985082955217,37.48388597255962],[139.40801914436804,37.479156559327805],[139.40578691283588,37.47757183787007],[139.4045985855563,37.473400468357],[139.40469581126274,37.46803633341011],[139.40636219206158,37.46620605386636],[139.39751269765293,37.45983917124079],[139.39223379955024,37.46055083805078],[139.38552267173395,37.46361358629804],[139.37961014279392,37.4631088921617],[139.36853588842052,37.46540666718397],[139.36625756213687,37.4685238648845],[139.36255031114797,37.46996802680303],[139.3512535537086,37.46555586471146],[139.34582961114768,37.46027119835719],[139.34152875544783,37.4599359194072],[139.33514255538466,37.457788720573035],[139.3275358368095,37.45996458619675],[139.32647111505003,37.462386251824114],[139.3152209991498,37.45921574770864],[139.31048233459217,37.45564966689864],[139.30712455295577,37.458600775105765],[139.30042975412994,37.457481918655674],[139.29850944165742,37.45564830622442],[139.28651155566388,37.45224474819662],[139.28202871585268,37.449831171071764],[139.27722007774446,37.4528256131116],[139.27339172494817,37.450379252100845],[139.26991697838594,37.45021925191702],[139.25891603134983,37.44706427909324],[139.2563315821369,37.45092177531973],[139.2512196107965,37.45244013490435],[139.2374694677418,37.445147667331014],[139.22299885891027,37.44861630569801],[139.22178163371552,37.44578991906957],[139.2187146694465,37.44528269424097],[139.21303294431505,37.438653278825825],[139.2136229175636,37.43660910812389],[139.20753175088964,37.42890883757286],[139.20673477259174,37.42412605407418],[139.20837138762954,37.41707497263195],[139.19868858590962,37.41302746764359],[139.1972463287551,37.410766640368195],[139.2019541123924,37.40866191921225],[139.20760405997942,37.40060277509804],[139.2077120883423,37.39621833280984],[139.21252814495801,37.39186250515053],[139.2153006612965,37.391264440701434],[139.2219370824305,37.39333389224538],[139.22616233482393,37.39108527866273],[139.22731983064568,37.38865500022814],[139.23166511015677,37.38737527934569],[139.2314614137133,37.3802322521168],[139.2349744749921,37.3787683599719],[139.23803191993727,37.3729483595792],[139.23758686074507,37.36812810762609],[139.23355367116505,37.35701397281662],[139.2348449681208,37.35076563972257],[139.23362182898427,37.34360650473644],[139.22814905323628,37.34327566663876],[139.22496933916375,37.34052955889206],[139.22186819705973,37.335716774909315],[139.21786985710833,37.334029838306435],[139.22109286634281,37.323675666598774],[139.22422092065904,37.3214342790688],[139.2221131391101,37.315010080850584],[139.215691166714,37.30864258578674],[139.21770697819454,37.305245919263825],[139.21525418882982,37.30026591893704],[139.214675279041,37.292121748420016],[139.21228997390324,37.2862089730657],[139.2054105055904,37.28361313483833],[139.19757824873727,37.27539146794197],[139.19296377425883,37.27330394632014],[139.19177489029903,37.269336721112836],[139.18356510974206,37.26379727862155],[139.17908230860178,37.25977561295423],[139.1779117510265,37.256795333437935],[139.1746897796097,37.25634894594714],[139.1732358879259,37.25260617083819],[139.1702336451666,37.250180333255855],[139.16976114136367,37.24738589234511],[139.16475691330095,37.23942780235126],[139.16590408580498,37.232165586172925],[139.17075464311233,37.2286078016088],[139.17254464292103,37.22494753210299],[139.17831658893954,37.22001336032838],[139.18306019527188,37.21739172055152],[139.18712907894394,37.209713945642136],[139.18963658935718,37.20882199983549],[139.19479466893893,37.203962559024944],[139.19669379967922,37.19945202728928],[139.19672130994059,37.19401425225601],[139.20526632897793,37.19421674810451],[139.2130930612958,37.199640080925064],[139.21431975365374,37.20355925175812],[139.21784839208965,37.20949453174728],[139.2205831126206,37.20920397338472],[139.2217775615852,37.204478413747836],[139.22624092118167,37.203531468102824],[139.22603561585106,37.19787510834965],[139.22843868979373,37.19708983832544],[139.2356486904348,37.18849289243309],[139.24040844409444,37.18753955890355],[139.2408676127502,37.18417846776214],[139.24458121924795,37.181140413998946],[139.24300732832558,37.17348377495631],[139.24321620036744,37.170379612928855],[139.24734817058163,37.16967155869554],[139.24641927433015,37.16627710810212],[139.2511598310614,37.16591794585656],[139.25298566795425,37.1612540806114],[139.25253038886638,37.1580707476669],[139.24988538290415,37.15642102680897],[139.2498392476832,37.15158213460785],[139.2456716993895,37.14486077520468],[139.24330075192825,37.127163026552466],[139.2374648641122,37.11952830578673],[139.23537316513955,37.11394361300739],[139.2357394940824,37.10245972103934],[139.24087586313067,37.09373780175821],[139.23864610923067,37.09050669412869],[139.242565836744,37.08490227921686],[139.24873333337666,37.08137283768639],[139.24659243789074,37.073948134698696],[139.2470227239196,37.07079369427362],[139.25279824923985,37.06316425162896],[139.2545490790768,37.062311775268256],[139.25494992220126,37.05760955933374],[139.25734269800716,37.0559353868087],[139.25661933911124,37.052999279293374],[139.25778406008635,37.04858986463063],[139.25988128359438,37.0481570811844],[139.25955542234487,37.04329764037385],[139.2546215050785,37.040251251693974],[139.253201479165,37.03430877532975],[139.2485406095616,37.03090072069176],[139.24851197065095,37.02394905390577],[139.24336664075793,37.01513464025152],[139.24662021974746,37.009274639812816],[139.25102966318843,37.00461880191625],[139.25378683529425,36.99033189220313],[139.25566544710273,36.98874858627829],[139.25319736656525,36.98368997261417],[139.2484464982074,36.98237497312658],[139.24717900091025,36.98020302674831],[139.2521484440955,36.9765688645615],[139.25269313917704,36.97354719824466],[139.248066719004,36.97141497312259],[139.2511625290275,36.962031667227734],[139.2499191704335,36.955901387239294],[139.2462419199287,36.95553417066549],[139.24181717272438,36.949074720821784],[139.2433954730227,36.94461502686204],[139.24041710816311,36.941251414021565],[139.23591155597364,36.94234027898074],[139.231895966126,36.940527225051426],[139.23275374758748,36.93737808073388],[139.23887291825065,36.933243360392794],[139.24055846989756,36.92948364025784],[139.25465852117384,36.93233558561883],[139.2614258107526,36.93791446787844],[139.2682094419123,36.93859338677544],[139.27511833963968,36.93363477502493],[139.27751114062676,36.9338742249156],[139.28171058427608,36.931147306003425],[139.28623199690924,36.934227305945456],[139.29481900079634,36.934464252123576],[139.30506927382794,36.92581205368339],[139.30901763935265,36.92696455916712],[139.31834603084474,36.92550872135047],[139.3239752265755,36.92601817110176],[139.3275121657539,36.92458569407455],[139.33428555093747,36.92475125206869],[139.33779474693006,36.92727236023131],[139.34238671857224,36.92753319779888],[139.34471946822896,36.923510134585115],[139.35278199739128,36.91576905369891],[139.36120204933513,36.91637572106271],[139.36474985682048,36.91832099961448],[139.37060878077068,36.91736213525439],[139.37313158235668,36.91839380243209],[139.3814254989876,36.914035197666294],[139.38330243805717,36.91140269407913],[139.3932891962395,36.910795505108524],[139.39702367060602,36.91497910809943],[139.39914260734554,36.92009105425882],[139.40785102510483,36.926505531705004],[139.41219108944733,36.92760553206972],[139.42023749736268,36.92412194607101],[139.4269006103749,36.92416638696926],[139.43035011656468,36.92593197288227],[139.43023233505426,36.92971835971457],[139.4349563037905,36.93586697328226],[139.43444856005306,36.94185363963379],[139.4406644492051,36.944663360026084],[139.44172308705095,36.947539468371815],[139.4463203368142,36.94778505433686],[139.4528606995617,36.950786467921205],[139.4566751623289,36.95383591879266],[139.459044112396,36.959438386672275],[139.4584338387507,36.96577141431936],[139.4611652533738,36.9707205858864],[139.47269172464348,36.97135477520277],[139.48433236124959,36.97543725212756],[139.49428658915485,36.967933414195784],[139.5038616080269,36.96956838707143],[139.5151363941294,36.97784444136795],[139.52138031065283,36.97940830574879],[139.52369474741477,36.98151774834548],[139.52676228275323,36.98022136032756],[139.53272060966844,36.981759108396204],[139.5352870301724,36.98060410819306],[139.54472680899505,36.99088766693234],[139.54942847004793,36.99265541391628],[139.55446406016836,36.99249235963475],[139.5567207523609,36.99678233263859],[139.56463021960906,36.9968803866206],[139.57193219211706,37.00158119781406],[139.57642333267074,37.00207838710793],[139.5795347468312,37.00494617132881],[139.58189341135187,37.01490197304764],[139.58805399489597,37.01534666711507],[139.5904884443862,37.01360389160635],[139.59869430569768,37.01204499957714],[139.60283683485216,37.015971080800796],[139.6069543322767,37.01418691939085],[139.6116282492444,37.013795252049306],[139.61932247725053,37.016630505093815],[139.6188252528832,37.019725774624874],[139.62552477314978,37.02598630612317],[139.6230542275706,37.028952972601644],[139.624970636086,37.03272130644319],[139.63099985655822,37.03381099967794],[139.63564791172178,37.031875171202216],[139.64016182940497,37.03272683817312],[139.64294189375346,37.03554350492885],[139.65163389079146,37.037307359647],[139.65574367113356,37.04191653172262],[139.66495396905054,37.040530973225884],[139.66779566843536,37.04210983829847],[139.66846710767095,37.0462640001835],[139.6712374188719,37.04820261296027],[139.67092769056057,37.05117205384727],[139.67259968942415,37.05715119826925],[139.67672888522998,37.05673869363585],[139.68435199664737,37.059166197661966],[139.6920637218633,37.06254841387823],[139.69817457829424,37.061067585700584],[139.70053099900645,37.05937508139493],[139.70541661458515,37.06382564004133],[139.70796827541562,37.06412453242126],[139.71100583724967,37.06842172068593],[139.7177783662786,37.06825008057683],[139.72415674403862,37.069908134552804],[139.7329631654178,37.068668134926554],[139.737281556099,37.0720292521483],[139.74361741930852,37.07220925235515],[139.7460424124274,37.07067535968014],[139.75271189443845,37.070587306159325],[139.75492885907966,37.074293972588805],[139.7628591699148,37.07568564018021],[139.76351669304097,37.07820841388724],[139.77065063621797,37.0835117753482],[139.7749109990434,37.09189427879801],[139.77785822307862,37.08882927864835],[139.78795102482002,37.09070233264657],[139.80147241182237,37.086584613089485],[139.8095057462932,37.08484461288862],[139.81124272387262,37.08597183842966],[139.81853688666808,37.08521213523193],[139.82009167329215,37.09228546770021],[139.81825418927951,37.096665720946305],[139.8211273667347,37.10873683783484],[139.8161481973815,37.111159026867654],[139.81518880691794,37.116150694099304],[139.8184960574472,37.11874653232667],[139.81903581075414,37.121778468001935],[139.82792888540985,37.12629097285014],[139.8281278082518,37.12900761341069],[139.83177313911915,37.133640945773095],[139.83904063611658,37.13318955895102],[139.83976732789995,37.13542927913795],[139.84783569366243,37.13945177487955],[139.85180038907674,37.13715177493452],[139.85631929979593,37.137807612731194],[139.8609648899178,37.14082010776184],[139.8662893899434,37.147227891553996],[139.87756771667682,37.1461267751306],[139.88513805407797,37.149824279267136],[139.8946441893779,37.1532587209133],[139.90243172474436,37.154271505025974],[139.9065072238294,37.149531531954665],[139.91112080438165,37.147861838053416],[139.91633552506448,37.147625999840045],[139.92443725027897,37.151878505288835],[139.93046447515542,37.15147294611961],[139.9337958877701,37.15373655859537],[139.94369588835468,37.15258825204626],[139.9464456419529,37.15422602720946],[139.9546145528194,37.1549407481171],[139.9613803630134,37.15317574766266],[139.9631244749146,37.14848383795879],[139.96980377392504,37.14874850483966],[139.97412883307925,37.14695374761743],[139.97924977965363,37.14687899956624],[139.9904927243598,37.142715332746434],[139.9955586639013,37.143880837930396],[140.004278521037,37.141704946226355],[140.00958975426386,37.141964918646124],[140.01455455334997,37.140124054081866],[140.02444863819414,37.14300702695277],[140.02698894868115,37.140055053597905],[140.0330482226974,37.14019946763136],[140.04707425437346,37.1354374683645],[140.04925007772897,37.13143636029986],[140.0549107002687,37.12884355908301],[140.05751069965913,37.126034107588055],[140.0659625030671,37.12734380197492],[140.07837988322513,37.12459794603842],[140.08935888500457,37.121588198436655],[140.09373591418114,37.124195973365545],[140.1004368086119,37.12342900004836],[140.10267211402686,37.12104789204665],[140.1078074191771,37.11882010766192],[140.10849741862103,37.117089838125594],[140.11913416271148,37.110030080923536],[140.12587561566716,37.10784450531969],[140.1280492221939,37.104171720848285],[140.13483542181734,37.10361310785868],[140.1370215559001,37.10646419796444],[140.1464724377529,37.09928666734589],[140.15079413703984,37.09432917075469],[140.14961243776384,37.092429171269316],[140.15623306140674,37.091389440770115],[140.15744306144825,37.08907694564459],[140.15353496756472,37.087125000418496],[140.15835469521312,37.0805777749444],[140.16436642027418,37.07941164023504],[140.16907894873452,37.075281640435435],[140.17282700376325,37.07025497338839],[140.1777628923437,37.069043558713304],[140.18482347602264,37.06920853214808],[140.18585929986682,37.06767713509174],[140.19306214010578,37.065503505182676],[140.19450433160966,37.06000989214289],[140.1906506610992,37.05666630630503],[140.19327486394388,37.05533519816095],[140.1951417773712,37.0515504409002],[140.19978289156722,37.04769266678318],[140.1997770297861,37.04257266719486],[140.19848586323212,37.038196306214616],[140.1956622177372,37.03673574785654],[140.1995063941049,37.032539918582415],[140.1992718940827,37.02841325167026],[140.20333435839405,37.02387044056843],[140.208987444615,37.02294683772641],[140.21190438398025,37.019872386601435],[140.2173174708247,37.02075208094385],[140.21973496809437,37.01851125189279],[140.22465450070467,37.02380455893331],[140.2321095333284,37.023149802121736],[140.2424437742609,37.02387894635632],[140.2489324376819,37.02587391874641],[140.25027880732114,37.02206030583852],[140.24894377363626,37.01849725214652],[140.25115094735838,37.01361335966885],[140.25126922169727,37.00908141417597],[140.24625530523826,37.00945699984072],[140.24601639404136,37.00519866678508],[140.24342744462092,37.00130980220564],[140.24021321726627,37.000275080930294],[140.24084403412496,36.99652174778049],[140.2433629182641,36.995911198043416],[140.2440287160524,36.991325080987735],[140.2493920488041,36.988471747972824],[140.2509764456065,36.98337480160586],[140.2442013616036,36.97899094567566],[140.24390461680468,36.97317789164646],[140.24884985743506,36.96841038673],[140.2523262776357,36.966672332662085],[140.25308983083107,36.96296789205462],[140.24449500643948,36.95696986456767],[140.2406348895886,36.94984625190307],[140.24099070006082,36.94549013466201],[140.2436139945902,36.943265693956675],[140.25350988257503,36.94123455892782],[140.25533596588218,36.93836510826321],[140.26173683478714,36.93752705433013],[140.26425652381954,36.93331538709549],[140.27297488987938,36.93015480160284],[140.27750936426582,36.931199505352936],[140.27947328126697,36.9336542246628],[140.285980271972,36.935383891653316],[140.28875333329972,36.93324580205217],[140.29270391655257,36.933197441009156],[140.29733114071962,36.92891908095089],[140.30271671910134,36.92703125199074],[140.30592808031668,36.92369680236561],[140.30772916966555,36.91918955855135],[140.31761697814113,36.91292669421165],[140.32185666735143,36.90778305414466],[140.32335136217569,36.9022283060915],[140.3240457458146,36.89333802742806],[140.33333160836708,36.88889408059737],[140.34661280173952,36.8850195323256],[140.35005228318641,36.886499775044626],[140.35517841794967,36.884416694275046],[140.36061513627953,36.885652747676204],[140.36521182936247,36.884324946339234],[140.36777822288673,36.88051435965002],[140.3692931911279,36.874734387182286],[140.37191180288744,36.870182134997606],[140.36859119292933,36.867085252082745],[140.36840727617493,36.8612302518747],[140.37057891138772,36.85522274823131],[140.37490172493472,36.85078719837054],[140.3776983655872,36.842974134848475],[140.3758574974256,36.841388026636196],[140.37720608299435,36.837924694269304],[140.3871297798155,36.834167973373326],[140.39507153002717,36.83229625217035],[140.39678128422895,36.83311958600012],[140.40298243798918,36.831368441400514],[140.40733830072202,36.8323381353967],[140.409897496972,36.830395332678506],[140.41349783385806,36.832120585796474],[140.415842801704,36.82856530584422],[140.42208533057362,36.8241197213481],[140.42306644595976,36.82051917132276],[140.426666744175,36.820943865367155],[140.43092841821203,36.817302441154766],[140.43622350231283,36.821391558673554],[140.4394857462703,36.82048599982909],[140.44713016892217,36.80978680231914],[140.45056131005651,36.8084528918875],[140.45333880684052,36.802984837580254],[140.46195299633382,36.79691591923432],[140.4620054726745,36.79357841371285],[140.46651907919227,36.79184894637183],[140.4756664461496,36.79672000012795],[140.48013846981462,36.79982417114866],[140.48058961112167,36.80373635964531],[140.48549027235822,36.80821217125475],[140.48918089488245,36.80935105380814],[140.48892124531926,36.81871269413557],[140.49305907911332,36.81943433262842],[140.49582522735238,36.81817517114729],[140.50292557725368,36.81903430608838],[140.50475538285468,36.82329264004335],[140.5113682489456,36.82210510776457],[140.5166808563365,36.826556467706894],[140.51905070032967,36.836153919267986],[140.52848282682112,36.839994721379355],[140.52810761257638,36.84855746785291],[140.53284769086827,36.85017661266062],[140.53716530543454,36.85475963964569],[140.53796616070986,36.85877294611464],[140.54088372240597,36.859581279252666],[140.5454660308327,36.85813710834094],[140.55456372193828,36.86143150486009],[140.55691211440262,36.860053999792285],[140.56036941591583,36.863358973238064],[140.56484505755338,36.86223980202527],[140.5722860571559,36.86594780214938],[140.57549752269256,36.86911141386071],[140.5804726334054,36.8668897205842],[140.58287241223206,36.868064441121135],[140.58603221801252,36.87315274770117],[140.59224625186312,36.873452972876464],[140.59329325607894,36.879841081300924],[140.58989791155943,36.884571134850034],[140.58703924826273,36.886254198072834],[140.5823541626146,36.89322010832137],[140.57937744531296,36.89613625178663],[140.5807735798369,36.90440772133934],[140.57386513626705,36.909059945759964],[140.57406374794368,36.91067913463439],[140.5656558107671,36.91643386493098],[140.56768418937395,36.91894472082225],[140.5678867193966,36.92505922490335],[140.57054233466113,36.93113261287982],[140.5674445272432,36.93667510767011],[140.57055208780866,36.939135721136665],[140.57497525310555,36.93918353179458],[140.57469608285805,36.94207799979989],[140.58320516228844,36.94310117108222],[140.58660525342975,36.94510538670431],[140.58929888483578,36.93948066689933],[140.59387450140719,36.93427958623397],[140.59445613524247,36.930062586019574],[140.59296389107078,36.926464467761036],[140.59804452733317,36.92504646802013],[140.60289124543465,36.91996480203403],[140.6071926982845,36.91276617062232],[140.61246944161155,36.91067205427191],[140.61565891063026,36.90663369359015],[140.61470389087197,36.904506135050156],[140.62084394289366,36.902462333070275],[140.62268924831028,36.903226252289755],[140.63515022040644,36.89896333269172],[140.63728192032443,36.89756361257071],[140.64477866440393,36.89898874843203],[140.6473817511669,36.900996892292824],[140.65108652362426,36.89971663991105],[140.65446433226316,36.90100558603899],[140.6558654472327,36.89728661328661],[140.66461138830505,36.89642580200922],[140.67340147889524,36.89317344070179],[140.68010325556088,36.89338474810768],[140.68371719829008,36.89062655886863],[140.69254452710834,36.887602135230395],[140.69503652421633,36.88878791922713],[140.69920961143453,36.88354408119443],[140.70222379988854,36.88351344129234],[140.70548769140385,36.8783943868915],[140.7097513619359,36.8771834137836],[140.7141391703865,36.87282827860224],[140.71992841756253,36.872322838028595],[140.72408739261914,36.87403105438972],[140.72935500602875,36.874414558585045],[140.73420780804395,36.87159283763941],[140.74050241215662,36.87556438678706],[140.74586438423398,36.871242720775],[140.7555564462731,36.869548468187304],[140.76143147887967,36.866432359565806],[140.76683150487008,36.861549837654934],[140.7715438004061,36.86306619804668],[140.77293108919844,36.86668255905289],[140.77720561634624,36.86738253197831],[140.78163036265119,36.86348308057978],[140.78642988343245,36.86194999999253],[140.78581758811129,36.85644253199729],[140.78972985664768,36.85648417060804],[140.79349635497283,36.859456081033386],[140.79008775624504,36.86294997326269],[140.78977871591508,36.87259605386487],[140.79464213982294,36.88452208132907],[140.79909321737819,36.89174619772888],[140.80522627807034,36.898440054065304],[140.81345191997025,36.90600927900505],[140.8230857203298,36.91125310804455],[140.82896836569762,36.91258086531474],[140.83180610896477,36.91026166664267],[140.83431962415136,36.91155703572866],[140.8419850837447,36.910117972966134],[140.854012477394,36.920223586449424],[140.85686411158952,36.91842577512949],[140.8592822177003,36.92064636044125],[140.87142736677959,36.92784558630484],[140.87588216572942,36.93313758573106],[140.8804906363339,36.927707269674784],[140.88275594043432,36.92904845022582],[140.87909003937386,36.9330293514235],[140.88177814534515,36.93458658600218],[140.88421341141986,36.93195944057578],[140.88830355416576,36.93438636004254],[140.88514236073138,36.937790865056456],[140.88840647168138,36.939758170703044],[140.89215394305006,36.9374089733455],[140.8997367189745,36.941282440632165],[140.902704552773,36.944335135358244],[140.90679503186527,36.9421808022023],[140.90767819669145,36.94542974788459],[140.91626461691862,36.940692891863534],[140.91494199657598,36.93645529717429],[140.92100085600475,36.934232225237054],[140.92566727622386,36.93581555904086],[140.92576094691026,36.941095864582564],[140.9370271732655,36.952277748019696],[140.94202311317622,36.95481327860995],[140.94944036258278,36.9564899098815],[140.94972055805738,36.960976305612064],[140.9547661999003,36.962171000091644],[140.9599516341607,36.967545414289475],[140.96004975379321,36.97057625189257],[140.96604258140007,36.969714559279566],[140.96582461721243,36.97224233321714],[140.9695721398424,36.973145359570765],[140.96699688709668,36.977010386719996],[140.96838202291212,36.98382010811156],[140.97414697760098,36.99153953242353],[140.97803221791264,36.99238891871369],[140.98181955892562,36.99583491934612],[140.98010413719624,37.00037338672246],[140.98010007765652,37.009541504636786],[140.97566066071101,37.01156202676617],[140.9728083007625,37.022074559193584],[140.97277791177123,37.03458517116877],[140.97464464263624,37.042674504624756],[140.9735720877817,37.047944973381846],[140.97776552485914,37.070997945598776],[140.9836233849113,37.09059763986926],[140.98977642044554,37.101752612892824],[140.99476211438014,37.10561563994986],[140.99929079083734,37.110788179730775],[140.99997783420974,37.112423505140725],[140.9992278337976,37.11299227867079],[140.99843978037165,37.114936171367276],[141.0004509468538,37.1153361349547],[141.00038763907833,37.118322251970426],[140.9984254217958,37.11998977490822],[140.9987208949534,37.13428286476244],[141.00154619969737,37.144053026625954],[141.00116626491126,37.149060342061205],[141.00268313881588,37.151035613003216],[141.00064705571708,37.15538174776947],[141.00202500594935,37.16624922462205],[140.9998433334032,37.16941341369812],[141.00053116727963,37.17279008109739],[141.0011855508725,37.19063758575601],[141.00251596563942,37.20015838719985],[141.00598647189827,37.21193836026714],[141.01218089513225,37.22297497261695],[141.01232150503347,37.229132467889144],[141.01646272387563,37.23017269391477],[141.01648610894688,37.23454769422074],[141.0209167188316,37.234538225258916],[141.02081319067622,37.240611278687595],[141.01292666693223,37.240912171159835],[141.01263457792345,37.251258278646674],[141.01522839177687,37.263148801775856],[141.01646880688997,37.27143377464904],[141.023087004162,37.29392841356548],[141.024503722369,37.296480891879696],[141.0242007515635,37.302091171270604],[141.02598358017815,37.30405783839859],[141.024231361788,37.307196440863095],[141.02534452732812,37.313426134608505],[141.02806176413912,37.3136109192086],[141.02817037616194,37.31897085612019],[141.02542363169528,37.32569131530204],[141.02828197123608,37.340877225103895],[141.0329278599329,37.346922297026424],[141.0316209597396,37.347992063083325],[141.0343041626071,37.359964613376235],[141.03687500597675,37.36356381082129],[141.03558898804147,37.37156914400083],[141.03614894911482,37.3812571977615],[141.03409518804256,37.38656597314122],[141.0353371733719,37.39585586465648],[141.03335635541157,37.40567738680198],[141.0341032558606,37.41165266683714],[141.0338952786443,37.4189659726016],[141.0365324380217,37.419900585843436],[141.0347616989933,37.4239339732743],[141.03447158219785,37.43075877539724],[141.0365437218154,37.44581161341529],[141.03811800304345,37.44788997274412],[141.03657194613845,37.470740567822986],[141.042099948354,37.483981792625684],[141.03899793840424,37.48751036900836],[141.0390046563399,37.498142090385215],[141.0351306233796,37.50929774779286],[141.03341197128555,37.52121880200616],[141.03063522723403,37.528712054018115],[141.03024277568363,37.539088775326775],[141.0284099483605,37.54800897263601],[141.02898749657572,37.55421777513027],[141.0265245268855,37.561367171357915],[141.02652658903094,37.570675586209404],[141.0252391960321,37.58505377531151],[141.02642569409056,37.59012933310231],[141.02762869021194,37.60268125183836],[141.02396875525392,37.61247235981159],[141.02241496777663,37.62126374812351],[141.02272263304314,37.631018467728154],[141.02478557709276,37.639146775103654],[141.02410291791534,37.645992586288855],[141.0194493391158,37.65606177543066],[141.01998668044098,37.66259335989571],[141.02225155556494,37.664282748050425],[141.02083522676435,37.66923027925401],[141.01487800331722,37.674372108086345],[141.01337455269356,37.682893694388554],[141.01415710766446,37.6856735321079],[141.01122603095666,37.68951280177441],[141.01072435764308,37.701552305694406],[141.01228169924104,37.71097344067181],[141.01100158175768,37.71567961272399],[141.0121641371653,37.72630680241707],[141.011467951285,37.73901308078911],[141.00815527874317,37.74988333294948],[141.00485977965513,37.75058261339694],[141.00406367100163,37.75481122475827],[141.0004479116419,37.75881758576304],[141.00049902730836,37.76316397323882],[140.99725883292888,37.76297274769422],[140.9917747733872,37.76699519757034],[140.99095756214183,37.768806774812845],[140.99023905328977,37.77074983833444],[140.9898345526226,37.77274955914487],[140.9890660306728,37.77393983795321],[140.98828763866368,37.777901080870265],[140.9868603111545,37.79210397321987],[140.98631961086141,37.82187491889243],[140.9860324384464,37.82393766688989],[140.97286613526398,37.82849419804887],[140.96671319056134,37.828786386882314],[140.95968438442685,37.83290427910924],[140.95695097330884,37.83728972144354],[140.95909978013083,37.84168580185832],[140.9539235018682,37.84065850538576],[140.95312503159505,37.842988693773236],[140.95827031112606,37.8440959732506],[140.95557704304622,37.84688361258873],[140.95385612196253,37.85190036910683],[140.95051296959798,37.85502950530747],[140.9568731127041,37.85640255873113],[140.95585625196452,37.859367892414355],[140.9453071081366,37.85717189186937],[140.9403475619905,37.863561387048435],[140.9375209208539,37.87213733287166],[140.93341054516054,37.87957471180357],[140.93117083036964,37.89619743156629],[140.92396639383412,37.894912332738045],[140.92356386538017,37.892037639925206],[140.91517644623605,37.89783933281899],[140.91218469496778,37.89659130584414],[140.90111966314203,37.897637774963414],[140.90049192016602,37.901556080648675],[140.89814769066345,37.90298886524397],[140.8905174710045,37.90229613455904],[140.8810071727429,37.89786708140076],[140.87015574609086,37.896417440812286],[140.86411861158467,37.89296527892452],[140.85625141427147,37.89090005419422],[140.85987372159502,37.888353666988166],[140.85667306141272,37.886482586102545],[140.8564860572858,37.88298289234666],[140.86068836617517,37.879151505237814],[140.85457953321895,37.87451822503613],[140.85782678277985,37.86947544123865],[140.8607390267847,37.86717683794075],[140.86156233543352,37.86282880200764],[140.85863664116812,37.8562710814453],[140.85634461731036,37.85521580166795],[140.8505388334005,37.84923199965709],[140.8542638388052,37.84176894598011],[140.85502180271408,37.83386674795213],[140.85234197140494,37.82973374801412],[140.8559334499688,37.82863094626123],[140.8536385599716,37.82136044103157],[140.85778277625423,37.81687433308406],[140.85814413734215,37.8144151711233],[140.85395372198673,37.811740748336945],[140.85371588817782,37.80702910840665],[140.85791038915318,37.80285383763453],[140.8517168085839,37.79530805442323],[140.84066069983146,37.79603005444352],[140.83037350243524,37.794823170552945],[140.82358700423697,37.79874205360295],[140.81638822263847,37.79824600015286],[140.81075416337399,37.795624360375996],[140.80600380043506,37.79800380193399],[140.80075730220778,37.79783327878283],[140.78323946832688,37.804488585679735],[140.77498152997373,37.80631141434037],[140.7727797539825,37.801043135432394],[140.76530622590167,37.798534026923846],[140.7725302460741,37.79736564031208],[140.77449358031458,37.79397150538074],[140.77896949444664,37.79313286508972],[140.77940700383022,37.79094869422693],[140.78677603068934,37.78917755859749],[140.7944877819856,37.782185612975695],[140.80292710819958,37.77997725214851],[140.79552905302342,37.77354817061166],[140.78735472104358,37.77481319837045],[140.78302328119958,37.77790127872106],[140.77521955893553,37.78181658606667],[140.75714724984573,37.78547419807586],[140.74898871625635,37.785299531748024],[140.74567924799896,37.788300081083946],[140.73802822342384,37.7872323600854],[140.7329433333682,37.78347353207789],[140.72696983129276,37.781479171226806],[140.72300185515155,37.79253519814091],[140.7196718032112,37.79334046818809],[140.71152450125476,37.80066213494962],[140.701312672442,37.803280225102355],[140.6973789487795,37.802706918989145],[140.69239863818666,37.80704300023433],[140.68979891129084,37.81274683789633],[140.68550136239799,37.815346278807795],[140.68644700402604,37.81952344085414],[140.68424486380945,37.8308897482633],[140.67950483767822,37.836851945860644],[140.68391077825993,37.83892577530435],[140.6869386382076,37.84224489238795],[140.6856072755554,37.846885693619924],[140.6915774447433,37.84950730641714],[140.69080077763385,37.85283505429436],[140.69285141356193,37.85704750483853],[140.69052503200464,37.862562171007426],[140.68867444936643,37.86314383811771],[140.68581802897893,37.86793797285924],[140.68752866361694,37.871206000356665],[140.6827613619473,37.8740710002765],[140.6828827758195,37.87951205423798],[140.69088938963364,37.88367419760618],[140.68854494159586,37.88913469401098],[140.6807350580765,37.89156863988086],[140.6722843320564,37.89296705418627],[140.66697644610622,37.89505766677797],[140.66260277589743,37.90022046780041],[140.6600043835955,37.90088435992533],[140.64686213997584,37.89863699999762],[140.64467204887603,37.89544869380222],[140.62734228301997,37.89907327910862],[140.62244635491538,37.90263608099042],[140.62069719781744,37.908890801968994],[140.6157301953923,37.91476833289232],[140.611649830975,37.91516336010102],[140.6102075621294,37.911093667039154],[140.6003262521549,37.91015597272002],[140.59580557696586,37.90617961309874],[140.5918143839267,37.90616935992807],[140.5842936962971,37.90891886531341],[140.5807480795603,37.91227330596837],[140.57531466893693,37.9144805588308],[140.57398243843886,37.917660558887746],[140.5701695845587,37.918622532204154],[140.56637924790402,37.92279089168636],[140.56255775603563,37.917912027318266],[140.5630291051092,37.91143535995394],[140.55457780801953,37.909422640342655],[140.5368863042596,37.90759025188868],[140.53132588777953,37.9052455592352],[140.52951224389506,37.9067141710222],[140.52181988288135,37.908799224904385],[140.51725783438167,37.90747286518064],[140.51579221823636,37.903493413690114],[140.50896763914534,37.90518289177709],[140.50217302186752,37.904574864638334],[140.49834766471304,37.90035989239516],[140.48834907864716,37.8996046669219],[140.4830181448716,37.901846918700414],[140.4829334107484,37.90370525169607],[140.47666219170685,37.90691638718158],[140.46953097257642,37.917868667405116],[140.46834291779146,37.92399700036134],[140.46936321663918,37.92955391937795],[140.4678906999959,37.93170530635484],[140.46747905331574,37.93781835982952],[140.4748798307396,37.946782224619994],[140.46602380005834,37.94913502735966],[140.4614995329771,37.95257669415918],[140.45606635527815,37.95037341360222],[140.4478136707644,37.9511267747809],[140.44471391721356,37.956954558805876],[140.4382368091815,37.954035720971774],[140.43408700361238,37.95379963994151],[140.4241621142902,37.956951919295705],[140.42066678314563,37.96046969392131],[140.41462031097865,37.96328808108012],[140.40921189431356,37.963742279182895],[140.4078924377858,37.966700359833794],[140.40752413662972,37.97362310802009],[140.3985698307332,37.97442069425966],[140.39364085614068,37.972782386697816],[140.38840717325252,37.96911577517295],[140.38563791156048,37.964894945645256],[140.38562977989045,37.95371994561907],[140.38305861186552,37.95311108121149],[140.36667481229279,37.95695058560108],[140.3642025553038,37.958728919404166],[140.3590888590636,37.958970333414186],[140.3551493635523,37.95785283763837],[140.35355791156837,37.95477810772354],[140.3557704407533,37.95213255857078],[140.348590894754,37.95015727863557],[140.34200968929576,37.95170338680191],[140.335812113938,37.95499230555049],[140.33230150511042,37.95272172063096],[140.32875678319908,37.95822730634518],[140.31995163436045,37.958879531565174],[140.31664411223608,37.958093107710795],[140.31376522678386,37.96450119817183],[140.30979153005512,37.96416144059805],[140.3022614786844,37.96909505389368],[140.2916496629017,37.970355026563254],[140.29001269802768,37.97231222472942],[140.28445846978263,37.97299110765357],[140.28000258085444,37.976644413708755]]],[[[140.7931759400177,36.861721973290514],[140.79292705623868,36.86109122478024],[140.79301496766664,36.86107083804876],[140.7931759400177,36.861721973290514]]],[[[140.7925888850691,36.877131558874396],[140.79266610895388,36.87736183837819],[140.79238583703682,36.87733961343247],[140.7925888850691,36.877131558874396]]],[[[140.83656693911303,36.910914694057965],[140.8362836706549,36.91078661261213],[140.83634108877027,36.91072719800184],[140.83656693911303,36.910914694057965]]],[[[140.85047978031764,36.9131399459518],[140.8506198047603,36.913501054330254],[140.84997508438266,36.913550775148224],[140.85003116700477,36.91327022534068],[140.85047978031764,36.9131399459518]]],[[[140.9000000000001,36.91489508084334],[140.9074691052151,36.9171392427819],[140.90746216604623,36.917229523024105],[140.88690452742208,36.91104257675357],[140.886981737817,36.910980630551705],[140.9000000000001,36.91489508084334]]],[[[140.86502561563975,36.912634559337505],[140.86666296992018,36.9149518919163],[140.87238274986407,36.91759913539181],[140.87231941600828,36.91768358622858],[140.866627691315,36.91505189203127],[140.86502561563975,36.912634559337505]]],[[[140.87500000005002,36.91881655933679],[140.87680280170798,36.919644414058496],[140.8843808948625,36.9205969193124],[140.8821353048005,36.920410801917],[140.87670447523146,36.91971219775979],[140.87500000005002,36.91881655933679]]],[[[140.8943443839862,36.92795597269003],[140.89322500592937,36.92853135983444],[140.89313583724913,36.92843127878052],[140.89426632912784,36.927864838091864],[140.8943443839862,36.92795597269003]]],[[[140.91858002584763,36.93406889216567],[140.9184889110345,36.93414222468397],[140.9183905836586,36.93403500031508],[140.9185169779762,36.934001387254284],[140.91858002584763,36.93406889216567]]],[[[140.91772391712516,36.93442389234883],[140.9176116988209,36.93437889207229],[140.9178361354294,36.93417610844068],[140.9179414136654,36.93426055927745],[140.91772391712516,36.93442389234883]]],[[[140.90108705642263,36.93036377526806],[140.90282630389083,36.93161100004767],[140.90096666687828,36.93251872086233],[140.9003334110581,36.93470225230715],[140.90015503232894,36.93468438727473],[140.90081055806093,36.932454386960444],[140.90252752302683,36.931607441430344],[140.9014259659357,36.93086410769246],[140.90108705642263,36.93036377526806]]],[[[140.91620836612321,36.935184198092315],[140.91634141362545,36.93540974806149],[140.91611002615684,36.93536446809577],[140.91620836612321,36.935184198092315]]],[[[140.90669306133577,36.93441197273438],[140.90397756201492,36.93673894604558],[140.90388616121743,36.93666561262796],[140.90658805379576,36.93433891900594],[140.90669306133577,36.93441197273438]]],[[[140.8879012838173,36.93840463976238],[140.88785291827764,36.938466468153024],[140.88661508421887,36.93773030560919],[140.88665988304717,36.93766702661202],[140.8879012838173,36.93840463976238]]],[[[140.9090506358782,36.93866033320785],[140.90417369605927,36.93858699979023],[140.8978869781016,36.935741721103625],[140.8979080797941,36.93564589204436],[140.90423702991507,36.938519504771364],[140.9087698045829,36.938570053864964],[140.9090506358782,36.93866033320785]]],[[[140.9502823609423,36.9533540539465],[140.94988929965155,36.95331461327885],[140.9500018030409,36.9530609999652],[140.95032457781713,36.95319627868537],[140.9502823609423,36.9533540539465]]],[[[140.9571591438795,36.9539962517257],[140.95306710806062,36.95274797294064],[140.95313732802538,36.95260053178919],[140.9571591438795,36.9539962517257]]],[[[140.954901089214,36.955602639650124],[140.95464664132953,36.956576838350486],[140.9545594160843,36.956553505439956],[140.95481386486802,36.955590972745256],[140.954901089214,36.955602639650124]]],[[[140.95414163422913,36.95648627931837],[140.95351024630088,36.957601837954485],[140.95321024595614,36.957927666828425],[140.9538538646642,36.95681877486663],[140.95404358024712,36.95645238656846],[140.95414163422913,36.95648627931837]]],[[[140.9534349415694,36.959846775108645],[140.9533763039733,36.96054464002316],[140.95328719824568,36.96053825213869],[140.9534349415694,36.959846775108645]]],[[[140.95103289195447,36.9610620541705],[140.95047900130498,36.96094135975602],[140.95050766539646,36.96087046799778],[140.95103289195447,36.9610620541705]]],[[[140.9690388589562,36.96111172102917],[140.9713264203781,36.96234533277095],[140.97124224383458,36.962447000228906],[140.9690388589562,36.96111172102917]]],[[[140.96427413744152,36.96438483779008],[140.9652216730418,36.96489205362542],[140.96511639390656,36.965027333244905],[140.96427413744152,36.96438483779008]]],[[[140.9680144753878,36.965083414068374],[140.968126718873,36.9658667478522],[140.96790228316388,36.9659231353445],[140.9680144753878,36.965083414068374]]],[[[140.96609169877297,36.966074802410276],[140.96614061020102,36.966931467813026],[140.9660564462481,36.96693702742192],[140.96600031056596,36.96610313465197],[140.96609169877297,36.966074802410276]]],[[[140.9664986896629,36.96922980221365],[140.96566369612276,36.96907233272202],[140.96623897534846,36.968807333092],[140.9664986896629,36.96922980221365]]],[[[140.96499674360484,36.96942705411533],[140.96482839231646,36.96917927920043],[140.96523533104573,36.96902150483862],[140.9653198052648,36.9692412254023],[140.96499674360484,36.96942705411533]]],[[[140.98164610938056,36.99344835965411],[140.9813971338707,36.99452169422085],[140.9813191698439,36.99451158584105],[140.98155808014133,36.99343946805703],[140.98164610938056,36.99344835965411]]],[[[140.98157933921516,37.00953063992716],[140.98120730227527,37.0094444138287],[140.98124975387316,37.00937183764023],[140.98157933921516,37.00953063992716]]],[[[141.0007418289723,37.10044178356151],[141.000504552743,37.1005260446413],[140.99880634223894,37.099912359867574],[140.99888605724584,37.09977010780426],[141.0007418289723,37.10044178356151]]],[[[140.99875874202235,37.10220037814497],[140.998616978291,37.10355018859036],[140.99843788639942,37.10353654137833],[140.99857547277986,37.102310494733615],[140.99875874202235,37.10220037814497]]],[[[141.00154111493055,37.10795030606181],[141.00119666739238,37.10813613477484],[141.00095749719083,37.10766864019564],[141.00141444901772,37.10777002706516],[141.00154111493055,37.10795030606181]]],[[[140.99999999980025,37.10803152293647],[140.99921544743506,37.107982613307],[140.9983611796248,37.10698600889725],[140.9982134111201,37.106923855851335],[140.9984550445647,37.10678954120442],[140.99850498121998,37.106311738595934],[140.99730149227014,37.104109504849816],[140.99747172494017,37.10414641392589],[140.99856784742826,37.10630318874121],[140.99845421538976,37.10683145860497],[140.9983237480426,37.106907260661615],[140.99916573291227,37.10791785582444],[140.99999999980025,37.10803152293647]]],[[[141.00090055841406,37.108736441233816],[141.00070216617212,37.108996838133635],[141.00063044074227,37.108954694103886],[141.0008192740903,37.10869625233022],[141.00090055841406,37.108736441233816]]],[[[141.00381224393993,37.107741666944435],[141.0029756163317,37.10931944113935],[141.00282089516827,37.109285559181274],[141.00364114072613,37.10769055937186],[141.00381224393993,37.107741666944435]]],[[[141.00107002576112,37.10936419769962],[141.00104335906383,37.1095244676801],[141.0008800259925,37.109569467956646],[141.00085919589526,37.10941030594091],[141.00107002576112,37.10936419769962]]],[[[141.00087325589607,37.11001261339146],[141.00099968888458,37.11016853155252],[141.00088055839115,37.110222107764116],[141.00079544655273,37.110113946301624],[141.00087325589607,37.11001261339146]]],[[[141.00106900143328,37.110473441296335],[141.00112980459687,37.11063030644357],[141.00095350240224,37.11068389164831],[141.00089418941536,37.11057558629432],[141.00106900143328,37.110473441296335]]],[[[141.0007115820739,37.11164797297562],[141.00070430565927,37.111797026611555],[141.00059121860988,37.111759999724256],[141.0007115820739,37.11164797297562]]],[[[141.00093163358804,37.11160802688897],[141.00097905304096,37.111760972790705],[141.00087814461074,37.11176391896976],[141.00083683515186,37.11163044069235],[141.00093163358804,37.11160802688897]]],[[[141.00099299612998,37.11208713531312],[141.00103496838915,37.11235819817239],[141.00091583699634,37.112334802309306],[141.00090002601542,37.112122413918314],[141.00099299612998,37.11208713531312]]],[[[140.9999468867395,37.11320772115948],[140.99967697771046,37.11341233311276],[140.99949219221094,37.11292717135194],[140.9999395851438,37.11304991891865],[140.9999468867395,37.11320772115948]]],[[[140.9999031131382,37.1137318649337],[141.00006600464246,37.113852667266826],[140.99987391664797,37.11399686456372],[140.99965505763487,37.113883837768924],[140.9999031131382,37.1137318649337]]],[[[140.99998333266478,37.114232639824536],[141.0002046171494,37.11438072129329],[141.00004169866554,37.11454244098093],[140.99983744464237,37.11449958558745],[140.99998333266478,37.114232639824536]]],[[[141.0013571729952,37.11539977458],[141.00139605698246,37.11575438715528],[141.00079063607905,37.115695945611435],[141.00092922160638,37.11539977458],[141.0013571729952,37.11539977458]]],[[[141.0014033846585,37.1174749188325],[141.00090002601542,37.11631555871611],[141.00155413711377,37.116169414387],[141.00178758762718,37.117120279277515],[141.0014033846585,37.1174749188325]]],[[[141.00132988306768,37.11840669381394],[141.00129461705296,37.118710865214325],[141.00118933881697,37.118581414101016],[141.00121766476343,37.11844613538091],[141.00132988306768,37.11840669381394]]],[[[141.0015760050287,37.118784197732566],[141.00162321673815,37.11896419793942],[141.00140016868295,37.11903780205296],[141.00140710785183,37.11879530615852],[141.0015760050287,37.118784197732566]]],[[[141.00073238699008,37.119093640059475],[141.00049321678864,37.11940363996604],[141.0000993002426,37.119195332698496],[141.0002187553913,37.11893033306848],[141.00073238699008,37.119093640059475]]],[[[140.99924880688695,37.12215533340196],[140.99900211385648,37.12211366691224],[140.99897406040463,37.12195005415174],[140.99914961076604,37.12189866688999],[140.99924880688695,37.12215533340196]]],[[[141.00636522677382,37.14082900025818],[141.00629177734368,37.140972505077116],[141.00607330683772,37.14092661267307],[141.00622374812758,37.14082613501819],[141.00636522677382,37.14082900025818]]],[[[141.00614610875596,37.14166666658343],[141.00599791217394,37.141439945697016],[141.0062058372297,37.14140591894807],[141.00614610875596,37.14166666658343]]],[[[141.00622834006595,37.14192808061648],[141.00599167267762,37.142823918688975],[141.00583472119547,37.1425836396233],[141.00588416322364,37.1421822524091],[141.00622834006595,37.14192808061648]]],[[[141.00588252915543,37.14319558600755],[141.0058411405563,37.14341364012745],[141.00573586321957,37.14329419756922],[141.00588252915543,37.14319558600755]]],[[[141.00663868992365,37.14641253201279],[141.0060547727096,37.145375864604546],[141.00618839218066,37.145308359693104],[141.00679341108707,37.1463675047566],[141.00663868992365,37.14641253201279]]],[[[141.00755955882664,37.14853666683376],[141.00742622623943,37.14846889212572],[141.00905066085943,37.146299999845155],[141.00926871587865,37.14623222513711],[141.00755955882664,37.14853666683376]]],[[[141.00266763900038,37.153231973277],[141.00282163441102,37.15341994597378],[141.00264975418293,37.153761468017365],[141.00256739337055,37.1532621077601],[141.00266763900038,37.153231973277]]],[[[141.00238871606643,37.15381783842258],[141.0022801166341,37.15405310826441],[141.00195566821958,37.15394672116429],[141.00224345037498,37.15372533325757],[141.00238871606643,37.15381783842258]]],[[[141.00305985672708,37.15712491897989],[141.00304372199025,37.15725405443112],[141.00287542196327,37.15730930607964],[141.0028154218943,37.15719236003946],[141.00305985672708,37.15712491897989]]],[[[141.0024648904424,37.158375613343935],[141.00260182931106,37.15851977466792],[141.00240933931957,37.15863755887631],[141.00233461734877,37.15848589181053],[141.0024648904424,37.158375613343935]]],[[[141.0026160565858,37.162316721339664],[141.00240494163484,37.16249700033637],[141.0023488329324,37.16229977541434],[141.0026160565858,37.162316721339664]]],[[[141.00423333260233,37.16387755860251],[141.0041769388148,37.16398450508092],[141.00400834021275,37.16388310831883],[141.00414194619395,37.163832559225284],[141.00423333260233,37.16387755860251]]],[[[141.0022361092091,37.16623255928522],[141.0023502718476,37.166316721439614],[141.00227666683475,37.16637255944613],[141.00213861190753,37.16629589224169],[141.0022361092091,37.16623255928522]]],[[[141.00208138804567,37.16802394584846],[141.00215863801077,37.16819283762942],[141.00197583731506,37.16818172110959],[141.00208138804567,37.16802394584846]]],[[[141.00205308728027,37.16851422475173],[141.00219391661608,37.168677558722436],[141.00194058389093,37.16864366687179],[141.00205308728027,37.16851422475173]]],[[[141.0012022440884,37.16929702703624],[141.001054448604,37.168812585632395],[141.00168752276102,37.16889146786701],[141.0012022440884,37.16929702703624]]],[[[140.99305761311837,37.76710025187515],[140.992290077725,37.767759053837324],[140.99219994766952,37.76769300043168],[140.99305761311837,37.76710025187515]]],[[[140.99105058441705,37.769175198276855],[140.99108717333445,37.76930089202261],[140.9906164717728,37.770167693684186],[140.99049007835447,37.77015774808166],[140.99105058441705,37.769175198276855]]],[[[140.9733064981964,37.83294169360431],[140.97486632911784,37.83308858616937],[140.9748547467492,37.833169251759614],[140.9722526978038,37.83292577470479],[140.9709263039059,37.832875413569525],[140.97107357958214,37.832723721322736],[140.9733064981964,37.83294169360431]]],[[[140.963463138713,37.83338086493501],[140.9635059140668,37.8336842521266],[140.9634277818667,37.83373689214392],[140.9633801429793,37.83339136002331],[140.963463138713,37.83338086493501]]],[[[141.02295306093504,37.66542394635809],[141.0214527759249,37.67069569395119],[141.021178949449,37.67064646776032],[141.02267919578833,37.6653747210666],[141.02295306093504,37.66542394635809]]],[[[141.01874155557834,37.688246026632896],[141.01855383918837,37.68820763997064],[141.0194410509638,37.68536861337088],[141.01947147862586,37.686289747573824],[141.01874155557834,37.688246026632896]]],[[[141.02709027239825,37.30405225181005],[141.0268363551138,37.30394391857703],[141.02712555100345,37.30384946817844],[141.02709027239825,37.30405225181005]]],[[[141.03006926138733,37.34130174827709],[141.03013662780324,37.34145019756863],[141.0298754862647,37.341387333158934],[141.03006926138733,37.34130174827709]]],[[[141.0337802463613,37.34625036855971],[141.03388481233424,37.346834640106636],[141.03363300935598,37.34679908091289],[141.033475564146,37.346473594680674],[141.0337802463613,37.34625036855971]]],[[[141.03789093411933,37.361929197674385],[141.03793556387518,37.362100846776684],[141.03769719766763,37.36208264000186],[141.03771420204885,37.36195334177336],[141.03789093411933,37.361929197674385]]],[[[141.0385077818088,37.36211450478061],[141.0383840863566,37.36205717120151],[141.03855269844837,37.36168019788289],[141.0386654986139,37.36180230603168],[141.0385077818088,37.36211450478061]]],[[[141.04611156859403,37.48061780206996],[141.0448624768219,37.482497045202535],[141.04480269798614,37.48247162226761],[141.04595507126953,37.48067265801683],[141.04611156859403,37.48061780206996]]],[[[140.9764746685712,37.86749472130441],[140.97631033725236,37.867539720681634],[140.9760779767173,37.86700680222219],[140.97624241235746,37.866961774966],[140.9764746685712,37.86749472130441]]],[[[140.9408781709909,37.87519766733851],[140.94031907866258,37.8759900267184],[140.94015533100378,37.87591741365776],[140.940714423332,37.87512505427787],[140.9408781709909,37.87519766733851]]],[[[140.93874046719884,37.876075667358236],[140.9384005315593,37.87607789228093],[140.93839975364574,37.876002837560975],[140.93873968928528,37.87600053169922],[140.93874046719884,37.876075667358236]]]]}},{"type":"Feature","id":"JP-07-capital","properties":{"Kind":"capital","PrefectureCode":"07","PrefectureName":"Fukushima","CapitalName":"Fukushima","CapitalNameJapanese":"福島市","PointKind":"prefecture-representative-point"},"geometry":{"type":"Point","coordinates":[140.467773,37.750031]}}]}
