{"type":"FeatureCollection","bbox":[129.98138557708273,33.00002344062932,131.1905697284103,34.24983712558293],"displayBbox":[130.0390263286023,33.00002344062932,131.1905697284103,33.96988441393461],"DataVersion":"2019-boundaries-v1","Attribution":{"BoundarySource":"MLIT National Land Numerical Information, via Fabio Crisci / piuccio","BoundarySourceURL":"https://github.com/piuccio/open-data-jp-prefectures-geojson/tree/513fb852832c99470e16b95a30ddd68bf3469dc0","BoundaryDate":"2019-01-01","CapitalSource":"Geospatial Information Authority of Japan (GSI), prefecture representative points","CapitalSourceURL":"https://maps.gsi.go.jp/","CapitalSourceRetrieved":"2026-10-04","Notice":"Simplified and enriched by Ashiato Kai. Modern geographic context, not historical immigration-era boundaries. See GEOLOCATION.md and THIRD_PARTY_NOTICES.md."},"features":[{"type":"Feature","id":"JP-40","bbox":[129.98138557708273,33.00002344062932,131.1905697284103,34.24983712558293],"properties":{"Kind":"prefecture","PrefectureCode":"40","PrefectureName":"Fukuoka","PrefectureNameJapanese":"福岡県"},"geometry":{"type":"MultiPolygon","coordinates":[[[[131.00049788626848,33.86784627878279],[130.99919486395186,33.86788553239148],[130.99919486395186,33.86781961298482],[131.00049788626848,33.86777872081137],[131.00049788626848,33.86784627878279]]],[[[131.00319747118635,33.86899874829368],[131.00097613494074,33.86782216166347],[131.0009987546888,33.867748748206225],[131.00319747118635,33.86899874829368]]],[[[131.00833333301694,33.871948467947504],[131.0048023086797,33.86999708120038],[131.00484769116804,33.86994219827386],[131.00833333301694,33.871948467947504]]],[[[130.9873424379033,33.8736116939246],[130.98732455308573,33.87429946844577],[130.98726175072932,33.87430027873495],[130.98728092067802,33.8736116939246],[130.9873424379033,33.8736116939246]]],[[[131.0023643320484,33.89253805408799],[131.0023536058343,33.89256202731576],[131.0017959398308,33.89238955893103],[131.00180652395193,33.89236558570326],[131.0023643320484,33.89253805408799]]],[[[130.99694688708928,33.904217278804424],[130.9965581713226,33.90384174799834],[130.99662683456086,33.90380477507034],[130.99694688708928,33.904217278804424]]],[[[130.99761282697045,33.90576602738031],[130.99693330732634,33.90552077506379],[130.99698241210865,33.905457585998874],[130.99761282697045,33.90576602738031]]],[[[130.9309528915628,33.90817877533027],[130.93089858600104,33.908204360143145],[130.9306867830686,33.90789191857721],[130.93074108863038,33.90786633286501],[130.9309528915628,33.90817877533027]]],[[[131.18557163372395,33.61684936010994],[131.18479031082427,33.62041461264431],[131.17869082991797,33.621260891776785],[131.17687306084315,33.61984219775928],[131.1714435541768,33.619476000117345],[131.16967483772362,33.6167672789868],[131.1617741370668,33.616460378143984],[131.15498952025018,33.61955207197059],[131.153865201318,33.621614080725294],[131.1475119461195,33.62265360438039],[131.14470085605967,33.62542930611761],[131.13182900080778,33.62692316187446],[131.13050769077734,33.62543923373369],[131.1239526331076,33.62631627867336],[131.12071359255833,33.630401270102595],[131.11500168617897,33.630522315252676],[131.11653888476178,33.61937808103369],[131.11304067398794,33.61789118872741],[131.1133772632502,33.623910207290294],[131.1079845532446,33.62390989162827],[131.10906364527102,33.61817022497593],[131.10656778197767,33.61696681066985],[131.10007741883783,33.61809005401284],[131.09695438363792,33.62334408136434],[131.09366520138803,33.62351734205174],[131.0942618682907,33.627789414050255],[131.08862722356753,33.633839468216934],[131.08496216607114,33.634637639915184],[131.08035102537963,33.648049666658835],[131.07273635499882,33.6565317205625],[131.06733885880135,33.65881533306123],[131.0657859400692,33.66503680160719],[131.0619116993655,33.67230135962012],[131.05933360566144,33.673088720568046],[131.0515429964122,33.68613633302539],[131.05318571964528,33.68845038667604],[131.0419395850439,33.689534639911756],[131.03935228318142,33.6921150538667],[131.03465070036964,33.70232097323441],[131.03063430562872,33.70547416180318],[131.02520795108614,33.717048414053124],[131.02241024563637,33.72484844100279],[131.02107606990478,33.73088952263339],[131.01485661494087,33.73468263999189],[131.01796114119372,33.738909108268786],[131.01632252876175,33.74167808127851],[131.01932233525758,33.74535786517339],[131.01616955857833,33.750795829064316],[131.00993552470482,33.74997013541349],[131.0116390268197,33.746893891939635],[131.00831717309916,33.74391308092402],[131.0043285862953,33.74820655858588],[131.00442958465771,33.752057523036285],[131.00080809301915,33.75727774757007],[131.01772278937528,33.76798824326289],[131.0116888330732,33.777493395603756],[130.99927351506074,33.76937066672292],[130.99446503163597,33.774900026914736],[131.00299697812807,33.78104797318548],[131.0036919966883,33.78332905409263],[130.99829708244442,33.791542054222475],[131.00243418868695,33.79418389187316],[130.99903678292128,33.79665802664664],[130.99352810623714,33.794578107893415],[130.99106369583296,33.78912755888979],[130.98693228319837,33.79209091856109],[130.98785024639187,33.796513973241304],[130.99117221792358,33.796601999782524],[130.99378016911953,33.79915769407239],[131.00067435843494,33.8017849995781],[130.998819104718,33.80710049469212],[131.00445472070885,33.80624880164095],[131.01546168600805,33.811413467857335],[131.01176920908176,33.8195905679504],[130.98526080414285,33.810256467562],[130.98331058381643,33.80874055862995],[130.97990788643983,33.811916359752274],[130.96655605671674,33.80949833278186],[130.96365199744184,33.81722641396789],[130.9566918941157,33.829614162363725],[130.9577197796442,33.8304805593304],[130.96037897510962,33.839043080973454],[130.96331744514407,33.83772338702477],[130.9762223351927,33.83437097344171],[130.97707861208835,33.84153713483096],[130.98376761298505,33.84411691926044],[130.98300228272922,33.845564945565854],[130.9879428270998,33.850827693643225],[130.99345938993895,33.8510298018839],[130.9982216599018,33.868323612844506],[130.98873616134483,33.86871219820944],[130.98423930020363,33.86397872094125],[130.9821116076646,33.867060864867085],[130.98688472075332,33.87228655907751],[130.98661230891094,33.881463973283815],[130.9893945271358,33.880122864678526],[130.99054499385647,33.88562699978627],[130.99519577216722,33.88506133341383],[130.99319671865373,33.87861910828525],[130.99546166032746,33.873813026949676],[130.999752243971,33.873652161618],[131.00402422783588,33.88952599972515],[131.0020311925855,33.89208822489172],[130.9891234112165,33.89463722462824],[130.9908749416253,33.89576758610525],[130.98862897474748,33.90033164009316],[130.99359080427223,33.90228791915217],[130.99372216644485,33.905375774672336],[130.99685732810326,33.90726680162163],[130.99990710812665,33.90351008072571],[131.00443311269805,33.90399966715097],[131.00191483829917,33.909596359584384],[131.00523430611838,33.9152901077523],[131.01321968873776,33.91582182921411],[131.01456011655625,33.91926708071128],[131.0088360567387,33.92302889177],[131.00518080365123,33.921317775095304],[131.00140936355137,33.92214782865943],[131.00141341139988,33.92455366711812],[131.0066737735758,33.92709158630771],[131.0106081060793,33.93031555871613],[131.00797153036194,33.93425886465491],[131.01004846966123,33.93765469390905],[131.01077333312287,33.94189005378303],[131.02108527896257,33.941867441229476],[131.0219389748039,33.947122413768454],[131.01836999997556,33.95112949513015],[131.0239418936036,33.95768716173319],[131.02363542173737,33.9598578022958],[131.02009569376128,33.96229444073589],[131.01084610896078,33.96545941402081],[131.00644105061406,33.962131801941155],[131.00535291770302,33.965164494845624],[131.0083647472353,33.96775577530883],[131.0021555508381,33.96988441393461],[130.9922433068832,33.961751892336],[130.97448600512507,33.95907199987295],[130.97080847043458,33.96146094636566],[130.9630075621493,33.96219666734237],[130.96165583704726,33.956698667409626],[130.96242627815025,33.94766261313913],[130.95459041501567,33.94210430556927],[130.94624413715724,33.93837649517917],[130.9424391964119,33.93174544119921],[130.94118783385147,33.92416419771962],[130.9394185598187,33.922663748133516],[130.93189438371894,33.90784400000064],[130.92624516188482,33.90272233306928],[130.91708966325746,33.89610086496299],[130.90548289242156,33.894208080738395],[130.90115654993485,33.89076005393338],[130.89469713426536,33.89213699962289],[130.89208092099773,33.88809505424342],[130.8878042543629,33.888489225297576],[130.8900911673735,33.89200766722013],[130.8881096110698,33.893417467841914],[130.88150658895802,33.89191802729516],[130.884125771787,33.896110585735016],[130.8930470815576,33.89626669365305],[130.88778581106635,33.90206289168913],[130.88075639429223,33.90022235987408],[130.87356994779486,33.89713033329832],[130.8711614788192,33.89943233333554],[130.88417180268664,33.905177305987934],[130.8718119458647,33.91598086532474],[130.85479994825903,33.90871233320769],[130.856994331823,33.906623828626834],[130.84820486356364,33.905454612840174],[130.84923041535149,33.909689774863295],[130.8520226978893,33.91006769426872],[130.8691346173688,33.917498224863266],[130.86658885878887,33.920496559168896],[130.85049053191256,33.914921775119865],[130.8482891048584,33.919315892314614],[130.85755114077256,33.924419532335605],[130.85503092114016,33.92948699982526],[130.84499535675036,33.92789991944579],[130.82476316478824,33.92051835963463],[130.82156333288162,33.91081905355651],[130.82391430640018,33.906728026777046],[130.82275980532086,33.90361033265077],[130.81581958510583,33.899743585997726],[130.81606007821006,33.897353000040994],[130.8069307003916,33.89317825177494],[130.80574547307515,33.891710972783244],[130.8072932557792,33.882730829364334],[130.80877727565087,33.87877397334023],[130.80580980517846,33.87557546793357],[130.80012233517766,33.875437081156406],[130.80474795135694,33.88162016214085],[130.80360494181468,33.89058782926497],[130.80223066081646,33.89083900001987],[130.79734919560894,33.885610413589745],[130.79007654999282,33.88439227918042],[130.78232367090072,33.882004748220595],[130.74986221806694,33.87393955886358],[130.75032905344312,33.87928549512952],[130.7537085600021,33.8781757209328],[130.78379817144855,33.88592249542688],[130.78284063628644,33.88848372144662],[130.7756333066319,33.88762058632108],[130.76950128375734,33.88917674800854],[130.78547185474235,33.89085782912559],[130.79579566803568,33.890377494925474],[130.8002911406237,33.8927092787103],[130.80746238677978,33.89973802728821],[130.81433308670262,33.90217882869007],[130.81673102461718,33.91422174823515],[130.8101964723894,33.91466455912217],[130.80973321721422,33.9180533601745],[130.81739600492176,33.91701472055297],[130.818565253084,33.92296255867518],[130.81592744529542,33.926479774821814],[130.81250671920975,33.9263911978955],[130.80652194593108,33.92962105366877],[130.80743549884926,33.931547639811754],[130.7775145777356,33.93426694596286],[130.77531980476522,33.92718172085978],[130.75706267240446,33.92042353242016],[130.75436730170964,33.920412585872214],[130.75158499355268,33.92323946802708],[130.75246994802978,33.925923892173955],[130.75780763931118,33.9249208917858],[130.76880119302075,33.929123135024724],[130.7687919461914,33.93394927933582],[130.76010204907038,33.93393074790572],[130.76007702993104,33.939614748322015],[130.7687857723456,33.94062969440495],[130.76869252883716,33.947311197653676],[130.7526032563353,33.94524846764273],[130.752628690062,33.93196141428791],[130.73956466857464,33.93192941371154],[130.73801369597538,33.92700810763813],[130.73247269765693,33.92892261318809],[130.72908702984262,33.934366559369266],[130.72234405973063,33.934659613350505],[130.71735119280333,33.93758177507891],[130.71271350232632,33.938628945669336],[130.70980941607172,33.93754955866524],[130.70104999955788,33.93865805402601],[130.6947894419792,33.93757805368426],[130.69218274983405,33.935293801767614],[130.6874109209773,33.93442891925929],[130.68238944211907,33.924268054127424],[130.67698905280258,33.92030319773443],[130.66397260725012,33.91529878441145],[130.66213778163342,33.913351864596905],[130.66494191993377,33.90964874779155],[130.6616761353455,33.907576747568896],[130.66139016892123,33.903801693993046],[130.6632419971205,33.90114225211329],[130.65345963685286,33.89488608142756],[130.65146435779388,33.892340973057514],[130.643815227191,33.88846164039245],[130.62966152955596,33.88325622499485],[130.61300997393118,33.879786252033966],[130.60610985718426,33.87877799960506],[130.5909826722126,33.8778443873087],[130.57709613527845,33.87844074844185],[130.56969518788264,33.880331000175545],[130.5655605322928,33.884637440665415],[130.5658133326193,33.88800186469433],[130.5626789749548,33.8901627206331],[130.5553316990987,33.89076630602028],[130.5444309473304,33.88798046802424],[130.5292846949328,33.887873865086874],[130.5297931392421,33.88103589239256],[130.52823527873522,33.87337366676138],[130.52435422836504,33.866514387329175],[130.5214500260979,33.86310653234062],[130.5114223874333,33.856872000242674],[130.4956888849341,33.852046586181075],[130.4879634495536,33.85098949516913],[130.48196547332805,33.85345719799136],[130.47851508400402,33.8518614409528],[130.48188450106898,33.84936669371797],[130.48199391708567,33.843230306433554],[130.4800572756228,33.8338639455647],[130.4781519710367,33.82790269405416],[130.47348516231045,33.81884658580134],[130.46578630369504,33.81173008137819],[130.4584749161845,33.81075608142805],[130.45200230925923,33.810814225296326],[130.4499832170519,33.816165532313505],[130.44396413733512,33.81541363972775],[130.4463276653895,33.8091161622811],[130.44983871578415,33.80630455870846],[130.45120297024096,33.801617251734854],[130.44818810639606,33.79650191872861],[130.4456735021305,33.79485182914863],[130.44590055756476,33.79072200022017],[130.45032360594973,33.784840107584955],[130.4559772497504,33.78728038738001],[130.46108464264216,33.78835166699588],[130.4657290528536,33.785677963667126],[130.4696623349489,33.77873427926363],[130.47081408590145,33.774202721378515],[130.46882438443788,33.758096279020094],[130.46599910487487,33.74992846802445],[130.46115747064084,33.74051382885017],[130.4582036959439,33.73616580191026],[130.45078946825947,33.72811102670255],[130.44476888487623,33.72322416196556],[130.43216897471848,33.71612022466866],[130.42698321670218,33.715229081057316],[130.4212726718963,33.718415720808935],[130.42085802867518,33.71564944126874],[130.41803119328506,33.71368777527067],[130.41590114092503,33.70671819758678],[130.4162853825644,33.70282986540599],[130.41034739291786,33.696843946391084],[130.4057422444091,33.69361227938322],[130.39966033715496,33.687236891869134],[130.38693396882763,33.67879141429239],[130.37311836591994,33.67152958572183],[130.36728413735307,33.66920841393721],[130.35581496818634,33.6659284947043],[130.3531879774432,33.665781108411466],[130.3462669784384,33.661882414242086],[130.33540938963165,33.66039180233986],[130.32495632937116,33.66014082943576],[130.32747308661374,33.65781491912327],[130.33384518800506,33.64933610817491],[130.3393524644447,33.651946820289595],[130.34590128441675,33.649151999864955],[130.3500838909589,33.648445333285565],[130.35448552468733,33.64426941410221],[130.3612827760793,33.644167666604574],[130.359002633165,33.648540135319024],[130.36031422781946,33.65827764010106],[130.36376405956378,33.659951945725766],[130.36839513642644,33.66512410779137],[130.38478564224363,33.66847044105805],[130.39373014283194,33.669608748045334],[130.39846347620858,33.67098841418402],[130.40508452702932,33.67467494569223],[130.40276177693454,33.67914322458023],[130.40350557742056,33.681084802421765],[130.408823165257,33.68360035996869],[130.41490347621448,33.68403477478506],[130.41852483835066,33.68639661301336],[130.43049652439515,33.686789224643064],[130.43261891093402,33.68257169382866],[130.4318543576925,33.678569612697515],[130.42560761280117,33.67495613491775],[130.43024552541078,33.667299135246935],[130.4333647726662,33.66584180185771],[130.43447778172435,33.66223766713466],[130.43253165960846,33.65901977504262],[130.4255150842538,33.66059972110031],[130.40501644565256,33.65217199973807],[130.4063701951285,33.649904891597544],[130.4134414789412,33.64797519829682],[130.41688175089212,33.6491949191103],[130.42177763942664,33.646711107631575],[130.42053271061616,33.641213622111025],[130.41130535705668,33.643743945626625],[130.40735688721065,33.64246205378083],[130.40410494228934,33.634433134981236],[130.40956447462088,33.63289044064135],[130.40817871557533,33.62948502731223],[130.4054473018516,33.628908026784075],[130.40357286559538,33.62297455892883],[130.41242861209082,33.6204678920796],[130.41397664120905,33.61701382902504],[130.40449944159604,33.61936789171489],[130.40133518776872,33.618469720801045],[130.3987047733067,33.612991918742125],[130.39595274981957,33.610202468169405],[130.40203255535823,33.605036387319444],[130.3945232810247,33.60234213538132],[130.38997214040205,33.609778748090775],[130.38470260693987,33.60750527904543],[130.38827286600008,33.60167572065802],[130.3932115559686,33.59730219793812],[130.3856692477376,33.59416719815772],[130.3830354473281,33.59685963976062],[130.3812562519745,33.602713801800576],[130.3736236706959,33.60509416156634],[130.37183968915042,33.60072038703629],[130.36908099898892,33.60157753177771],[130.35939319074328,33.59678897283288],[130.3528907775874,33.595147666931325],[130.3468484441005,33.594951108406974],[130.32966693867832,33.59864291893564],[130.32732632894704,33.593669305594005],[130.32369797727983,33.593694694354724],[130.32335347578237,33.59848961330505],[130.31362182918417,33.59806435988236],[130.31139289186854,33.59040358575692],[130.3119000258656,33.58793136024411],[130.30381294431197,33.58342291943222],[130.29260267197583,33.580123081115346],[130.28648936399304,33.58315258592313],[130.28503897516862,33.58098863991387],[130.27995291779303,33.58091397280168],[130.27294503168798,33.5826157212386],[130.26680175110005,33.586881918865515],[130.2649079506415,33.58987613517553],[130.2644151356501,33.59399149491162],[130.26048243811408,33.59369522495473],[130.26001325640675,33.59123313480137],[130.25187411220054,33.596660305928424],[130.25072194576126,33.599932332711035],[130.26253466943956,33.60277616169054],[130.26603252857842,33.597330891707315],[130.27076444912007,33.59614813482864],[130.27360099898692,33.603139639782626],[130.27507055776005,33.60975436027553],[130.2735068345728,33.611479667352796],[130.26609182897482,33.612734414062004],[130.26207046727825,33.61080013511821],[130.24661489036498,33.61169389215945],[130.23787924832868,33.613793387354974],[130.23181469529197,33.616867027291505],[130.2323791700627,33.61884230632745],[130.22931435787143,33.62290013463354],[130.22981294381236,33.62610841387226],[130.2248838388182,33.63207474835099],[130.2250267186082,33.63666625234572],[130.2290266152861,33.638138197919545],[130.2290358630147,33.6420518289288],[130.23469827520535,33.64408513492111],[130.237110726379,33.64878935994108],[130.23251664133,33.65138246782669],[130.2309363040672,33.65549005382297],[130.22153408632903,33.659311918909964],[130.2101198306657,33.66744791908627],[130.20636230937316,33.663631865418324],[130.20735092060852,33.65617530574582],[130.20922280189086,33.65352046839496],[130.20658277637415,33.64656846796049],[130.20018927381602,33.64509280189134],[130.20039018236105,33.64157064936603],[130.19543861230215,33.63803105359028],[130.1923816080249,33.63734400032541],[130.18439652398047,33.63260349485546],[130.18039586287887,33.632926251645245],[130.17528452735917,33.62988622476951],[130.16857975415235,33.630295386622834],[130.16744691324448,33.632561613427754],[130.15687422786334,33.62814100040691],[130.15586861224676,33.62217305434302],[130.15417658907836,33.62112255895897],[130.15793442333506,33.615139828940016],[130.16195600536537,33.61263725220749],[130.16083341133287,33.608436107940065],[130.15427958483508,33.601231720867304],[130.1487506356334,33.596664135241724],[130.14318044082472,33.593473801974426],[130.13761255457575,33.591544026835436],[130.12801630360957,33.58984986507926],[130.12302730196848,33.59001582866762],[130.11761975404852,33.591588000086176],[130.10800596630236,33.596338414286436],[130.10627508432776,33.59282025205306],[130.10870141383919,33.587919134860215],[130.1059974447263,33.584798721184086],[130.10254403368026,33.58754516167994],[130.0982658112183,33.58576705360667],[130.09211732805227,33.585219693833835],[130.0888428020537,33.583337359731445],[130.0871991048549,33.579994864771265],[130.08823686134212,33.577784585690154],[130.09249955880762,33.57535019825309],[130.0972765236927,33.574261972711895],[130.09871267175242,33.569362441023884],[130.09769797658043,33.56438963977013],[130.10064897507016,33.563602161910296],[130.10675625219938,33.56699308086604],[130.10829050640177,33.57002149479621],[130.1153805581663,33.57189008096253],[130.11967622567738,33.574604332923684],[130.12618216597423,33.57251338668351],[130.130365863394,33.56697702706822],[130.1349964204485,33.56631005386595],[130.13466121884028,33.56134316205731],[130.1321421917088,33.558668467675716],[130.12725544658167,33.55905158606191],[130.12646302155122,33.5616615859135],[130.1201902457833,33.55836736026549],[130.1171328916697,33.55380599974717],[130.116101140855,33.546740558829754],[130.12014769076336,33.54788561343037],[130.1261441894029,33.556812613211605],[130.13070044087272,33.5554364139594],[130.13484430641972,33.55586813530624],[130.1413164456975,33.54989622503081],[130.14689014336545,33.551325639866434],[130.1504829178524,33.55584091912317],[130.15565418868994,33.56003316190095],[130.1641062259216,33.5610340003189],[130.16525571957584,33.55502208100427],[130.16259856017552,33.548924135240725],[130.15851128356894,33.54843963987753],[130.159008858672,33.54468666735585],[130.15455963731745,33.54275677530501],[130.15389213981052,33.53705882910174],[130.14318433219125,33.5348809462987],[130.1420603630953,33.53244572069349],[130.13468630363002,33.52866430621282],[130.13067380025575,33.52899658592378],[130.1250415819036,33.524494468245166],[130.13203561575108,33.5227552792328],[130.1330678342132,33.51738397309191],[130.12680102544698,33.51004469400749],[130.11936632919276,33.507776252172334],[130.114222943634,33.50771010793517],[130.11210399520326,33.50995374826692],[130.10618719808076,33.50968497328296],[130.1026211145728,33.51292297331662],[130.0947264195887,33.50708164010564],[130.08598199657195,33.50500035977882],[130.0839108947721,33.50625936028132],[130.07835041533951,33.50344555876558],[130.070661919612,33.50258330587491],[130.06287236077094,33.49797913492921],[130.05514961076597,33.495957081254346],[130.04842866415163,33.49522625169021],[130.0497099480557,33.49081477488198],[130.04886635519824,33.48742991915549],[130.04229538312552,33.478720864676234],[130.04073897502371,33.4707587214379],[130.0390263286023,33.4700144676936],[130.04492499359367,33.46743722474815],[130.05062138756705,33.46935055938087],[130.06059861203642,33.47036444066646],[130.0680691696565,33.4725041616378],[130.07355472117354,33.46915361324869],[130.07636555132922,33.470044162408215],[130.0799033331723,33.46846889192585],[130.08580639404988,33.46970805428333],[130.08892082993236,33.46867416218288],[130.09841749716986,33.46984110808074],[130.1020344490306,33.471737774678616],[130.1031302720445,33.475886667435816],[130.10770499379055,33.477798332926795],[130.10928861178002,33.476165558893456],[130.1179947209797,33.47506194595212],[130.12973972840575,33.47555361340858],[130.13880055809932,33.47043555905384],[130.14254472086225,33.474312225229085],[130.14568555094752,33.47438472137782],[130.14849666708756,33.477289721343595],[130.1567672238284,33.47672249464745],[130.16392917009523,33.472345559000416],[130.1648605583681,33.46918000025687],[130.16885165967642,33.467620829437806],[130.17483000010452,33.467385558696606],[130.17593472101066,33.46592305420563],[130.18279916974598,33.46664805436427],[130.18863027226928,33.470823612919446],[130.18866999982072,33.47470444115709],[130.19453138791323,33.476108891712045],[130.19795499362817,33.47934416230328],[130.20558666659144,33.481404161972534],[130.2163063938251,33.479837224608275],[130.21817472098667,33.478186386792345],[130.22334221826884,33.478279441443135],[130.22680221774817,33.476695279363696],[130.2334274971813,33.47886916198229],[130.23647778172426,33.47778249496622],[130.23823138776834,33.47402610771877],[130.24420055780956,33.47440555866967],[130.24640832688283,33.471459162010774],[130.2523702717707,33.47096361308036],[130.2575047207663,33.4760730537285],[130.26455972774932,33.47743444114661],[130.27111916961405,33.47992666668239],[130.2767066673789,33.47888138736619],[130.28824639375614,33.46961361287799],[130.29118555087257,33.46942389189917],[130.29588166041037,33.46355249525152],[130.3032569393563,33.46130333308241],[130.30567444921655,33.46314333339819],[130.31112055826725,33.461975559224754],[130.31378416310872,33.45809666722744],[130.31965693931636,33.45873222531202],[130.33197221764374,33.45127055928896],[130.3349991701756,33.45037222469847],[130.33637277578305,33.44522916199628],[130.34542805396154,33.44502138712738],[130.35212221786617,33.436794441210566],[130.35578693901607,33.433239720636664],[130.36349306055638,33.43489527899396],[130.3705794421876,33.43320527930024],[130.37529805366228,33.43020194566333],[130.37843499417966,33.42505222528001],[130.384081387646,33.42776222524657],[130.38873749713787,33.426330278819364],[130.39795138784632,33.42658582927265],[130.39846000032878,33.42206861287622],[130.40113389071655,33.4216186128088],[130.4047661085691,33.41624138733022],[130.40745861222524,33.415493892429254],[130.41415416288442,33.410983332814624],[130.41509333299098,33.40928889226859],[130.41094778211448,33.40373000013943],[130.4077038906221,33.402056108202885],[130.40768306142422,33.398604162152424],[130.41094583688096,33.395449162348996],[130.41374861180907,33.39833527924981],[130.4190058371497,33.401120279077645],[130.42187555131568,33.39849999997506],[130.4287572238668,33.39687582885648],[130.43834999985268,33.40033833294774],[130.4370358367346,33.40485222455055],[130.44122917039,33.41020110789486],[130.4422138911582,33.41563361290099],[130.44668389134858,33.41857527912589],[130.45826082987344,33.41997527893602],[130.45800944238192,33.4250149996426],[130.46307333326774,33.428020828898184],[130.46906778235234,33.432990828763764],[130.47437610897032,33.435465000409465],[130.4765933326163,33.43846389229486],[130.48007194626337,33.43612722519134],[130.48575360574432,33.43807666670483],[130.4872816600207,33.44029055926194],[130.49111639440616,33.43970610785067],[130.49591000034627,33.44476694643748],[130.5035358367096,33.44692582926365],[130.50963166007307,33.443798613115575],[130.51113221757782,33.44911277543429],[130.52181805386022,33.44604666731988],[130.52473666686376,33.444316386991716],[130.53368499406724,33.44145999987916],[130.537002218078,33.43826582920468],[130.5351513881261,33.434389162130174],[130.53736778169787,33.42629861279079],[130.54106416258105,33.421222775310866],[130.54168221806003,33.40390305398279],[130.54195916968,33.366341395638926],[130.54025805436584,33.36521723408811],[130.53796910529002,33.355298747938946],[130.53597845684033,33.34296229687254],[130.5319148377996,33.34460729718904],[130.52680121890114,33.340215072167894],[130.5195512191135,33.34049063073809],[130.5120959400756,33.34406229723726],[130.50674398194928,33.34115923441118],[130.50564980469483,33.33106673933861],[130.49945562877429,33.32557590070729],[130.49035452743954,33.329670621901755],[130.48705092096327,33.33270950483984],[130.48409730184903,33.33291839576742],[130.47811841823045,33.32917117081291],[130.4769917511685,33.32600367582904],[130.48302312641624,33.32061839602221],[130.48751090800204,33.31970867601461],[130.4893947862405,33.31592922475397],[130.48490117974575,33.30621700890788],[130.47825590118896,33.30434117060861],[130.46671090838174,33.3047514503192],[130.45801813163155,33.30327422482566],[130.45561119330205,33.30081089180925],[130.45484422807874,33.295779505120095],[130.45623448823108,33.29379145031521],[130.4662264462935,33.290330332978556],[130.46801003933194,33.287778387062986],[130.4648647342202,33.28485645016508],[130.45828140096592,33.28300866711635],[130.4529547335742,33.28294811666228],[130.44872530472912,33.27840783805135],[130.44820280221757,33.274749225096684],[130.45059058408822,33.270056170555904],[130.4497461476667,33.26509755880534],[130.44245810565712,33.26402700943896],[130.4390825552158,33.26583783844552],[130.43622976719007,33.26979423401673],[130.43508420177454,33.27588367579108],[130.43592809320705,33.28130144990206],[130.43787474682222,33.28379700922466],[130.43849501912985,33.28937690142294],[130.4337800256277,33.29245034170998],[130.42687031131584,33.290143675989896],[130.42987198390495,33.28622367598189],[130.43094614764664,33.280532287635026],[130.42972783427217,33.27459979284623],[130.4263233850163,33.27061479343803],[130.4208428400251,33.27185062200863],[130.41705923479594,33.267250071733486],[130.41950924795344,33.26160340487331],[130.41489592730522,33.2526489640785],[130.41135121888374,33.25015452261317],[130.40209623905025,33.24865146769116],[130.40133622558642,33.25682174822515],[130.40001815761195,33.259099802014305],[130.39500538329185,33.26066757664739],[130.39197955940915,33.26022869399907],[130.3889653961362,33.257119243058696],[130.39107346277012,33.249358693648844],[130.39030819726554,33.245303693710525],[130.3853907133108,33.240540359849774],[130.37868543468517,33.24146590972401],[130.37741849496763,33.243616188736155],[130.37329629139083,33.24426475731275],[130.3701291048743,33.23976466670604],[130.3706477169187,33.23608634241083],[130.379048261668,33.22917884672643],[130.3788352527448,33.222150350858044],[130.37617472088675,33.21992167614451],[130.36738194582017,33.21755027902219],[130.36205861221526,33.21520277508807],[130.35814138841442,33.2107969460223],[130.35502917026008,33.20923110762959],[130.3426861091766,33.20828138667673],[130.33970221798302,33.20501722536471],[130.3394222176613,33.20036777535262],[130.34055499381793,33.18844582901187],[130.3427469393199,33.188210559170045],[130.3470563943372,33.181955000023265],[130.35312000038778,33.180462225251574],[130.35212111529734,33.16950555903435],[130.3535763937357,33.161793892274375],[130.3559263941878,33.153817494781606],[130.3557840989571,33.14035694601631],[130.36666666733288,33.139022441132795],[130.3733094682574,33.1412870806343],[130.3736833847804,33.135517387417565],[130.37700389131658,33.128239198380356],[130.37272797741434,33.123267495198775],[130.37330335916272,33.11965182936848],[130.38814128439287,33.1114575324392],[130.39766374778378,33.10786189181289],[130.3966436962496,33.105453973222325],[130.38757786003032,33.09660686471511],[130.38955824901404,33.09371410811963],[130.40869150540868,33.087637252357354],[130.41351954639003,33.08497337771928],[130.4121882745693,33.081174278969854],[130.41753613538435,33.072210918699],[130.42525644642797,33.05297222488832],[130.42236894906785,33.05119010763741],[130.4219286895575,33.044835972901865],[130.41928286611142,33.03605025211749],[130.42310664135846,33.029544161633794],[130.4077533587306,33.0173350806495],[130.4099983660318,33.0133139914476],[130.41431267199232,33.01679902715341],[130.41931600522958,33.007904577434374],[130.41323758824421,33.007970513928115],[130.40931735441245,33.009436630995765],[130.39663683532171,33.00476880243832],[130.39672247686087,33.00002344062932],[130.41336239885572,33.00402114386077],[130.41413669265432,33.00231376566779],[130.42479944244042,33.00516536029318],[130.43624891105844,33.00506234205352],[130.444870856305,33.0024704230716],[130.45065699092743,33.003896279289904],[130.4559725678797,33.0039115767579],[130.46204142687043,33.0027193689038],[130.46841644566246,33.00287411704693],[130.47459034996473,33.00143886471187],[130.4792284046672,33.00347999120868],[130.48396843079854,33.0016141803502],[130.49092757544736,33.00302893713581],[130.49910364491734,33.00656009906936],[130.50706250293217,33.00389263973358],[130.5087272109921,33.00743709904293],[130.51257330741225,33.00757573043569],[130.51579298285992,33.014018532029695],[130.51290356724587,33.016769071635395],[130.5109524637852,33.02313768455656],[130.5076860829464,33.02359933264313],[130.50557831398805,33.02607320661326],[130.50374700382122,33.03405708106948],[130.50447341141887,33.0367890361851],[130.49828955881617,33.04361872972066],[130.4950356812518,33.04867565805523],[130.49672846974318,33.05175789191321],[130.50373985690896,33.05575042314359],[130.50405736705386,33.05802598221334],[130.51309234843325,33.06151740490435],[130.5168737350349,33.06556658622901],[130.52396233529362,33.06603105369021],[130.53224863826415,33.06550299966375],[130.5353679115999,33.078051910167574],[130.53977094737138,33.07963581144361],[130.54136677006045,33.08201109003983],[130.54663115400467,33.08056915304405],[130.54907837926385,33.08407972140208],[130.55246446166564,33.082971955391486],[130.55595612177763,33.08609168468354],[130.55946805440726,33.085741414035056],[130.56561245105388,33.087105585754216],[130.56542662773677,33.09163336019145],[130.56119946788124,33.095912532337536],[130.56179587487975,33.104189198173],[130.5707997019448,33.10673866735567],[130.57316110220313,33.111740342243024],[130.58019885929002,33.11601924279387],[130.58535521397198,33.11598814423752],[130.58976046657233,33.113937883326685],[130.60101016878434,33.114792649361334],[130.60701044097914,33.11038962168374],[130.6155509732988,33.10859550477875],[130.62134263335588,33.11129081072238],[130.6243373281053,33.111054441009685],[130.63383928695362,33.11318394568258],[130.6359065108768,33.1115659007458],[130.64012987019737,33.11338509884331],[130.64558522697666,33.112177089900854],[130.64901276272883,33.10843047738467],[130.65071055774615,33.11041159481931],[130.65617168637425,33.10852108138283],[130.65468834009494,33.1153963237814],[130.6586550194137,33.11502635078551],[130.66026390385616,33.11810663131604],[130.65995084265728,33.12467965833963],[130.66138084295164,33.12682244060318],[130.66304553842087,33.13456770333687],[130.66751470763768,33.1366435499599],[130.66890025893986,33.13895409895258],[130.66630801620204,33.1433846305963],[130.66727994771145,33.14712323375028],[130.66628549897666,33.150560153028664],[130.66753687412745,33.15695486517495],[130.67251770362918,33.15932292761107],[130.67309630405123,33.161196540987646],[130.67873185529095,33.164242387376305],[130.67780434489464,33.16738959455421],[130.68002154335966,33.171308748300135],[130.68521739266862,33.16907682883266],[130.69308906590777,33.15995133338737],[130.69104159469396,33.154945811200264],[130.6933602195985,33.151324738645826],[130.6971452007905,33.15358500924083],[130.70181434505605,33.15336196388358],[130.70431629136385,33.15165892761746],[130.70935819742294,33.15184474823661],[130.71235566837947,33.15533111673767],[130.72300811912942,33.15190587425673],[130.72768726295692,33.15432948601699],[130.7345294417804,33.15342450543665],[130.73748527862278,33.14636872143939],[130.74176137508744,33.1431498652741],[130.7453730218475,33.14281209879937],[130.749754410038,33.13890578377493],[130.75386967624468,33.13744941355964],[130.75501412470214,33.13353557660565],[130.7585529956243,33.13155309040286],[130.7639173931732,33.13209251365862],[130.76522629076078,33.12859341435467],[130.76830072569794,33.127757053845016],[130.770889338772,33.12433267561255],[130.77440683460782,33.12513908060413],[130.77755570733007,33.123218269907284],[130.78187958477508,33.12480967602579],[130.7859576127537,33.1230197031968],[130.7891767827823,33.12403137844541],[130.79935426738564,33.12035059540369],[130.8072792614288,33.11585845930051],[130.81182150505845,33.11664264923894],[130.81854732779698,33.1134287753178],[130.82096870294333,33.11135265799879],[130.8203792351137,33.106571009444565],[130.82664229640488,33.10661128828036],[130.836597548638,33.105255269814904],[130.83982282686202,33.10405447703255],[130.84412033708395,33.10750753194708],[130.84904923523413,33.107648963828694],[130.85332200960318,33.10914120710106],[130.8556486897353,33.113083675771065],[130.8616473152714,33.117527829445805],[130.85945843106185,33.12136693723443],[130.8630134502106,33.12268889207877],[130.8662248509961,33.1268474588432],[130.86705570675554,33.133747937117676],[130.86904015617836,33.13630152339664],[130.87095905311787,33.14244338665304],[130.87132544681197,33.14752163071876],[130.87549378740846,33.1492574499714],[130.87964630443344,33.152986900724954],[130.87695850782893,33.15941407210181],[130.876618235843,33.164654586240204],[130.87352793776415,33.16785760444492],[130.8778118547334,33.17182869403905],[130.87784713423787,33.174199225114194],[130.88571826158852,33.17629339632322],[130.88745690021585,33.18627135104208],[130.874865473363,33.18927017098167],[130.869599079434,33.19386762219307],[130.86367739269758,33.193062062564195],[130.85887514876913,33.19805425230197],[130.84719455258664,33.20311835093122],[130.8435545645915,33.207237738730726],[130.83648900136643,33.21059990995792],[130.83882317824714,33.21692873867039],[130.84446210104522,33.21930954090266],[130.8450171077534,33.22291006304903],[130.84935933856264,33.2231078383561],[130.8546360306284,33.22652836029562],[130.85833243759203,33.225963369314115],[130.85958605655128,33.229126395566766],[130.85254491621492,33.23225525207829],[130.8329292742667,33.234170225275705],[130.82626145330346,33.236763252222374],[130.82518950729002,33.24101099126426],[130.82747730163624,33.2449053956675],[130.82474980535926,33.25105117097479],[130.82498090774277,33.25369588285878],[130.82870287883486,33.2574586400043],[130.83527902740525,33.25705226065338],[130.83812208836378,33.25824281105696],[130.84526405978863,33.25750700914119],[130.84873907884548,33.26102920663266],[130.85142741864047,33.2604064414042],[130.8553541123025,33.262568369334815],[130.86390526561559,33.26116699086401],[130.86804750968486,33.26407863142373],[130.86758028490226,33.26798222509967],[130.8606971977175,33.26674500887509],[130.85737940263743,33.27042943237245],[130.8564894029637,33.275348847171585],[130.85207412472118,33.27746966709151],[130.8571277426513,33.284973261307016],[130.86397274984256,33.28916686475907],[130.86634831442325,33.29211212557419],[130.8652752532504,33.29674295512331],[130.8615796763611,33.30318961301026],[130.8630405063144,33.30503238683525],[130.85630606986933,33.318539296551364],[130.85437775612866,33.32466205371088],[130.85729859855155,33.32690176580388],[130.8547760829499,33.32914565794579],[130.85060106398794,33.33665899091977],[130.84502883311427,33.33869788260125],[130.84208548605636,33.336658721123115],[130.8372282485849,33.340209838113594],[130.8353479640374,33.34354594608857],[130.84018631574588,33.34579372060375],[130.84225631587628,33.350257612598796],[130.85019549942285,33.35376816207105],[130.85240049318827,33.35636873882629],[130.85706019457234,33.358681000128115],[130.86179933936808,33.36259993713742],[130.85963182934552,33.37042939619971],[130.85971905279212,33.37296218026046],[130.8624276516149,33.37666442292482],[130.86833516233798,33.37657275682733],[130.8726371080162,33.37783248578063],[130.88583983104343,33.379231667207705],[130.88582204874865,33.38572083784646],[130.88457843114975,33.38943279318892],[130.88761368442408,33.400500585933344],[130.88761343711053,33.404463649078195],[130.89199593956107,33.40644561277486],[130.88953950704263,33.41517898222429],[130.892525603374,33.419984828836846],[130.89108283990117,33.42655233312371],[130.89169344989284,33.42994510828015],[130.8952698306382,33.43317289201542],[130.89757621307183,33.43854654089023],[130.89703818376518,33.44371044088422],[130.8949207003301,33.44615571191662],[130.89993009140062,33.449008242736284],[130.91053447518595,33.44978869419293],[130.9157245139752,33.45480395513846],[130.92628588768366,33.4576245321465],[130.9292464333763,33.46062546819087],[130.9298219464257,33.46670138685954],[130.94118944183936,33.48308000004204],[130.94241832674447,33.48564249500521],[130.950260271994,33.48784055859494],[130.95610221764332,33.491976386900774],[130.96158693908603,33.49358249513608],[130.9626061092846,33.49769082936831],[130.9696911149531,33.500510559215],[130.97231583670657,33.50515416183515],[130.97676693944277,33.50709694566757],[130.9866327756821,33.507327225171366],[130.99006916975645,33.50923694632809],[130.99762389132957,33.51011333296401],[131.0014380537233,33.51217555935466],[131.0053286117261,33.51084722471967],[131.0151577817063,33.509067495168836],[131.0193769393943,33.51260277509806],[131.02678999975876,33.513923333295224],[131.02983693882368,33.51883333309189],[131.03573916962705,33.51907305367854],[131.04235055813183,33.51401055943984],[131.0455005577046,33.509909999846684],[131.04772250279132,33.51107166672409],[131.05331165980533,33.50789194635627],[131.06309749685204,33.51020333261778],[131.0674244490791,33.50920582888597],[131.06973861244705,33.5067877749359],[131.07392055798744,33.50701055859048],[131.07965472078877,33.50534555915027],[131.09370055823422,33.50736638704916],[131.09707805390917,33.50458361304334],[131.10053499389494,33.504755279232825],[131.10550749657375,33.507756108257865],[131.1118449938515,33.50654861282828],[131.11230000044475,33.50473472073082],[131.11897194569883,33.502082495011166],[131.13019277607577,33.502424161845624],[131.1336252787836,33.5057733333727],[131.14158389128363,33.50463916236748],[131.1546591695851,33.506071946063514],[131.15579916999582,33.50786694610275],[131.16315749672117,33.50846082870436],[131.1671561091672,33.5055941623408],[131.17595444923847,33.506558053911135],[131.17736082973852,33.5082847207633],[131.17413861190744,33.512623332700684],[131.16954555118627,33.514004441351915],[131.16806138832249,33.51615416188514],[131.16971111457633,33.52116194586716],[131.1667105580459,33.52871249458599],[131.17675360569444,33.53439610829383],[131.18689916976098,33.54403833260301],[131.1905697284103,33.558025278843616],[131.18940333289754,33.56307582918623],[131.18616250269736,33.56786361291546],[131.17602416288491,33.57471833278487],[131.17316138788783,33.578235000345046],[131.17240639443958,33.582207224883575],[131.17333166012804,33.59093166676308],[131.17837972834184,33.596817494831555],[131.1779155513617,33.60482472108407],[131.18557163372395,33.61684936010994]]],[[[130.68505511000535,33.93004246788564],[130.6848414787513,33.93025605417364],[130.68469814480363,33.93016894584025],[130.68489535713513,33.930012828928966],[130.68505511000535,33.93004246788564]]],[[[130.72890730213032,33.93472905360301],[130.72919185482033,33.93545882916169],[130.72913182867103,33.93545716181859],[130.72888058417163,33.93482591868127],[130.72890730213032,33.93472905360301]]],[[[130.68477452692298,33.93614782855951],[130.6843728267446,33.936720774943865],[130.6842386901635,33.93657658574091],[130.68477452692298,33.93614782855951]]],[[[130.6849416083686,33.93651874764214],[130.68502508434028,33.93667205417199],[130.6848144226476,33.936924775358136],[130.68471191971935,33.93673416225187],[130.6849416083686,33.93651874764214]]],[[[130.68266011737057,33.937307026797896],[130.68274191970386,33.93743300023283],[130.68267683486806,33.93751819840617],[130.68254119282187,33.93743263960471],[130.68266011737057,33.937307026797896]]],[[[130.71730713411705,33.93843905381931],[130.71708141417594,33.9386929729024],[130.71692557695383,33.93841444117356],[130.71730713411705,33.93843905381931]]],[[[130.7140429440267,33.938994108191594],[130.71405902660285,33.93913805367828],[130.71382189426504,33.93904364015191],[130.7140429440267,33.938994108191594]]],[[[130.7141939689766,33.93931455911968],[130.7139729443959,33.939258586214805],[130.71401408568158,33.939150585731],[130.71419286640776,33.93919633334417],[130.7141939689766,33.93931455911968]]],[[[130.71216089500933,33.93925805381616],[130.71194430588503,33.93925655914296],[130.71206674408506,33.93887889244701],[130.71230116676554,33.9389377746586],[130.71216089500933,33.93925805381616]]],[[[130.72867710806213,33.93919791884895],[130.72878549885172,33.93950280161306],[130.72842255495698,33.939429846810015],[130.72867710806213,33.93919791884895]]],[[[130.77741975411845,33.946075801656946],[130.77579155583567,33.94841153166692],[130.7757512446243,33.94839197321107],[130.7773794420077,33.9460563331333],[130.77741975411845,33.946075801656946]]],[[[130.76640024597464,33.94898182864853],[130.76637822337636,33.948921360032784],[130.76707647230137,33.948531828581054],[130.76711666660094,33.94858194600005],[130.76640024597464,33.94898182864853]]],[[[130.77857483795844,33.953410441139],[130.77538477268922,33.954025000053775],[130.77536131027637,33.95394030640006],[130.77855138813607,33.953325802343954],[130.77857483795844,33.953410441139]]],[[[130.80888841836588,33.948729891671235],[130.7997056424016,33.94611310823342],[130.77742111479267,33.94607386541662],[130.77743308656773,33.94047538692962],[130.78414199665588,33.94050872120056],[130.78422428012652,33.93499225189095],[130.80985138813116,33.932669134872754],[130.81452014299032,33.93421813525879],[130.82225505812448,33.93037491936707],[130.83154338481938,33.93441158572614],[130.84504622600264,33.93923825164404],[130.83229163425153,33.949843612992424],[130.8143184178607,33.94343608101036],[130.81204846966125,33.947854945749214],[130.80888841836588,33.948729891671235]]],[[[130.75833333261733,33.948730144380704],[130.75967939019176,33.94965682919934],[130.75995975383967,33.952487359903785],[130.76931658908939,33.95595566732027],[130.7692780027777,33.95602805375171],[130.7598433590838,33.95253141409353],[130.7595393900309,33.94965691913154],[130.75833333261733,33.948730144380704]]],[[[130.71166082968364,34.005364441216045],[130.71097221789364,34.00294527930123],[130.71478221822485,34.002814999912346],[130.71166082968364,34.005364441216045]]],[[[130.71083166015308,34.00537861273284],[130.71088749726027,34.00549749501346],[130.71065944177985,34.00567722542365],[130.71058916965455,34.0055319462424],[130.71083166015308,34.00537861273284]]],[[[130.7240663936492,34.01204610814142],[130.72408832721464,34.012181386861585],[130.72399138839194,34.01218333299448],[130.7239233330954,34.01206222489179],[130.7240663936492,34.01204610814142]]],[[[130.723143605593,34.014465000259634],[130.7231558372721,34.01452555880752],[130.72302472061438,34.01460222511264],[130.72299555110385,34.01446082920398],[130.723143605593,34.014465000259634]]],[[[130.72190639386508,34.017411108236104],[130.7218991696111,34.01747166678405],[130.7217391703265,34.017528333066196],[130.72179722426256,34.017364721204956],[130.72190639386508,34.017411108236104]]],[[[130.72547917012764,34.01906416198153],[130.72212111509748,34.01664138659078],[130.7236274966117,34.013567775432534],[130.72452749674665,34.012990828863735],[130.7243077815789,34.01203916177792],[130.7287074970534,34.008715279186845],[130.73165555116282,34.01619944085155],[130.72701944169398,34.01557277526342],[130.72547917012764,34.01906416198153]]],[[[130.7269949936241,34.01951833310466],[130.7270749937161,34.01964972135761],[130.7269877819606,34.01974027859103],[130.72685416338902,34.01964555929516],[130.7269949936241,34.01951833310466]]],[[[130.72615917000974,34.02113777468861],[130.72660693885916,34.021395279368676],[130.72621389105825,34.02194833274939],[130.72550221795302,34.021301387449114],[130.72615917000974,34.02113777468861]]],[[[130.8183861611924,33.90184730620825],[130.8186093387501,33.90220982922028],[130.81838705601785,33.9022959725811],[130.81818600537986,33.90194880189574],[130.8183861611924,33.90184730620825]]],[[[130.85585444922356,33.96311305402429],[130.85638277574458,33.96086249520806],[130.8576119457348,33.96205694597131],[130.85585444922356,33.96311305402429]]],[[[130.85406477317076,33.9642964952871],[130.85343805362334,33.96485019797831],[130.8533647211051,33.96481313511816],[130.85401588782304,33.96424466735755],[130.85406477317076,33.9642964952871]]],[[[130.8519049937205,33.965745559410095],[130.85197083038952,33.96587944058376],[130.8517977819422,33.96593610776523],[130.85177360636692,33.96580027865997],[130.8519049937205,33.965745559410095]]],[[[130.86141666704566,33.96745110838202],[130.86126082982355,33.96752805437626],[130.8610711151399,33.96745527943767],[130.86126082982355,33.96738222480985],[130.86141666704566,33.96745110838202]]],[[[130.84744972802264,33.967785279367206],[130.84694832720356,33.968154162384735],[130.84680693938878,33.96811361285302],[130.84713805357842,33.967789161740484],[130.84744972802264,33.967785279367206]]],[[[130.8461277821715,33.96902027876291],[130.84508583664206,33.968829440826084],[130.8459016602335,33.9680649999998],[130.8461277821715,33.96902027876291]]],[[[130.8561061092097,33.96997694607927],[130.85596499388942,33.969814720972636],[130.8562961089783,33.969672774678884],[130.8563591703395,33.96983499978546],[130.8561061092097,33.96997694607927]]],[[[130.85237221760383,33.97140472055145],[130.8497038913216,33.97010277472333],[130.85253306135178,33.966005279120395],[130.8565241626601,33.96527610790611],[130.85237221760383,33.97140472055145]]],[[[130.79166666738286,33.98442161306701],[130.79119082979298,33.98377555899492],[130.791828611901,33.98339833296677],[130.79201250257495,33.984259162230614],[130.79166666738286,33.98442161306701]]],[[[130.83289861188155,33.991211945974555],[130.83252389136453,33.991151107737494],[130.83329555104888,33.99034027898074],[130.8334488845585,33.99088138666673],[130.83289861188155,33.991211945974555]]],[[[130.82231557710224,33.99241282868917],[130.82121561630765,33.993286774565036],[130.82109406034272,33.99318708111895],[130.82219555088398,33.99229916157708],[130.82231557710224,33.99241282868917]]],[[[130.81325111504702,34.0011424947304],[130.80946306087162,33.99916138718834],[130.8137041629168,33.996115828582674],[130.81734111480068,33.989254162349766],[130.82264944231792,33.987059440640735],[130.82014444910715,33.99466916205222],[130.81667416318214,33.99740166665367],[130.81647805431885,34.00044833322403],[130.81325111504702,34.0011424947304]]],[[[130.81524166007466,34.00217694620915],[130.8147547212534,34.002782775404796],[130.81444722416018,34.002250278727445],[130.81524166007466,34.00217694620915]]],[[[130.8095036059068,34.00382333328025],[130.80905138811113,34.003681108196645],[130.80959055775804,34.00283722485807],[130.8102244493989,34.003454441269525],[130.8095036059068,34.00382333328025]]],[[[130.8131202717832,34.00739889204527],[130.81317277600283,34.00757472119648],[130.81293583701938,34.00789277543129],[130.81268749733022,34.00794555934016],[130.8128219459761,34.00748666677629],[130.8131202717832,34.00739889204527]]],[[[130.81208359268373,34.009600017826585],[130.81215345022156,34.00985364912668],[130.81175946802512,34.01001188304201],[130.81174549885577,34.00959768498524],[130.81208359268373,34.009600017826585]]],[[[130.8126383268973,34.01030249536393],[130.8126530613897,34.01037082855095],[130.81247610898527,34.010427494833095],[130.81244194643875,34.0103541623148],[130.8126383268973,34.01030249536393]]],[[[130.977270077752,33.8300914946268],[130.97449557660968,33.829212586291874],[130.9771121136332,33.827678054198884],[130.977270077752,33.8300914946268]]],[[[131.02521566816858,33.85690791916517],[131.02518749690557,33.85704091900328],[131.02500128418194,33.85701399959646],[131.02502914427964,33.85688080190755],[131.02521566816858,33.85690791916517]]],[[[131.0256135021615,33.85696427877849],[131.02578166009562,33.856989386950715],[131.02575319115692,33.857122586438265],[131.02546775623205,33.857080080881076],[131.0256135021615,33.85696427877849]]],[[[131.029281335865,33.83421841424848],[131.0322701688333,33.81993161335333],[131.041860752272,33.82125558627632],[131.03432992208832,33.85803033333326],[131.02464593955858,33.8566635859558],[131.029281335865,33.83421841424848]]],[[[130.39753556381527,33.6230397121131],[130.402450894793,33.63513474827005],[130.40240108943874,33.63513658558503],[130.3974993903846,33.62308073918484],[130.39753556381527,33.6230397121131]]],[[[130.33656452743105,33.643514441338425],[130.3362487547763,33.643125305588455],[130.33732252911147,33.642890774989326],[130.33734433227517,33.64318205370887],[130.33656452743105,33.643514441338425]]],[[[130.40488953332533,33.645573531793104],[130.4039654727285,33.64328997325373],[130.4040009213055,33.64326182897031],[130.40491622610307,33.64552136032256],[130.40488953332533,33.645573531793104]]],[[[130.31181832695427,33.658333333316705],[130.31304924792448,33.65893638720456],[130.31299133608138,33.65900649475395],[130.31181832695427,33.658333333316705]]],[[[130.3124962781808,33.65957013495381],[130.31310464256524,33.66013494607097],[130.3123621137206,33.660678972956305],[130.31233241181144,33.660655387336305],[130.3130339693423,33.66014141399512],[130.3124962781808,33.65957013495381]]],[[[130.4293574970509,33.66124138738019],[130.42935444924854,33.66135527932272],[130.42914832733345,33.66137110829004],[130.42910722381941,33.66124138738019],[130.4293574970509,33.66124138738019]]],[[[130.29615255509646,33.66317022542563],[130.2960526071422,33.663066198146566],[130.29620702973068,33.66300725208305],[130.29626413668063,33.66308255861327],[130.29615255509646,33.66317022542563]]],[[[130.3482655247342,33.66666666723296],[130.34811527859733,33.6680763869158],[130.34770583705483,33.66737638701068],[130.3482655247342,33.66666666723296]]],[[[130.29025111479723,33.6680237208181],[130.28925063610802,33.669132774657896],[130.28917513622366,33.66908655939727],[130.29025111479723,33.6680237208181]]],[[[130.29045274999453,33.669455613286004],[130.29009241233507,33.66949086491155],[130.2900914788387,33.66945141435133],[130.2904450320127,33.669417802189855],[130.29045274999453,33.669455613286004]]],[[[130.42111725016105,33.67533019803028],[130.41576703042415,33.675221891776914],[130.4017198826665,33.66735108098766],[130.39513588841055,33.66464619816355],[130.39426083007334,33.66215641428715],[130.39817045370353,33.65552149502105],[130.40165304775007,33.656336540698874],[130.41408155611896,33.6614003326593],[130.4175001687978,33.65829633340911],[130.4261700002454,33.661871278836486],[130.42818158221428,33.66519777485746],[130.42493547299375,33.67190705366767],[130.42111725016105,33.67533019803028]]],[[[130.28888910504827,33.67592263991793],[130.28864527905648,33.67560982873067],[130.28893929980893,33.67567427864509],[130.28888910504827,33.67592263991793]]],[[[130.31180050598857,33.67599741404945],[130.31193608328363,33.676192360089374],[130.31184228309496,33.676243946101295],[130.31172557717366,33.676029865186194],[130.31180050598857,33.67599741404945]]],[[[130.2859195850209,33.67949480194363],[130.28601491585573,33.679652532238606],[130.28588444940783,33.67968902672726],[130.2859195850209,33.67949480194363]]],[[[130.28630105135255,33.68047453237381],[130.28611105068455,33.680350107571485],[130.2864248115559,33.68033935977371],[130.28630105135255,33.68047453237381]]],[[[130.2905961352035,33.689208107768025],[130.28969282736216,33.68885738655922],[130.28970394298267,33.68825169406051],[130.29068658901497,33.68860366712556],[130.2905961352035,33.689208107768025]]],[[[130.2967135539874,33.68942680220522],[130.29655105099027,33.68931999961836],[130.29667358002177,33.689166225441],[130.29690600530796,33.689308919071436],[130.2967135539874,33.68942680220522]]],[[[130.29954508383867,33.689501586229255],[130.29460561595647,33.68753753163185],[130.29006347574887,33.68771489232847],[130.29006902726383,33.68483053180364],[130.285990778052,33.67944782855449],[130.28883975385168,33.67785897291333],[130.28971880697748,33.67114994591333],[130.29766620043483,33.66255733295458],[130.2985580796917,33.66032253205924],[130.30782852066977,33.65921746761211],[130.31196888515603,33.66079066695579],[130.31222992237304,33.66232563971653],[130.31605994790834,33.66162453184671],[130.31591927415525,33.66601941436454],[130.31342364468549,33.668721306043494],[130.31356785996877,33.671285945889736],[130.30998533055867,33.6785311352038],[130.30336325630924,33.687622054414305],[130.29954508383867,33.689501586229255]]],[[[130.2935466669452,33.689644973236966],[130.29348044086976,33.68966094609584],[130.29319457786755,33.689495360222736],[130.2935910251058,33.68957305355366],[130.2935466669452,33.689644973236966]]],[[[130.40355321720722,33.69660936003402],[130.40348394332943,33.69664525197686],[130.40290658936772,33.69588544086048],[130.40297824914694,33.695847027218576],[130.40355321720722,33.69660936003402]]],[[[130.3626650844261,33.59848549530943],[130.36210002599546,33.599134027013804],[130.36205710764943,33.59910899978058],[130.3626221660802,33.59846046807621],[130.3626650844261,33.59848549530943]]],[[[130.36190983107394,33.59946036040736],[130.3623253574293,33.599626585698445],[130.36229538302553,33.59967602682724],[130.3614278601077,33.599328919094376],[130.36145785969256,33.59927949505271],[130.36190983107394,33.59946036040736]]],[[[130.36258055804637,33.600000000399746],[130.36283953311806,33.60015580164895],[130.36340219215754,33.60070086455329],[130.36337518821438,33.600723198316985],[130.36281019543424,33.60017325209395],[130.36258055804637,33.600000000399746]]],[[[130.37106661483244,33.6024984951095],[130.37028824890365,33.602701467598706],[130.3702358373141,33.60247000009048],[130.37106661483244,33.6024984951095]]],[[[130.3677228266472,33.604464467960895],[130.36744827531777,33.6049835863235],[130.36747693940924,33.60469953185799],[130.3677228266472,33.604464467960895]]],[[[130.3666913096563,33.606454360080704],[130.36640360574188,33.60620249504916],[130.36709455307118,33.60589110838799],[130.3671072757802,33.60633341385602],[130.3666913096563,33.606454360080704]]],[[[130.38191806666555,33.61801552269827],[130.3788244491891,33.61289592780486],[130.3788669781286,33.61287289167069],[130.38191806666555,33.61801552269827]]],[[[130.28409027224836,33.58141763991222],[130.2839420226063,33.581391720551494],[130.28402036344903,33.58122238720347],[130.28420175130987,33.5813682518434],[130.28409027224836,33.58141763991222]]],[[[130.26631024642074,33.595078054009036],[130.2658673932657,33.59585761333824],[130.2658485857437,33.595850747913744],[130.26629143979812,33.59507119757774],[130.26631024642074,33.595078054009036]]],[[[130.32471430562077,33.59614058591933],[130.32466581057872,33.596143026679385],[130.32458533114823,33.595048693842216],[130.32463383878064,33.595047864667265],[130.32471430562077,33.59614058591933]]],[[[130.3262444751025,33.59666819837872],[130.32596688676244,33.59592336007506],[130.32600691288883,33.595916251833614],[130.3262444751025,33.59666819837872]]],[[[130.3247516077006,33.59666013505722],[130.3247996629741,33.59740705439208],[130.32473910532553,33.59741016244908],[130.3247516077006,33.59666013505722]]],[[[130.33691425398968,33.59795153183779],[130.33378666732085,33.598630278964265],[130.33377192023795,33.598586197794816],[130.3369001688078,33.59790574825172],[130.33691425398968,33.59795153183779]]],[[[130.27764522684583,33.60831780212493],[130.27720219202763,33.60805300034576],[130.2773169131451,33.60776146801737],[130.2777766150988,33.60797074835142],[130.27764522684583,33.60831780212493]]],[[[130.2321069389841,33.62487694611423],[130.23214082993536,33.62504027918561],[130.2320127763686,33.62502610766876],[130.23198610877193,33.6249052792553],[130.2321069389841,33.62487694611423]]],[[[130.29083194643727,33.629893333010955],[130.29074722400526,33.630097224607255],[130.29045250268086,33.63012361341407],[130.29063360635587,33.62984916190936],[130.29083194643727,33.629893333010955]]],[[[130.30178291814718,33.638345918829145],[130.2984412451674,33.63581855857967],[130.29797666708953,33.63065761285861],[130.29946652356125,33.62691627936283],[130.2975812837493,33.620064892380924],[130.29506894937253,33.61786889183594],[130.2953452274004,33.61459099967493],[130.2978309211602,33.60865010791622],[130.30115783356723,33.60702283773384],[130.3076752402202,33.60848563090718],[130.30882335881097,33.61161500003226],[130.31174824908248,33.6127340543332],[130.31391333273416,33.615958640079214],[130.3136288331042,33.62294310783818],[130.30758630356513,33.629887919092255],[130.30778705562818,33.635006360155444],[130.30178291814718,33.638345918829145]]],[[[130.23179072566154,33.63947225224268],[130.2303708301498,33.63953094559673],[130.2303715046413,33.63945686484249],[130.23179072566154,33.63947225224268]]],[[[130.2047860046705,33.65188466724368],[130.20529944201564,33.652560387252095],[130.20666272430537,33.65329153157899],[130.20661022008562,33.6533589726385],[130.2050088845524,33.65247758577203],[130.2047860046705,33.65188466724368]]],[[[130.20742224404137,33.66660258604054],[130.20727661502383,33.666567305636704],[130.2072482486078,33.66640889185692],[130.20738180332762,33.6663566673264],[130.20742224404137,33.66660258604054]]],[[[130.2379794939585,33.68067753184266],[130.23794144004546,33.68073853195773],[130.23669158205098,33.68014133265643],[130.23673221791762,33.680082613222055],[130.2379794939585,33.68067753184266]]],[[[130.23530302161726,33.68026472143981],[130.23615105083036,33.68068753230381],[130.23610574568363,33.68075100015858],[130.23530302161726,33.68026472143981]]],[[[130.2387824122785,33.680739198355354],[130.2391294417704,33.68204202731778],[130.2390500262378,33.682057413818654],[130.2387824122785,33.680739198355354]]],[[[130.23500374792468,33.69348555861171],[130.23493510986748,33.6933424953599],[130.23521228272068,33.69327405425423],[130.2352244748297,33.69339638723352],[130.23500374792468,33.69348555861171]]],[[[130.23584425430897,33.69360391928552],[130.23566158221627,33.69339063966635],[130.23594099887805,33.693362775072046],[130.23584425430897,33.69360391928552]]],[[[130.22470367133747,33.6935738018895],[130.22466525319896,33.69363389189067],[130.22450155590218,33.69354638695626],[130.22460683503743,33.69347446817221],[130.22470367133747,33.6935738018895]]],[[[130.2282631133521,33.694692224866344],[130.22805783410183,33.69458472080828],[130.2280918545555,33.694481252008245],[130.22832128419998,33.694472774998644],[130.2282631133521,33.694692224866344]]],[[[130.22899133578153,33.69449633273962],[130.2251105839863,33.69354419800641],[130.22417066114713,33.69133369409474],[130.2272361091592,33.686631306389756],[130.23279786023318,33.68270102713075],[130.23736878144416,33.684254080761264],[130.23766625199596,33.689785747714154],[130.23491255487056,33.693027134594615],[130.22899133578153,33.69449633273962]]],[[[130.22007958490497,33.69576435973744],[130.2199864978786,33.695643387432426],[130.2200731133836,33.695586251704185],[130.22017158195297,33.69571797270635],[130.22007958490497,33.69576435973744]]],[[[130.21930878137528,33.69701563956016],[130.2185359139014,33.69607108071585],[130.21987977982803,33.69544580188233],[130.21930878137528,33.69701563956016]]],[[[130.23133066128105,33.698450495294196],[130.23133961133408,33.69822064027039],[130.23165608276213,33.698285279042466],[130.23133066128105,33.698450495294196]]],[[[130.23043438433945,33.69867900043556],[130.23016566781143,33.69863205402612],[130.23040508442716,33.69819138712285],[130.23073428036287,33.69839810798635],[130.23043438433945,33.69867900043556]]],[[[130.23246688723714,33.69877602739183],[130.232390726351,33.69855925210783],[130.23268325602749,33.698584891779376],[130.23246688723714,33.69877602739183]]],[[[130.23242372157756,33.69909197271642],[130.2321869777469,33.698992225310974],[130.23234311264457,33.69893719759364],[130.23251997421755,33.6990163873964],[130.23242372157756,33.69909197271642]]],[[[130.22976172472386,33.69936672099743],[130.2299614398686,33.698828892239646],[130.2303361091242,33.69886113473365],[130.23001858638872,33.699266532024865],[130.22976172472386,33.69936672099743]]],[[[130.0363025806996,33.87411538711547],[130.03299564223516,33.86649005437255],[130.03703085618918,33.8625085317434],[130.03873124485108,33.864792000350576],[130.03860992181046,33.86879599973565],[130.0363025806996,33.87411538711547]]],[[[130.35000000039975,33.596131667342604],[130.35114827457323,33.59615138677714],[130.35114795081734,33.596196467992684],[130.35000000039975,33.596131667342604]]],[[[130.35434477269314,33.03895805437077],[130.35434228336976,33.03977222500822],[130.35363144033875,33.0393574945528],[130.35434477269314,33.03895805437077]]],[[[130.40514929980043,33.053612775109514],[130.40367936421137,33.05354849516698],[130.40394542234344,33.05274094623775],[130.40516547320806,33.052892305735384],[130.40514929980043,33.053612775109514]]],[[[131.03078880735768,33.70944425225048],[131.03105791239284,33.70955094601942],[131.0307803627236,33.709636946388],[131.03078880735768,33.70944425225048]]],[[[131.0306449158303,33.70986066713613],[131.0307909207644,33.70994197304367],[131.0306950584303,33.71008525213273],[131.03058335903484,33.709961305769696],[131.0306449158303,33.70986066713613]]],[[[131.02536783435812,33.72029510783301],[131.02535822330344,33.720615720639046],[131.02520639435966,33.720583387313525],[131.02536783435812,33.72029510783301]]],[[[131.02892813162805,33.7305675860253],[131.02813613467492,33.730516730262934],[131.02774625158827,33.72985038658612],[131.02774538284325,33.72849997269566],[131.02683124536577,33.72850486500755],[131.02652099904492,33.72773130595505],[131.02797666688969,33.727592586428784],[131.028033112838,33.73028349468757],[131.02892813162805,33.7305675860253]]],[[[131.0132443058801,33.75242280157107],[131.01115841832643,33.751828468409144],[131.0111867442729,33.751760774640104],[131.0132443058801,33.75242280157107]]],[[[131.12408638118166,33.629623216238485],[131.12473754879886,33.63165385574092],[131.1246668611867,33.631669973390615],[131.12408638118166,33.629623216238485]]],[[[131.12506972778579,33.63341737770986],[131.12452267198375,33.63304309876003],[131.12456337170227,33.633011144049135],[131.12506972778579,33.63341737770986]]],[[[131.12756185529543,33.63411858630377],[131.12753601777308,33.63407317143975],[131.1292230739857,33.63326225185148],[131.1292498701854,33.633306404966675],[131.12756185529543,33.63411858630377]]],[[[130.48370062258573,33.85453372065473],[130.48357160764363,33.85454412581083],[130.4830352267943,33.85447497334138],[130.48303933939405,33.854441837820616],[130.48370062258573,33.85453372065473]]],[[[130.48042866415165,33.85593938709309],[130.48030438414003,33.856095387092466],[130.48024683472374,33.85599994564103],[130.4802883006646,33.85591382925986],[130.48042866415165,33.85593938709309]]],[[[130.4699383269923,33.86505010757645],[130.47036333310143,33.860003026818276],[130.473610025982,33.85905164032101],[130.4727154730407,33.86418944108988],[130.4699383269923,33.86505010757645]]],[[[130.52608494216645,33.876416594850014],[130.52588382587794,33.87644711694094],[130.5260235022829,33.877038919410666],[130.5266701301225,33.877750891990104],[130.52687232200014,33.878091855554715],[130.52745058427706,33.8801563509349],[130.52737557722116,33.88026124336176],[130.5267795461392,33.87813587377161],[130.5265701686784,33.87778738737808],[130.5259170036669,33.87708536939431],[130.5257469913306,33.87637594639284],[130.52608494216645,33.876416594850014]]],[[[130.42023778244777,33.88798082865236],[130.42026861210684,33.888088332710424],[130.42014277626822,33.88813333298697],[130.42012610913264,33.88802027921258],[130.42023778244777,33.88798082865236]]],[[[130.41866666683325,33.88930944117783],[130.41873499372502,33.88937889222217],[130.4186891696695,33.88946694574298],[130.4185549944175,33.88938861299414],[130.41866666683325,33.88930944117783]]],[[[130.41806916985638,33.889951108357025],[130.41801749661022,33.890033053682544],[130.41786999970077,33.88999138719282],[130.4178925034363,33.88991638733148],[130.41806916985638,33.889951108357025]]],[[[130.5254975616632,33.88998619810462],[130.5254200778744,33.89007586500924],[130.52528946843427,33.88996358555107],[130.52532153016455,33.889866278905686],[130.5254975616632,33.88998619810462]]],[[[130.43849880707432,33.895633613200744],[130.43848130986464,33.89572122515449],[130.43664814529575,33.895541108035786],[130.43664814529575,33.89546319796824],[130.43849880707432,33.895633613200744]]],[[[130.49623457826328,33.89813294607865],[130.4961011152743,33.898121225214425],[130.49591766526805,33.89802605355959],[130.4959852529172,33.89796963998697],[130.49623457826328,33.89813294607865]]],[[[130.4398806100022,33.901277306002896],[130.43987671863567,33.90185182889883],[130.43978719832057,33.901848585943526],[130.43978330695415,33.901277306002896],[130.4398806100022,33.901277306002896]]],[[[130.49486066059103,33.90157855910326],[130.49485494180215,33.901853251626335],[130.4947469781905,33.90184558580518],[130.49486066059103,33.90157855910326]]],[[[130.44159869012753,33.90179398180686],[130.4415775362744,33.901884666744024],[130.44048692573108,33.90174108098614],[130.44050203614017,33.90165039604898],[130.44159869012753,33.90179398180686]]],[[[130.43985727619236,33.902101747797474],[130.4398183265546,33.90268602743828],[130.43973269760602,33.9026827745904],[130.43975994796324,33.902101747797474],[130.43985727619236,33.902101747797474]]],[[[130.49410011742657,33.90301113505586],[130.49409430600747,33.90305206320221],[130.49312334576587,33.902956288102246],[130.49312915718497,33.902915359955955],[130.49410011742657,33.90301113505586]]],[[[130.44346747144675,33.9035508649805],[130.44221599197454,33.90240864864029],[130.4423086383331,33.90232467624287],[130.44346747144675,33.9035508649805]]],[[[130.4990356678618,33.90927605434649],[130.49920060982038,33.909323080795616],[130.49920988272993,33.9094370806568],[130.49906953273285,33.90949294564297],[130.4990356678618,33.90927605434649]]],[[[130.4982854471158,33.91039272094736],[130.49804985711523,33.910366360019566],[130.4980428657857,33.91013838727679],[130.49826505768635,33.910255972735],[130.4982854471158,33.91039272094736]]],[[[130.48560111489962,33.911869108272754],[130.48563444917056,33.911429532247155],[130.48600988284988,33.911611973214065],[130.48560111489962,33.911869108272754]]],[[[130.4113530606952,33.911882494681436],[130.41153055808888,33.91194861283827],[130.41147416340198,33.91203777522321],[130.41129805366234,33.91196416211642],[130.4113530606952,33.911882494681436]]],[[[130.4487830609895,33.91236194574725],[130.44863306126683,33.91222694581694],[130.44883999976628,33.912207224583824],[130.4487830609895,33.91236194574725]]],[[[130.4850966150168,33.912412305983196],[130.48516172503366,33.91248010767089],[130.48502525291315,33.91255294556203],[130.48500722420408,33.91243753196659],[130.4850966150168,33.912412305983196]]],[[[130.49705455312517,33.91257649520912],[130.4969719198183,33.912395919436165],[130.49714053191008,33.91228002740138],[130.49725518827643,33.91242269405217],[130.49705455312517,33.91257649520912]]],[[[130.48799416320014,33.91269713476498],[130.4882031908246,33.91275380194645],[130.48794805405953,33.9130092516757],[130.4877991047449,33.91290846825126],[130.48799416320014,33.91269713476498]]],[[[130.48495238714304,33.912855107876965],[130.48492846967315,33.91302038708125],[130.48482688675153,33.91297072112195],[130.48495238714304,33.912855107876965]]],[[[130.48774267228657,33.913000279139624],[130.487487886257,33.912923387104684],[130.4875488593924,33.912745585740254],[130.4877423089605,33.91282419817827],[130.48774267228657,33.913000279139624]]],[[[130.4944327757521,33.91290549509256],[130.4945353308409,33.91308236026276],[130.4942144230572,33.91305344076375],[130.4944327757521,33.91290549509256]]],[[[130.44849306110598,33.913194720659874],[130.44862333330025,33.91333110824411],[130.4484944487599,33.913377495275256],[130.44839306099107,33.913253612764095],[130.44849306110598,33.913194720659874]]],[[[130.44780610856515,33.91343389176075],[130.44761027219636,33.91318472109805],[130.44777944186785,33.91314027930048],[130.44804111490555,33.913368054192404],[130.44780610856515,33.91343389176075]]],[[[130.48899988313815,33.91349182878491],[130.48762566779044,33.912093305661585],[130.49091236071695,33.90795299963128],[130.49214413694244,33.90417605388183],[130.4948587549277,33.90472935997201],[130.495719144423,33.89921991886422],[130.50121980455037,33.895295441131736],[130.50563596592713,33.897034720975626],[130.50650616073085,33.90096991862691],[130.50332228279717,33.90247941359411],[130.49899953310205,33.906506414039825],[130.49671438366192,33.9121096940072],[130.48899988313815,33.91349182878491]]],[[[130.49312941618962,33.91356536005338],[130.492966640698,33.91364455884934],[130.49269744483126,33.91352235986909],[130.4929685598512,33.91334072109743],[130.49312941618962,33.91356536005338]]],[[[130.48916238703464,33.91353689201401],[130.48913306104203,33.91366758599037],[130.488942476714,33.91361810798935],[130.48916238703464,33.91353689201401]]],[[[130.49121111460136,33.913395134577854],[130.4911356416966,33.913557305725135],[130.4909286897073,33.91355346831796],[130.49115761303347,33.91337338717216],[130.49121111460136,33.913395134577854]]],[[[130.44728888507404,33.913851667320614],[130.4469969390575,33.91364416224832],[130.44721666681573,33.9135844409692],[130.44728888507404,33.913851667320614]]],[[[130.49195044096018,33.91376605366048],[130.49200713422192,33.91391035977534],[130.49188564210874,33.91391636005204],[130.4918083273925,33.91380677496272],[130.49195044096018,33.91376605366048]]],[[[130.43030055762472,33.91395889168956],[130.43034555070665,33.913798892405],[130.43044972817245,33.91384972118772],[130.43030055762472,33.91395889168956]]],[[[130.43096610899875,33.914447495155855],[130.43110194619794,33.91459777456771],[130.43098138758103,33.914635829380074],[130.43096610899875,33.914447495155855]]],[[[130.43949610935806,33.91476833279239],[130.43013416326107,33.91325972095939],[130.4275677823274,33.909360559142556],[130.41880027191507,33.91239222502122],[130.40781832665448,33.90985527889808],[130.40835306084512,33.90621222511413],[130.40590722413913,33.897558333250515],[130.41183250276788,33.891631666967896],[130.41675277641957,33.89087582905631],[130.42904055797544,33.886668054087465],[130.43176082999832,33.890354440804856],[130.43247861219822,33.89580582887595],[130.437197782152,33.90154416183367],[130.44777166003416,33.91192722516138],[130.44630306083764,33.914592494647934],[130.43949610935806,33.91476833279239]]],[[[130.4419072241392,33.91573305443694],[130.44181693940027,33.91587416166328],[130.44169360637488,33.915859161870856],[130.4416838909989,33.91569389165983],[130.4419072241392,33.91573305443694]]],[[[130.43846444937492,33.91597249533447],[130.43855416304427,33.916165828889916],[130.4382374973627,33.9161038916813],[130.43824722442992,33.91594194626384],[130.43846444937492,33.91597249533447]]],[[[130.4427088852069,33.91580722512339],[130.44275861232018,33.916028053651814],[130.44254917010812,33.916147224614804],[130.4425811149266,33.915863892304856],[130.4427088852069,33.91580722512339]]],[[[130.4443458365912,33.91699138674318],[130.4443722182034,33.91710805399356],[130.44420416279195,33.91709305420113],[130.44420138838348,33.91701777465062],[130.4443458365912,33.91699138674318]]],[[[130.47660403364932,33.91922655905853],[130.47659888503063,33.91937746799579],[130.47643627771208,33.91931638694177],[130.47660403364932,33.91922655905853]]],[[[130.47711189429856,33.918947054263185],[130.4774190793271,33.919203252228385],[130.47703625232123,33.91939610824386],[130.47674213983794,33.91908630618815],[130.47711189429856,33.918947054263185]]],[[[130.11092872877782,34.23104794620582],[130.1108634892587,34.23109464889899],[130.11052553842296,34.23100731483578],[130.1107297276949,34.23091768480339],[130.11092872877782,34.23104794620582]]],[[[130.11410710825646,34.231996053774935],[130.11385130959036,34.23201708082365],[130.11377464328518,34.23169262161724],[130.11414287879086,34.231733108196465],[130.11410710825646,34.231996053774935]]],[[[130.11106620004512,34.232025144145155],[130.11090381306053,34.23189492770882],[130.11121264564713,34.231646972929525],[130.1114017505904,34.23185789182827],[130.11106620004512,34.232025144145155]]],[[[130.11147565507747,34.23256392798294],[130.11148081718602,34.23182059514443],[130.1109885336939,34.23128600034869],[130.11240490296393,34.231671395818296],[130.11147565507747,34.23256392798294]]],[[[130.1144420751417,34.23272454060509],[130.11405359319883,34.23235621606659],[130.1143705583546,34.23221282905888],[130.1144420751417,34.23272454060509]]],[[[130.10469953325696,34.23648460428109],[130.10387018206336,34.23650226966407],[130.10387999996215,34.23641584661408],[130.10469953325696,34.23648460428109]]],[[[130.10092724959293,34.247046909687185],[130.10073230894898,34.24698969391932],[130.10095922229038,34.24688841406913],[130.10092724959293,34.247046909687185]]],[[[130.1121587549227,34.24983712558293],[130.10349824944467,34.24883392824324],[130.0981219709522,34.24185145877783],[130.1022257069509,34.2393605768292],[130.1050071076919,34.239561792942425],[130.1124500003673,34.2462567032843],[130.1121587549227,34.24983712558293]]],[[[130.45510119316555,33.78366736016062],[130.45457800267275,33.784694892255516],[130.45450494174975,33.784670134818896],[130.45502505835987,33.7836361977524],[130.45510119316555,33.78366736016062]]],[[[130.44570627792245,33.792161748266096],[130.44559875497862,33.792310053666085],[130.4455257722966,33.79218791943697],[130.44570627792245,33.792161748266096]]],[[[130.4463214402823,33.796582613097144],[130.44602296968435,33.796441252262014],[130.4464633586971,33.796159494665005],[130.4463214402823,33.796582613097144]]],[[[130.45039447522493,33.80340691879434],[130.45043435835896,33.80365838722486],[130.45015897515668,33.80375625234922],[130.45039447522493,33.80340691879434]]],[[[130.44369702969425,33.81646516213755],[130.44382700421295,33.81612566716586],[130.44435325599807,33.816144359574594],[130.44369702969425,33.81646516213755]]],[[[130.44991455291438,33.816546000397636],[130.44971391686386,33.81670622541202],[130.449660998956,33.81657064002309],[130.44991455291438,33.816546000397636]]],[[[130.4443270560489,33.816737892339916],[130.44404949378918,33.81641466700336],[130.4445568867909,33.8162439190217],[130.44456418928598,33.816582054218486],[130.4443270560489,33.816737892339916]]],[[[130.44881085633597,33.817447828854256],[130.44889496812834,33.817485801828354],[130.4486935020036,33.817625918901115],[130.44867202259582,33.817501494998055],[130.44881085633597,33.817447828854256]]],[[[130.44244461672577,33.81845077528311],[130.44210936385616,33.818126198265475],[130.44238357973848,33.81781674784469],[130.44276616122943,33.8181368291514],[130.44244461672577,33.81845077528311]]],[[[130.063796031062,33.49963958559846],[130.06375105057054,33.499757892312914],[130.0636209726298,33.49965610794305],[130.06377236090577,33.49954861287824],[130.06392985737705,33.4994944143358],[130.06400131031228,33.49954510822022],[130.063796031062,33.49963958559846]]],[[[130.06405372190181,33.49956586457307],[130.06413189367197,33.49964246792558],[130.06389688733157,33.499877108242],[130.06381121881282,33.49979719808226],[130.06405372190181,33.49956586457307]]],[[[130.06871194569976,33.50171172071941],[130.06836513564258,33.50170505404503],[130.06827588782198,33.50146519766082],[130.06871194569976,33.50171172071941]]],[[[130.0673047207364,33.506373333162855],[130.06752000044776,33.50654833313911],[130.06721778237477,33.50670082937984],[130.06713250326243,33.506486666626415],[130.0673047207364,33.506373333162855]]],[[[130.08385693904654,33.507977774954384],[130.08381306112392,33.50812333292555],[130.08369194582667,33.50805861321447],[130.08385693904654,33.507977774954384]]],[[[130.0831911151779,33.508204162192385],[130.08320861238758,33.50802777456221],[130.08337027182063,33.50812777467712],[130.0831911151779,33.508204162192385]]],[[[130.070364967969,33.50996086460225],[130.06977236060607,33.509486667375825],[130.0696036963535,33.50843127878056],[130.07026469535947,33.508710973332825],[130.070560830418,33.50938033333574],[130.070364967969,33.50996086460225]]],[[[130.09816444863043,33.51289138732773],[130.09812389100478,33.513069999880656],[130.09800499433504,33.513000558728834],[130.09816444863043,33.51289138732773]]],[[[130.1467169393353,33.53765249496672],[130.14648083042607,33.537339440962455],[130.1471291696755,33.537393892214425],[130.1467169393353,33.53765249496672]]],[[[130.11560697777986,33.5464051081093],[130.11502671900791,33.54615797261238],[130.11514596641325,33.545984999708025],[130.11545839179144,33.54609758583496],[130.11560697777986,33.5464051081093]]],[[[130.09813888540134,33.563811667074845],[130.0977936059902,33.563811667074845],[130.0980180542898,33.563648054314285],[130.09813888540134,33.563811667074845]]],[[[130.05138077780077,33.56536710840538],[130.0521575231512,33.56601835965961],[130.05210688682348,33.566049999607856],[130.05177741929253,33.56578327867544],[130.05138077780077,33.56536710840538]]],[[[130.12866824914045,33.567100333113956],[130.1289486379693,33.56736682921587],[130.12880070039205,33.5673510272282],[130.12863138772843,33.56719022484907],[130.12866824914045,33.567100333113956]]],[[[130.08840916964755,33.567531108374],[130.0884707264429,33.567682467871634],[130.08830111520433,33.56769389195961],[130.0882347209557,33.567575559164766],[130.08840916964755,33.567531108374]]],[[[130.0921569386918,33.571305559404095],[130.09225250335044,33.571351108267095],[130.09216472142487,33.571462224901836],[130.09204778167987,33.5713544411546],[130.0921569386918,33.571305559404095]]],[[[130.1238186900805,33.57174894585722],[130.1208836707449,33.572037414195336],[130.1208778080645,33.57199877482367],[130.1238186900805,33.57174894585722]]],[[[130.05092036268468,33.57569164025705],[130.05082391669043,33.57578377490137],[130.05070557670103,33.575542666660795],[130.0509887813073,33.57556205424544],[130.05092036268468,33.57569164025705]]],[[[130.04788194559535,33.575699946395446],[130.04798347635642,33.57588891913838],[130.04784111457582,33.57599527925879],[130.0478172762464,33.57581991865436],[130.04788194559535,33.575699946395446]]],[[[130.04760105134756,33.575775531715465],[130.04418581112634,33.572424306136895],[130.0448775876306,33.56875305411023],[130.0502303110801,33.5656525855984],[130.05406202284416,33.57097608108131],[130.05296313943745,33.57462035974186],[130.04898642008732,33.57578238724744],[130.04821027188655,33.575795081178114],[130.0479089108676,33.57562649516666],[130.04760105134756,33.575775531715465]]],[[[130.04812988328752,33.57606466735058],[130.04809846996852,33.57578602680377],[130.0482708304345,33.57589182934453],[130.04812988328752,33.57606466735058]]],[[[130.09755722368698,33.58611805360533],[130.09753861221725,33.58628722507541],[130.09743444914056,33.58623777495342],[130.09755722368698,33.58611805360533]]],[[[130.1058690269341,33.58887122462738],[130.10581302165372,33.58909027879338],[130.10667197133444,33.58964294636496],[130.1064559137095,33.58984677500871],[130.10584457796494,33.589413999656415],[130.1056864717533,33.58912810787592],[130.1058690269341,33.58887122462738]]],[[[130.15775063608305,33.607963613130266],[130.1577441366826,33.60774580182732],[130.15805194584073,33.60768597262961],[130.15799622564532,33.60798646760145],[130.15775063608305,33.607963613130266]]],[[[130.14517258124965,33.60868997306386],[130.14486655005135,33.60867919828644],[130.14498085568198,33.608562495063154],[130.14517258124965,33.60868997306386]]],[[[130.14482250305616,33.608732081120706],[130.1444979512196,33.60877446796735],[130.14442619970941,33.60854289164121],[130.14482250305616,33.608732081120706]]],[[[130.14549739299036,33.60874244131065],[130.14462433204733,33.6083389730652],[130.1448321662715,33.60820055930844],[130.1455824769498,33.60851733290866],[130.14549739299036,33.60874244131065]]],[[[130.14520669343426,33.60891508056659],[130.14497632939413,33.60890105384061],[130.14507005224118,33.60877086528325],[130.14520669343426,33.60891508056659]]],[[[130.14591863813473,33.60896841396118],[130.14558416317868,33.60893725155296],[130.1456671733015,33.60883586468344],[130.14591863813473,33.60896841396118]]],[[[130.14542027162827,33.60915241435248],[130.14537228290465,33.60930989193804],[130.14507855982777,33.60910135983994],[130.14538542199966,33.609071828801916],[130.14542027162827,33.60915241435248]]],[[[130.14558605715092,33.60950972129666],[130.14552722440192,33.60965005420667],[130.1453758370253,33.60956182891533],[130.145390362875,33.60945572060507],[130.14558605715092,33.60950972129666]]],[[[130.15732985678756,33.614274306114396],[130.1582320485702,33.6137999461107],[130.15827143977515,33.61385982926777],[130.15732985678756,33.614274306114396]]],[[[130.15443069971707,33.620705197986524],[130.15432347624744,33.6206941983786],[130.1543007000173,33.62056427871852],[130.15438708169847,33.620548278879994],[130.15443069971707,33.620705197986524]]],[[[130.15805341083626,33.62906646844283],[130.1579774190227,33.62892149503102],[130.1581752788661,33.6289371980933],[130.15805341083626,33.62906646844283]]],[[[130.15865066139895,33.62939610774424],[130.15878814525672,33.62944680162866],[130.15875099875961,33.62959722493201],[130.15863788563001,33.62955533271247],[130.15865066139895,33.62939610774424]]],[[[130.16956250270744,33.63048722460576],[130.16952138840145,33.630586107762724],[130.16934722389533,33.630582225389446],[130.1694438911228,33.63046694579299],[130.16956250270744,33.63048722460576]]],[[[130.16170016892772,33.6303095320593],[130.1617448904144,33.63034463979335],[130.1616716082582,33.63055294616157],[130.1615765885888,33.63042805371174],[130.16170016892772,33.6303095320593]]],[[[130.19643255471874,33.640414053765596],[130.1961700516067,33.640461386883544],[130.19611591421813,33.640369801725],[130.19633211393602,33.6403510814373],[130.19643255471874,33.640414053765596]]],[[[130.1965700781467,33.64061266724087],[130.19649855956095,33.64041025233132],[130.19668221820984,33.64049213470429],[130.1965700781467,33.64061266724087]]],[[[130.1212231126566,33.6562950810532],[130.12111717341884,33.6564716944132],[130.1209701954183,33.65630769404487],[130.1212231126566,33.6562950810532]]],[[[130.12151275011342,33.65649872083935],[130.1214479116918,33.65655999974422],[130.12132469467895,33.65649691859795],[130.12143924762324,33.65639058635651],[130.12151275011342,33.65649872083935]]],[[[130.12116258108836,33.65689344137928],[130.12108477264417,33.657052026929534],[130.1209701954183,33.6569384947158],[130.12116258108836,33.65689344137928]]],[[[129.98152345034703,33.68949277467186],[129.98138557708273,33.68937682867778],[129.9814992738725,33.68929138678811],[129.9816206355839,33.68934294582033],[129.98152345034703,33.68949277467186]]],[[[129.98266975410593,33.69015644106696],[129.98230944162754,33.68919963975162],[129.98353972767632,33.68949035999219],[129.98266975410593,33.69015644106696]]],[[[130.42483438379986,33.71884566689408],[130.4257244230438,33.71897866673214],[130.4257105060351,33.719043441301835],[130.42483438379986,33.71884566689408]]],[[[130.3663014787303,33.75598661339154],[130.36622217921024,33.75605499963859],[130.36583717314704,33.755743486173],[130.36591657608915,33.75567509902663],[130.3663014787303,33.75598661339154]]],[[[130.36666666733288,33.756270297336414],[130.36630456520356,33.756109882565056],[130.36638386472362,33.75604149541874],[130.36666666733288,33.756270297336414]]],[[[130.36722144021735,33.756711919319685],[130.36714213979792,33.7567803963982],[130.36675713373484,33.75646880199366],[130.36683653667694,33.75640041394797],[130.36722144021735,33.756711919319685]]],[[[130.36768889792438,33.757087045430865],[130.36760948059316,33.75715544067111],[130.36722457795202,33.7568439370981],[130.36730387837133,33.75677554095847],[130.36768889792438,33.757087045430865]]],[[[130.3681716728845,33.75744800901845],[130.3680922699424,33.75751639616482],[130.3677073538114,33.75720490068568],[130.36778665423083,33.75713650544543],[130.3681716728845,33.75744800901845]]],[[[130.36863531836536,33.75782880175785],[130.36855601794593,33.757897188904224],[130.3681709858024,33.75758568533115],[130.36825040223437,33.75751729728552],[130.36863531836536,33.75782880175785]]],[[[130.36912236060857,33.75819753189063],[130.3690429567671,33.7582659280302],[130.36865804243473,33.75795442265854],[130.36873734105552,33.75788603641149],[130.36912236060857,33.75819753189063]]],[[[130.38461783414584,33.75889518006858],[130.38457789885103,33.75862323407506],[130.38487345024964,33.758790242675616],[130.38461783414584,33.75889518006858]]],[[[130.37879747132627,33.75945874832263],[130.37888418935393,33.75963286516463],[130.37880871644916,33.759647721065505],[130.37871939038757,33.75952327917605],[130.37879747132627,33.75945874832263]]],[[[130.36354922231885,33.76706174820117],[130.35934994774198,33.76209310811049],[130.35949321693852,33.758984387419616],[130.36279747092658,33.755029532387084],[130.36748321667721,33.76079694582245],[130.37619046711643,33.75983849515046],[130.3766705836806,33.76227358585737],[130.37261182907275,33.76474577539727],[130.36354922231885,33.76706174820117]]],[[[130.65905408637707,33.90122010822148],[130.65776871595358,33.90107482904017],[130.65139900136285,33.89946666675331],[130.64915316488668,33.898691828864855],[130.65834236111118,33.90098994562953],[130.65905408637707,33.90122010822148]]],[[[130.65741505755898,33.91022974760483],[130.65774330740783,33.90969344139927],[130.65799620036444,33.90996730564672],[130.65741505755898,33.91022974760483]]],[[[130.6576188331427,33.91038741404799],[130.6581682226854,33.91179033305747],[130.65789919589122,33.91180191902339],[130.65758389088387,33.910898252352524],[130.6576188331427,33.91038741404799]]],[[[130.66000555111532,33.91095591868077],[130.66161933866158,33.91176299996255],[130.66151525292662,33.91195797298212],[130.65985866394624,33.911251279423084],[130.66000555111532,33.91095591868077]]],[[[130.6623630222357,33.91253544115773],[130.66231294438694,33.912689774713385],[130.66206394279675,33.91290977496618],[130.66203508355238,33.912730972656334],[130.6623630222357,33.91253544115773]]],[[[130.6618272763078,33.912839730369285],[130.66173090765528,33.91303934209202],[130.66162858639018,33.91292587373016],[130.6618272763078,33.912839730369285]]],[[[130.66122555071865,33.91320777521872],[130.66114472055244,33.9133597210743],[130.66105666703163,33.91330333268269],[130.66122555071865,33.91320777521872]]],[[[130.66010102494238,33.91541282923873],[130.65972121875927,33.91473713531059],[130.66030730244017,33.91428333290952],[130.66095678292925,33.91454044098862],[130.66010102494238,33.91541282923873]]],[[[130.65948907855818,33.91551669374047],[130.65939347612812,33.915745667428666],[130.65927627827773,33.91561153174683],[130.65948907855818,33.91551669374047]]],[[[130.66067189389287,33.91555174841449],[130.6606171080931,33.91569200038555],[130.66038503174389,33.915704000039625],[130.66047455295836,33.91555277544029],[130.66067189389287,33.91555174841449]]],[[[130.6638319460875,33.91644222472894],[130.66377778171932,33.916594441280495],[130.6636427763931,33.91656055932242],[130.66374416326255,33.91640833287829],[130.6638319460875,33.91644222472894]]],[[[130.66336785993883,33.91655519756438],[130.66338474740826,33.91668291928136],[130.66314708177242,33.9167487478565],[130.6632525551613,33.91657972117724],[130.66336785993883,33.91655519756438]]],[[[130.66362250297618,33.91685916212066],[130.66361583720118,33.91702277488122],[130.66343333328177,33.917005828955894],[130.66350111518443,33.91687610804598],[130.66362250297618,33.91685916212066]]],[[[130.6597197276833,33.91691527891703],[130.65955082960716,33.917259161681045],[130.6592063937601,33.91732666659243],[130.65945610941196,33.91702249519204],[130.6597197276833,33.91691527891703]]],[[[130.6632577820211,33.91725361286399],[130.66324444867246,33.917456667191516],[130.66302138802666,33.91776666709808],[130.66287972771727,33.91767082904556],[130.6632577820211,33.91725361286399]]],[[[130.54318511020472,33.889193414244744],[130.54299966280428,33.889116999749774],[130.54304219174378,33.88898769432666],[130.543196082833,33.8890615592436],[130.54318511020472,33.889193414244744]]],[[[130.55538780780114,33.89114094559824],[130.55522311315622,33.89112430634174],[130.55526094673542,33.890875053840716],[130.55543641975498,33.89077308061326],[130.5554809991488,33.89086916238199],[130.55533403373875,33.890961054209356],[130.55538780780114,33.89114094559824]]],[[[131.00903988268453,33.78596797344329],[131.0087801171088,33.786682775289876],[131.00871644600727,33.78666663965373],[131.0089762259721,33.78595182881389],[131.00903988268453,33.78596797344329]]],[[[131.01769647161495,33.783333333066935],[131.01770802880253,33.78761935984562],[131.01762555107837,33.78762127899887],[131.01759063579925,33.78495802669164],[131.01769647161495,33.783333333066935]]],[[[131.0176926980596,33.7909580272912],[131.0176176910037,33.790885107561735],[131.0176187162308,33.787866197666915],[131.01770350161542,33.78786425243334],[131.0176926980596,33.7909580272912]]],[[[130.98958352775765,33.79259186522245],[130.9890856675696,33.793463441384745],[130.98827474708196,33.79355797272234],[130.98827033680664,33.79352244140762],[130.9890615045848,33.79343233293588],[130.98954939039209,33.79257689240973],[130.98958352775765,33.79259186522245]]],[[[131.0130548897714,33.796500639892656],[131.011947612992,33.7936216941859],[131.01053891134177,33.79338882913123],[131.00692075169138,33.790901612819255],[131.00747058370052,33.789996946102235],[131.01055674399856,33.791591640142144],[131.01086211419533,33.7922002518402],[131.01327408603026,33.7934873057946],[131.01205608292196,33.793868279297726],[131.0130548897714,33.796500639892656]]],[[[131.02326185505058,33.79821122506803],[131.02051513576498,33.794964532187464],[131.0205834761466,33.79491663969122],[131.02326185505058,33.79821122506803]]],[[[131.0029149680514,33.80039930618307],[131.005188948811,33.80027335972784],[131.00698455319468,33.80018210821777],[131.00698564227366,33.80019564031659],[131.00330452738206,33.80038522459847],[131.0029149680514,33.80039930618307]]],[[[131.0035125810408,33.80135333308988],[131.00350977965263,33.80134430569518],[131.00501574568023,33.80111910826031],[131.00501661532462,33.801128414444804],[131.0035125810408,33.80135333308988]]],[[[130.99594250264443,33.81859499955965],[130.9953688853658,33.81851055861546],[130.99497111522487,33.81820638721507],[130.995733332927,33.81829082905858],[130.99594250264443,33.81859499955965]]],[[[131.07124800309293,33.660734080713326],[131.0711688591556,33.660875305750835],[131.0709906099288,33.660644721376855],[131.07124800309293,33.660734080713326]]],[[[130.21901813218108,33.67521482040769],[130.21916339787253,33.67537836931632],[130.2190063681494,33.67542116175724],[130.21901813218108,33.67521482040769]]],[[[130.21806850835503,33.67577427876],[130.21792977983557,33.67500157676142],[130.21870444865147,33.67539843229184],[130.21806850835503,33.67577427876]]],[[[130.21785810566712,33.6762379817975],[130.21767356658188,33.67615263973261],[130.21788530476306,33.676086892096464],[130.21785810566712,33.6762379817975]]],[[[130.21740692568915,33.67634164035445],[130.21718498110204,33.67624219781925],[130.21714914401787,33.67597123388538],[130.2173188074171,33.67587898232921],[130.21750927393396,33.67614437766093],[130.21740692568915,33.67634164035445]]],[[[130.21896879357507,33.676620243129776],[130.21878390375423,33.6765960090986],[130.2190897802692,33.67645930585235],[130.21896879357507,33.676620243129776]]],[[[130.21937894917926,33.677928405071896],[130.21927767832221,33.67665944098047],[130.22076313890784,33.67640486539227],[130.22037188075774,33.677529559341735],[130.21937894917926,33.677928405071896]]],[[[131.00833333301694,33.82747097270726],[131.00914367074392,33.827918135413654],[131.00865136207074,33.82813358599623],[131.00801369597536,33.82773102696535],[131.00833333301694,33.82747097270726]]]]}},{"type":"Feature","id":"JP-40-capital","properties":{"Kind":"capital","PrefectureCode":"40","PrefectureName":"Fukuoka","CapitalName":"Fukuoka","CapitalNameJapanese":"福岡市","PointKind":"prefecture-representative-point"},"geometry":{"type":"Point","coordinates":[130.417969,33.606388]}}]}
