{"type":"FeatureCollection","bbox":[136.27656622625045,35.133729080632634,137.65305683540464,36.46481602683821],"displayBbox":[136.27656622625045,35.133729080632634,137.65305683540464,36.46481602683821],"DataVersion":"2019-boundaries-v1","Attribution":{"BoundarySource":"MLIT National Land Numerical Information, via Fabio Crisci / piuccio","BoundarySourceURL":"https://github.com/piuccio/open-data-jp-prefectures-geojson/tree/513fb852832c99470e16b95a30ddd68bf3469dc0","BoundaryDate":"2019-01-01","CapitalSource":"Geospatial Information Authority of Japan (GSI), prefecture representative points","CapitalSourceURL":"https://maps.gsi.go.jp/","CapitalSourceRetrieved":"2026-10-04","Notice":"Simplified and enriched by Ashiato Kai. Modern geographic context, not historical immigration-era boundaries. See GEOLOCATION.md and THIRD_PARTY_NOTICES.md."},"features":[{"type":"Feature","id":"JP-21","bbox":[136.27656622625045,35.133729080632634,137.65305683540464,36.46481602683821],"properties":{"Kind":"prefecture","PrefectureCode":"21","PrefectureName":"Gifu","PrefectureNameJapanese":"岐阜県"},"geometry":{"type":"Polygon","coordinates":[[[136.79228708238304,36.299211026967384],[136.79546069995138,36.292494666895436],[136.80085955862182,36.29034386537711],[136.80267038942702,36.28678913491069],[136.80611511032419,36.28364361306234],[136.80600289201993,36.27580610776573],[136.81100953296368,36.27334308141815],[136.81440230901944,36.27031446783849],[136.81457869035432,36.2664019996526],[136.83354783396544,36.26485563967606],[136.83609949389654,36.26179174839052],[136.83979641976907,36.2609859459447],[136.84402224413134,36.25761955869575],[136.84525194562082,36.253372612855856],[136.8504016731987,36.25192069428465],[136.85172027177316,36.248069026564394],[136.84776444907016,36.24617013504377],[136.843850829752,36.23679763989924],[136.8396833327197,36.232626252399655],[136.83587833981358,36.22650236029574],[136.83229167262266,36.22360735989179],[136.83168082970656,36.21766513533777],[136.82713861215734,36.2153201351162],[136.82099364534054,36.21074183766575],[136.81958447514353,36.206237387145734],[136.82284444921197,36.201963774608544],[136.8186689113412,36.20109350516117],[136.81067919578834,36.19618961266053],[136.8055492218192,36.18903130595004],[136.8028761606064,36.187904081308375],[136.79943644623506,36.181306586429855],[136.800165058071,36.17709689230776],[136.7984072755754,36.172564107747405],[136.79259953294218,36.17054022485155],[136.7864420493612,36.16618969419909],[136.77730708225613,36.16641941432454],[136.77387513622864,36.164243027094074],[136.7684187551215,36.16417997292746],[136.76599204879403,36.1608760813661],[136.773507082386,36.15720610817539],[136.77182788624805,36.15502222509565],[136.77549756176313,36.14772917116437],[136.7758314395693,36.1439138918127],[136.7807347466113,36.1413777478848],[136.7786196625674,36.12958719789094],[136.7724960573472,36.126164693845624],[136.7706590787535,36.123239135377844],[136.76957627792297,36.11777746805575],[136.77054961057615,36.115745802426886],[136.76704927380501,36.11042858601047],[136.76544094694225,36.10599744102916],[136.7561781061347,36.09911191937965],[136.75640588822125,36.09493858574717],[136.7539691958218,36.09019802721724],[136.7542844486684,36.08629022471416],[136.7572535801886,36.081618279060365],[136.7598410888952,36.08059161301259],[136.76169466897386,36.07618189168102],[136.76407408625016,36.07419519755035],[136.76425683478521,36.067682414312],[136.7590187811919,36.06707769398042],[136.75273291759015,36.06237189244894],[136.74443236126456,36.05994219767433],[136.7405106606385,36.05431246774623],[136.73302063629342,36.048717504709145],[136.73539535730993,36.04789246756337],[136.73472700364835,36.04226274842716],[136.73572610907274,36.0323146943677],[136.73319608323277,36.02748219814498],[136.73438939005837,36.02098913524043],[136.73087269821656,36.01757274838366],[136.7323465503531,36.01328246781168],[136.7288854222245,36.00935555921171],[136.72939508421587,36.00145858624484],[136.72707949362382,35.99561555871111],[136.74141447479826,35.99194577527737],[136.74969333318086,35.9909001982856],[136.75153194584266,35.98726686527368],[136.75333547325351,35.97821213478227],[136.75241654958415,35.97312519786965],[136.7534773673866,35.96814408058492],[136.7505076387166,35.96703464003667],[136.74884593978834,35.96360186483423],[136.7499070300854,35.959404639812306],[136.75286535715054,35.95645991859044],[136.7578625552128,35.95571380235015],[136.76658422807975,35.95283599968167],[136.77210002559582,35.95022599983008],[136.77664919580377,35.95119180156047],[136.7848641888313,35.94864872116159],[136.78906000011898,35.9486584410343],[136.79345610931205,35.94558955941068],[136.79338552512195,35.94092344136379],[136.78685658916038,35.933646559041506],[136.78386321731364,35.92777572087289],[136.7865034757549,35.92229710762547],[136.79247875489068,35.92078655865282],[136.7994676392202,35.920318225006156],[136.80582785966806,35.912875747817566],[136.8114884183559,35.91264464003814],[136.81370258070956,35.9109226937274],[136.81653308713237,35.905043559312844],[136.82376858625128,35.89276638705917],[136.82287855959794,35.886405278980476],[136.82021963662703,35.879396414413065],[136.82600571998807,35.874581721169534],[136.82575457801147,35.8700817213944],[136.83014844429533,35.865572865095714],[136.83236286565375,35.85744344076221],[136.8310731128339,35.85181372072668],[136.8251161349018,35.845406505306016],[136.81544975390307,35.84253619758749],[136.80577141371987,35.84291533287637],[136.8022908953086,35.844026440767664],[136.79991697828598,35.8372025586512],[136.79942167307183,35.831342559111874],[136.7970896887382,35.828095332933344],[136.79843577239308,35.82121505433133],[136.79587408592045,35.80905813492507],[136.7927907261112,35.806947864952065],[136.7894326719803,35.79961480198159],[136.78339985691798,35.79810866688155],[136.7760212837553,35.798833107661835],[136.77414182928203,35.80004725177929],[136.77438547271151,35.80667336038732],[136.77157797724192,35.806795838157484],[136.76390963712015,35.810607198263654],[136.75446603078274,35.809242441085814],[136.7525635275848,35.807491613047546],[136.74515907912826,35.804294360396455],[136.74109655006578,35.80106877460429],[136.73238380027226,35.80657625159279],[136.72451769113854,35.80814758574252],[136.72058406010638,35.80021791882194],[136.7166796111752,35.79645655922286],[136.7119857202648,35.794721559252594],[136.71004791238136,35.79204325229432],[136.7051243058421,35.79142574809987],[136.7000429177465,35.794173837952314],[136.69712070026014,35.79406272131757],[136.69445875466783,35.7911577483315],[136.6897787546858,35.78928274820032],[136.68140958458469,35.78983500028511],[136.67759097324483,35.792088613198985],[136.6720495846207,35.79130835959319],[136.66613542161247,35.785136440993995],[136.6576654222215,35.78348258595264],[136.65432625205494,35.785882586012576],[136.65266929974848,35.79106313515564],[136.6525109992832,35.7987253598875],[136.64519518800762,35.80683174808678],[136.6407965885918,35.80348761276315],[136.63818377386212,35.797490667160616],[136.63242739330963,35.79572066737495],[136.62611099862374,35.795417918702015],[136.62774766492282,35.791074305634766],[136.62302486440603,35.78776735997576],[136.6114512839497,35.78879627882526],[136.6094807263545,35.792334891641985],[136.60681489029503,35.79220766725007],[136.59914963664653,35.79852991922047],[136.59543491588875,35.79537269359497],[136.59001491595563,35.795658532315485],[136.58609408587347,35.791523532285225],[136.5848201692155,35.788032441444045],[136.58599627830563,35.78442994618513],[136.58013516180836,35.7815591078666],[136.5770673926461,35.781519386610455],[136.57232377372327,35.77804410764952],[136.56864795134197,35.77766997259124],[136.5658348899683,35.779658027396124],[136.56159102520576,35.77868774794126],[136.55581769063394,35.78097774832446],[136.5506815823892,35.781080801637756],[136.5452810248994,35.778711080851735],[136.53064661534904,35.78414997284301],[136.52523608257923,35.787966639848605],[136.520129143845,35.783203305987854],[136.51846272437524,35.779433892060524],[136.51330688680343,35.77533027926904],[136.5119638392598,35.77191083831457],[136.51389522688328,35.766638332593004],[136.51370883339598,35.76224833339393],[136.51191518773578,35.758574171161115],[136.50815105103027,35.757007775188754],[136.50814603101458,35.75352833326605],[136.50615658855577,35.75033138728372],[136.5033621395512,35.75087333313786],[136.50059577187744,35.75413722465322],[136.49707466886093,35.76076250498568],[136.4965146951971,35.76553305410721],[136.4859321919172,35.773114440579036],[136.4845791699928,35.775142505322435],[136.47459333271615,35.772751386967],[136.46757666742928,35.773216386826846],[136.4615805842766,35.77871386515278],[136.45893224362817,35.779067197992845],[136.45153724974432,35.77664830587469],[136.44580474709142,35.77290830607353],[136.44120697841936,35.77517830643376],[136.43851252863033,35.77442469434425],[136.43072752305682,35.77502913498665],[136.42397422782847,35.778591918882],[136.41896394283174,35.782303305852906],[136.41466450086614,35.78260080158577],[136.40885143964226,35.780302747773646],[136.40166005226968,35.78607553196031],[136.40013644604016,35.78936691934791],[136.3960997796812,35.788042198188975],[136.38950061026503,35.788042198188975],[136.38895644578338,35.7917908018041],[136.3766584182515,35.79517802724422],[136.36406588793045,35.78817550469586],[136.35708869029088,35.78683161268884],[136.35601674427744,35.784422170646735],[136.34841228300047,35.780024386915954],[136.3467656162403,35.77624436008921],[136.33281228306043,35.77638772101659],[136.32794783392546,35.77510186495914],[136.32165671918233,35.76529991925594],[136.32202839189688,35.760993774643055],[136.32016588784552,35.75852822479777],[136.31982977972064,35.75314680218321],[136.31840199715452,35.75097541428397],[136.32004924757473,35.74729319772297],[136.32502535743436,35.74466041444663],[136.32404092085187,35.74046150499453],[136.32696007794527,35.73151702688932],[136.323606200266,35.72497477466618],[136.320524254191,35.72293338736597],[136.3235134109152,35.71803117120163],[136.32269286588314,35.71563197333694],[136.3130945266911,35.71289280206122],[136.31038258059164,35.710527252330905],[136.31084788622104,35.705665000239605],[136.30632730186358,35.70104750493846],[136.30474007759256,35.70153305430705],[136.29762063598366,35.69177577523192],[136.29177367121804,35.690392197941605],[136.2919181059359,35.68407077514621],[136.29435005171354,35.68106938674288],[136.298932308879,35.678810225011944],[136.2960053312811,35.67567717136444],[136.28916500596029,35.671725532307505],[136.29042302170512,35.66582527911339],[136.284449947707,35.66339113539266],[136.28074211395744,35.65863086462275],[136.2771487549112,35.65556977472539],[136.27656622625045,35.651475918678784],[136.2816134500008,35.64754950470592],[136.2831031391986,35.64373644128381],[136.27916418867642,35.63668564043002],[136.28253724979436,35.63446425202369],[136.28375863795088,35.63128119786904],[136.2874066928647,35.62794786520186],[136.2885594159843,35.62058817060762],[136.29450888457745,35.61794730602338],[136.29816583738352,35.61747702714314],[136.30649255498747,35.62226450510286],[136.31556119259506,35.62339561301718],[136.32367591391233,35.616516440581336],[136.32054364537305,35.610718945722795],[136.31504360577787,35.605691197690646],[136.31906111477872,35.60380310792715],[136.32169221812148,35.598256198364936],[136.32268413706333,35.59318202732874],[136.32234856043783,35.58768619835939],[136.32422383935875,35.58512230584978],[136.32210352755578,35.58123313460152],[136.32318710809864,35.574555639631114],[136.32275044137987,35.57000705398241],[136.3189151098445,35.56559122535481],[136.31626258105337,35.555939306353935],[136.3175033846735,35.54739736030001],[136.32210024592962,35.54434719806477],[136.32546722403322,35.54567508124006],[136.3254613622521,35.54878805392559],[136.32975121924346,35.550956000119356],[136.33732014291036,35.55025453162136],[136.3400270815846,35.54382563984143],[136.34092788571343,35.53728341369862],[136.34605596571032,35.53623144072844],[136.35666214004584,35.53991446757868],[136.3591263292168,35.54878446832862],[136.36108302196396,35.55063250498614],[136.36251610873148,35.55848138670666],[136.36562360634446,35.55991805367529],[136.37356418923605,35.55939417070448],[136.37577111474525,35.55123636016992],[136.38026808020777,35.54606858589659],[136.38099583678854,35.537659108181344],[136.3842527756451,35.53309133279885],[136.40040450066726,35.53008183790655],[136.40176450133072,35.52581377508568],[136.39927169932957,35.521120171059124],[136.40250447520145,35.51897180220698],[136.40564197060053,35.513387640027645],[136.40229000038323,35.51325238738781],[136.39722024591765,35.50966186480326],[136.39232963730296,35.50396189242747],[136.38783374832883,35.49683274803294],[136.38688011712372,35.488406387344924],[136.39284566829303,35.48546333256678],[136.39800535676181,35.480928612665366],[136.40195561625876,35.47347253233153],[136.40176724965886,35.46994061316883],[136.4119122435552,35.468087837983376],[136.41407557712625,35.466626999936125],[136.42036391656154,35.466234775014925],[136.42146605731273,35.455638720750414],[136.4245968869368,35.45332817085847],[136.4261690529595,35.448160973050506],[136.42220542234247,35.4425579457926],[136.4231190274212,35.439734359653016],[136.41949094734946,35.43541741418238],[136.41572900139238,35.43342241391332],[136.41633369564363,35.43018438690001],[136.41888674412803,35.427775505135514],[136.41183949379763,35.42240608127571],[136.41180807957926,35.418598054056986],[136.42030610903976,35.41290805426337],[136.42433691271845,35.40488197282485],[136.427965226614,35.40078450510089],[136.43690046688312,35.395279531825],[136.44088933877208,35.39386174792139],[136.44414294384183,35.388655387336314],[136.44156236081437,35.384389278742276],[136.4368934503725,35.3791323600704],[136.42608483774518,35.37331846787305],[136.42117316520944,35.37271625215334],[136.41557455272346,35.373560387302064],[136.41191177680707,35.36989597282093],[136.41352817058862,35.36443069382153],[136.41352841790228,35.359972919015036],[136.40961591374344,35.356663504717005],[136.41097588832667,35.35221710813306],[136.4161648119566,35.35474989219381],[136.42142311288637,35.35391683759201],[136.42232505825484,35.34838961329007],[136.41918977968464,35.34455072133875],[136.4187316992086,35.34064436044895],[136.41534641990143,35.336532973018336],[136.41117391724254,35.32794213532134],[136.41351917017357,35.32402102734858],[136.4121319461325,35.3221810270328],[136.41226416266102,35.315562693963216],[136.40678167333567,35.30999825211768],[136.40684778159994,35.30526438724172],[136.40324055770566,35.30344161343976],[136.40312027158336,35.300592170892],[136.39938055776656,35.29943272084347],[136.39614778189468,35.29426077461511],[136.39114968900697,35.29019689207297],[136.39573525297965,35.28094522534195],[136.39585024569237,35.27476355899108],[136.39446302165118,35.27103910756881],[136.39483747057284,35.26709133289876],[136.39354136224415,35.26191299968525],[136.3969399740007,35.257909946386974],[136.39395691288132,35.25351577523287],[136.38915442343796,35.24976664011842],[136.37912635489738,35.247388026836006],[136.37974330690815,35.24093746769006],[136.38373691282834,35.23953135968458],[136.38568552516688,35.23511469378815],[136.39138108906604,35.23437941437851],[136.39380771715253,35.230651360272134],[136.39869938966513,35.22796941375748],[136.399134383645,35.22605941381096],[136.4082705063788,35.223677748229534],[136.41216966279978,35.21839858572622],[136.415130506168,35.2177435860977],[136.41718243801915,35.22029772096312],[136.4245352267194,35.2242113330866],[136.43090133592796,35.22940438730268],[136.4333363286088,35.22816966669683],[136.432792996,35.22385550462786],[136.43453939038068,35.22044827916483],[136.44072189400026,35.21674272070004],[136.45059549858343,35.22412661335255],[136.45375880722327,35.22956022542411],[136.46007046697855,35.233581026842955],[136.46177102471313,35.23627019761159],[136.46582269805913,35.23747658597574],[136.46902046692105,35.233372694394404],[136.4742204666013,35.23735102712823],[136.48033630437703,35.23492658619307],[136.48315936441315,35.2372454683038],[136.4828121397685,35.23976130643922],[136.49038992175758,35.23692210806888],[136.49435377360783,35.237922108318685],[136.50073516229793,35.2351168377719],[136.5059848899907,35.235060720975525],[136.51081961113618,35.2388276401835],[136.51169182941442,35.24552708130983],[136.5136421135927,35.25042208131407],[136.51742654979546,35.254550134980775],[136.52016238728436,35.253961532298945],[136.52804878062682,35.257648467602735],[136.53354433170557,35.25541927937627],[136.5367687546743,35.248705387044026],[136.54139263336344,35.245749278606354],[136.53978014263953,35.24100177461224],[136.54101236133147,35.23722650519909],[136.54406236078944,35.23513622535654],[136.54976652400592,35.23407008086957],[136.55028208824785,35.23190646760946],[136.54696374817854,35.22243538698359],[136.54965569425497,35.219205667008],[136.5568264979446,35.22068591872022],[136.56140260734446,35.20886091929606],[136.5617453830431,35.205525919285776],[136.56597817085594,35.20498453191067],[136.57450011688695,35.201696748106485],[136.5773431652549,35.19680564036804],[136.58160732771603,35.19713230561149],[136.58518927436558,35.194459532181725],[136.58469596564635,35.18859789227895],[136.59174403435975,35.18566510775855],[136.59353097287612,35.181737612800646],[136.59678457794598,35.17965983803117],[136.5970212453343,35.17730566742267],[136.60230124510645,35.17803927858989],[136.6061262524247,35.17206874787445],[136.60478099884403,35.16850458621775],[136.60859016910103,35.16288986507527],[136.6125082229762,35.15942041372119],[136.6132635024088,35.153473224909476],[136.61555211423877,35.14992850479672],[136.62135155612953,35.148439892087424],[136.6242674190063,35.146528224797805],[136.6304901690861,35.15022127908878],[136.63505936359877,35.14817238694616],[136.63992547288228,35.14757599973268],[136.64443075167787,35.14441297258065],[136.64601852093801,35.14765961330056],[136.6461890791627,35.15656961319712],[136.64468044124942,35.162772667224885],[136.6462840601613,35.16580850505852],[136.65564241166805,35.16105266704699],[136.66149435777845,35.14920463958248],[136.66766379964474,35.14115297333109],[136.66962994786388,35.133729080632634],[136.67277771711804,35.13477713525663],[136.67122630385086,35.13983825173398],[136.67177797677232,35.145490747999645],[136.67433992224971,35.152501027200685],[136.67390158189255,35.160179640278216],[136.6711240860078,35.17340905428449],[136.67231739283352,35.18877738706681],[136.68313269821556,35.19983017102561],[136.68205518809657,35.20551377484088],[136.68207297039135,35.21232350522564],[136.68095936418342,35.2237832252157],[136.67873297015046,35.23227627872734],[136.67792686103587,35.241506531701134],[136.67960130965275,35.245029892015964],[136.68658769116905,35.2508332252732],[136.6906440859559,35.253214891753885],[136.69601994806226,35.258640441403315],[136.70171577186545,35.27014461308346],[136.70620355435062,35.27803741409542],[136.71038330734382,35.282699360187394],[136.71938358028808,35.28875158621679],[136.72573330744626,35.29561436041445],[136.7282974706518,35.29968574779906],[136.73652083007232,35.315952414272545],[136.75010033666126,35.33653908121369],[136.75911175130636,35.35719491861067],[136.7618745270878,35.36111544112475],[136.7681153832184,35.366901838349236],[136.77567345026955,35.36960155906473],[136.79445566799473,35.36833461305201],[136.79288678269893,35.363457693917496],[136.8042320486702,35.36014158596549],[136.81713066055158,35.35932130623337],[136.8342501172492,35.35599991926091],[136.84434180293192,35.36100241433002],[136.8612623871495,35.36837710781731],[136.8649318288409,35.37260541430845],[136.8711285210644,35.37291653207234],[136.87805046705546,35.374470693667604],[136.8861782753072,35.37752650544394],[136.89489747144125,35.37813927920445],[136.90852693896716,35.37756594611159],[136.92207418867292,35.379178414352396],[136.926146445702,35.38104422521087],[136.9351201167001,35.38824613465147],[136.9503496634063,35.39492802730666],[136.95670466868557,35.39645383777446],[136.96171302193852,35.399771333380386],[136.96309224381207,35.40655269375185],[136.96112147937288,35.41489264038307],[136.96437260681046,35.42093902711446],[136.96865649769927,35.42205097317395],[136.97441622642782,35.42161738663316],[136.98572452666565,35.4245193603802],[136.99133341120807,35.42462355942979],[136.98525144010193,35.417477972730296],[136.98459474704998,35.411889386785845],[136.9785766925604,35.406420225413115],[136.97826472133988,35.40317605423155],[136.9815735798569,35.401577198129246],[136.98731275008345,35.40198386526322],[136.98983358035548,35.39885333331472],[136.98934089486647,35.39634277509907],[136.9914919463963,35.39306802696791],[136.99547408596038,35.39305808136544],[136.9992451879151,35.390048359844],[136.99959321655376,35.38516561310263],[137.0021237478128,35.38148061313984],[137.01417236096574,35.38177091879294],[137.01611955867077,35.37766619803665],[137.02299538293062,35.375034279008844],[137.02828147920695,35.375324278892435],[137.02989953313704,35.37072374840233],[137.03398172497668,35.36804597294332],[137.0407539428403,35.366909333299134],[137.0450900519644,35.36741322524023],[137.04984975436275,35.35960046838699],[137.04664247696883,35.348514360049705],[137.04627632878965,35.33961772138076],[137.04989855967085,35.334369386737876],[137.0574041117104,35.33847300042868],[137.06175744465042,35.33903133282979],[137.06375466894292,35.33618550465735],[137.06821771737384,35.33568191938514],[137.07297880742613,35.326456919351415],[137.06407822343135,35.32066330596683],[137.06352211415435,35.31819691885278],[137.0671704406634,35.31150108130993],[137.06676958494847,35.3089716400292],[137.07216403424286,35.3066527750056],[137.07978374802167,35.30677889233209],[137.08143985676406,35.30009361283004],[137.07978399533522,35.29619999983021],[137.08131066105818,35.29219083833658],[137.09208732796787,35.29276861318101],[137.096033449684,35.290554171138126],[137.09893150508492,35.29252750494044],[137.09776678321055,35.29715555918176],[137.10102708193438,35.30161610839673],[137.11894569418848,35.29790141371933],[137.12252542221051,35.29578197335945],[137.13159428015194,35.29362780208146],[137.1383256678953,35.28787558628932],[137.14582983138166,35.27979946837081],[137.14935844373724,35.28159364013442],[137.15254983101,35.279313640212365],[137.1589317772798,35.28219474788938],[137.16545538295964,35.2822572516709],[137.17304678338246,35.27514419794642],[137.1736459396085,35.2721664140488],[137.1766412189172,35.27011641394142],[137.17555204908786,35.266405305760316],[137.17636897524812,35.26039641356368],[137.18375341109106,35.255598918955],[137.18447230934964,35.25409641441803],[137.19706871574874,35.253337532301316],[137.1999575881722,35.25146364013494],[137.20548177726232,35.25487502676111],[137.21127594013262,35.259690864841616],[137.2213612190451,35.259938639756456],[137.22457455337303,35.256492532104744],[137.23011791241174,35.261034747855376],[137.2335270822091,35.261123081065364],[137.2344420884317,35.26386253203026],[137.23767652355275,35.265232532255595],[137.2424254223954,35.26463169429729],[137.24359070005085,35.268537252092585],[137.24994319082566,35.26854694588491],[137.25376155575123,35.272758333430374],[137.25740988315965,35.272559720854474],[137.26087739287743,35.275407505052385],[137.25945211402393,35.27871222488932],[137.2626637738142,35.285201945913116],[137.26797130992804,35.28683302742235],[137.27172603073177,35.28612525197883],[137.27425713395962,35.28882636034831],[137.2829151878857,35.287704667436515],[137.28714852068777,35.28873158619382],[137.29271130957932,35.28856769374414],[137.29523213985146,35.290051864701866],[137.29843380007992,35.28874850513944],[137.303794383604,35.29058655932232],[137.30808105070003,35.28966291870876],[137.31475549876734,35.286439306029195],[137.32129243779582,35.28426153204413],[137.3256546686281,35.28045374764241],[137.34462994831358,35.273717613277256],[137.3464066147735,35.27123289168463],[137.3399501947457,35.26454510757071],[137.34409907940903,35.25785789182828],[137.35050241155716,35.25717622460314],[137.36196910489036,35.26097369378101],[137.3687554987673,35.2604045317438],[137.37309744539084,35.26333230614108],[137.37580411157057,35.25968841418904],[137.37927827537214,35.25874758573252],[137.38286608290343,35.260195918706756],[137.38512024620252,35.258703946130254],[137.38678411159754,35.2518120267037],[137.38318577210578,35.24672146822121],[137.38819355428916,35.2401198022871],[137.3949135539175,35.239847027118685],[137.40100438424497,35.241588135284246],[137.4037574446504,35.23837953228963],[137.40641299606295,35.238168413741334],[137.40892771724043,35.23490674804805],[137.41680688722818,35.24040174784244],[137.42055744507013,35.233878694346345],[137.42344077766984,35.23121480172176],[137.42491522695627,35.22688094629871],[137.43031296956792,35.222960386912405],[137.43471355378756,35.22413844123611],[137.43785632910635,35.22932510756772],[137.44122688741095,35.230099000268694],[137.44205050632593,35.23370313499174],[137.45045022010163,35.235092333044804],[137.4533655253988,35.2405075863561],[137.45785275030426,35.23954953228514],[137.462144694622,35.241123441193906],[137.46610080420885,35.24664425243037],[137.4694716341087,35.245475080710435],[137.47657944208765,35.25340563975851],[137.4815933333657,35.25441286516167],[137.4842997279502,35.25742869397908],[137.49219221779663,35.25949702676644],[137.496554448629,35.259018973247066],[137.49723503217103,35.26419425236293],[137.5048022444281,35.26294483773415],[137.5061141889188,35.266489801563125],[137.50917752262467,35.266452306129054],[137.51412669329227,35.26995953170706],[137.51318364530903,35.2722023059917],[137.5162117246914,35.275010919318504],[137.52075116693288,35.27355730642461],[137.51873616124487,35.28164980189689],[137.52136588772555,35.28425869378373],[137.52931394308405,35.284178171185715],[137.53175616091812,35.28210177507691],[137.53952282661726,35.281807613130866],[137.54342922168132,35.2805534410885],[137.5483259142096,35.281827053775544],[137.55199202301355,35.284227332625335],[137.55801313879533,35.284013721156384],[137.56081868993067,35.285662891629215],[137.56198425357047,35.289317053839],[137.55759119307913,35.294715107616184],[137.5592487155559,35.30127344061685],[137.55877983062476,35.30551233302782],[137.5565367829463,35.30918538729583],[137.56011538321843,35.30959899989398],[137.57146625196606,35.31834872081686],[137.5742365235967,35.31674261258155],[137.57923263258,35.31898094601388],[137.58353180295046,35.319247612987],[137.58337958460027,35.32171872064248],[137.58757902735033,35.32370510810432],[137.59105819677848,35.32795872061854],[137.59054847003597,35.330486505348006],[137.60154819669197,35.331038440871396],[137.6039146169661,35.33323427863911],[137.60393294425,35.33721372113638],[137.60043600511756,35.34211927918142],[137.5998446433157,35.35176594614154],[137.60256992186441,35.354495386752774],[137.6012688070099,35.36157400004009],[137.59803688729255,35.36566566713691],[137.5983871984106,35.379181775118866],[137.59335719757667,35.383327333189925],[137.58774496755632,35.38660899980556],[137.5864910886928,35.38943427936857],[137.5816077555935,35.390846775258524],[137.57794968942665,35.39012900025324],[137.5761991437755,35.39348789165291],[137.57539444929444,35.40014038726912],[137.58136610865904,35.39802538686217],[137.5906735801217,35.39361122467835],[137.60522416296476,35.39399122511497],[137.61843055792394,35.39173844137605],[137.63368922198003,35.39903510788395],[137.63482202331784,35.4029612250805],[137.63101924813986,35.40690233307629],[137.63204591418764,35.41070369362063],[137.62575147914754,35.410776748248395],[137.62197367094825,35.41189591856187],[137.62052369581193,35.41725174826962],[137.6156845266197,35.42333869442524],[137.61763341055348,35.4264453601653],[137.61530481216744,35.43083925163023],[137.6064217505634,35.43868953179651],[137.60160092124556,35.43928397287709],[137.59314897484535,35.44691758567808],[137.59763344962403,35.45117897283137],[137.60067788587583,35.45234758607228],[137.60720596568285,35.45792397271322],[137.61043124480614,35.45888286495233],[137.6132771080521,35.46293425231397],[137.61694238678183,35.46467646844434],[137.61830491633884,35.46779036023696],[137.62312214027463,35.466913414222745],[137.6284218936555,35.467312305818325],[137.6317502197969,35.470043973150894],[137.63237997365695,35.47415674823537],[137.62959133607137,35.47738341411332],[137.6297771980593,35.4835917480608],[137.62711274965375,35.48449230577535],[137.6244296888791,35.493826747906155],[137.62454635523022,35.50060619811762],[137.6275558366326,35.50281646820548],[137.6315772244094,35.508903667070626],[137.62616583728368,35.512163972989015],[137.6256005576197,35.51500008128875],[137.61942749688149,35.52141313510816],[137.61884167310484,35.52532619774587],[137.61042581110235,35.53030119784205],[137.6072560831018,35.53354341389746],[137.60249827467567,35.53070202657733],[137.5970466150094,35.53454730641312],[137.5902843580368,35.535267864820185],[137.58792936364932,35.5380481351134],[137.580932412401,35.53893146811282],[137.57916741914119,35.542450919074724],[137.5745084947713,35.54452925232317],[137.5747951878477,35.54931813502395],[137.57080683486765,35.55407453241378],[137.5726113101639,35.557970640132964],[137.57111574569512,35.562629252438114],[137.56459988317818,35.56642758586446],[137.5642790527362,35.569008134717706],[137.56709241178544,35.570956468266445],[137.56929269759996,35.57491758617772],[137.56820380026522,35.577093693719064],[137.57043269801068,35.579897305916006],[137.56810019476825,35.58591841360396],[137.56544130956888,35.585044251890736],[137.55396933901386,35.58628980213274],[137.55070182862653,35.58770230611657],[137.54615238682322,35.58724064004355],[137.5383037479197,35.58479730615079],[137.5354393001836,35.58738313492381],[137.53165680921438,35.588085919129924],[137.53259097279522,35.59144869380225],[137.52727406034967,35.59595508056259],[137.52008849518802,35.600107864686265],[137.51994683487862,35.60261117076897],[137.51380878115037,35.60802283758392],[137.51702435838752,35.618478666857015],[137.52265241197927,35.61940255928073],[137.52471883280793,35.6273914411621],[137.52769133588652,35.628705332685],[137.5262191052276,35.63210477541509],[137.52814994786183,35.635977559217054],[137.53309272434979,35.637962279335795],[137.53818302202887,35.638330054388575],[137.54093496817427,35.642533386706475],[137.53956442295987,35.64643810813226],[137.54544749730417,35.651082279123955],[137.53595722424654,35.66115144128605],[137.53537391677287,35.66580505425992],[137.52778807955633,35.67070336017201],[137.52447085644496,35.67149835996139],[137.51924530522672,35.67743446822618],[137.51470252919842,35.677334747800444],[137.50942533081445,35.68237919804159],[137.50199311309177,35.68482530634287],[137.49719644585934,35.688481946184936],[137.49867564176748,35.696221946085984],[137.49733619960602,35.6984230538809],[137.49183341078333,35.700424999614086],[137.49083341143285,35.70370917084159],[137.4860420493012,35.705499441346205],[137.48587732767658,35.71028666659646],[137.4875598567021,35.716681919235214],[137.48521236086185,35.72470413538758],[137.4788662516762,35.726756640106885],[137.4782626330142,35.73022886497017],[137.47083766472656,35.735787748106134],[137.46984350197613,35.73889383828009],[137.46553988265953,35.7437655053738],[137.4680935282937,35.74702494614439],[137.46569158210093,35.74920105368574],[137.464752140399,35.75637161275978],[137.45957269832138,35.761403558827226],[137.45335713382474,35.76220380166416],[137.4499415824381,35.75929241381391],[137.44017933910527,35.75855325203099],[137.43367518755997,35.767775748352165],[137.43445185466942,35.77090710767692],[137.42775933922223,35.771185440655586],[137.42397267180138,35.774358505140924],[137.41904961115074,35.77354544066958],[137.41733961143393,35.77557099990179],[137.41109182872503,35.77727013490886],[137.3999479119666,35.775396251735685],[137.39326152989577,35.777727081339776],[137.3910951359319,35.780428467599734],[137.39642124484465,35.78515541399122],[137.39637625176272,35.790841532310935],[137.39179263302367,35.798582613197084],[137.3858220879191,35.79877122531184],[137.38122070037514,35.801291224610395],[137.3733167828433,35.80044150467177],[137.3689653834457,35.79848372104692],[137.3626467827229,35.79798038668554],[137.36028594004415,35.79596844139053],[137.3537167441325,35.80134063965886],[137.35110508413243,35.80153341383601],[137.34386703003952,35.79856646766842],[137.33627869000964,35.79882536000241],[137.3347748122079,35.80341646829544],[137.33181869028044,35.80710869431084],[137.33232119276886,35.809334802359274],[137.32602897455763,35.81212813530527],[137.32499286562836,35.8166700812593],[137.32879869040733,35.82176008126277],[137.32730785996978,35.82561313483836],[137.33032841832187,35.829155639920884],[137.330328144928,35.83320117089738],[137.33214394268884,35.84068005444101],[137.33604561631216,35.844217559292986],[137.3413406095815,35.84398561334541],[137.34832422838053,35.8424300542037],[137.35677674405156,35.84273227857187],[137.36112703008848,35.8462078381213],[137.36758533059856,35.860667000381795],[137.3663161605624,35.865272532001825],[137.36806199736338,35.87043558573373],[137.36716505762138,35.87679808056703],[137.36437002585603,35.878872532341575],[137.37350557662114,35.884080586350024],[137.374130856354,35.886731134834065],[137.37810477341668,35.8887349997205],[137.38081616103705,35.89242222460604],[137.38540477281208,35.893802774778294],[137.39780591391184,35.8956764142352],[137.40767788622554,35.899662802196644],[137.41443985721367,35.90139030631764],[137.41940182883138,35.90447169391359],[137.42435238715302,35.90318946841927],[137.43489910461005,35.905488918878575],[137.43761413718278,35.905050865405144],[137.43881053228029,35.90013474841993],[137.44142357993428,35.899440026636],[137.44867999998212,35.8928853331916],[137.45864810622516,35.88931450486058],[137.4619747731174,35.889492585914184],[137.46514727642568,35.89264535989548],[137.47544455342347,35.89364313522259],[137.4792576393287,35.89642341360968],[137.48193208819532,35.90052786456937],[137.48109763874504,35.905754774663194],[137.48445627833462,35.90863117079198],[137.4832598832371,35.91331533283642],[137.48421461701105,35.91610255938565],[137.48932824939925,35.91982199978554],[137.49242299642424,35.92532974836922],[137.49774968899703,35.92881946774429],[137.50187722375495,35.937611973014214],[137.5055722439639,35.940620585671525],[137.51359255535226,35.940961414337835],[137.51888425440484,35.93973391888528],[137.5245190007513,35.94246364008495],[137.52425817127767,35.94496113474861],[137.52738680925393,35.95194225163368],[137.52916763867563,35.953557505074855],[137.53255739300937,35.96161722475517],[137.53985852105393,35.96561138735569],[137.54426577194783,35.97237580180189],[137.54495274966973,35.97822191940611],[137.54345802876503,35.98287080194598],[137.5501613882376,35.9868905322723],[137.56223252940777,35.99008469395352],[137.56911394295412,35.9956935856905],[137.5747045011119,35.995688892128726],[137.5808167442974,36.001364721304924],[137.59029594040544,36.00654110838548],[137.59396428042726,36.01185305387537],[137.5958365241363,36.019210531640795],[137.5982712452219,36.02224858630325],[137.6002235016134,36.0285713598804],[137.5982588066986,36.03751691897071],[137.59832464336762,36.043189107691205],[137.60148438439694,36.046929387181535],[137.6054232809597,36.04868580180835],[137.6069713622386,36.05583105396005],[137.61372333276563,36.05961689220584],[137.61459972839486,36.06312910812187],[137.610909442217,36.067571332750845],[137.61165586332754,36.073436613109266],[137.61395005185352,36.07638717093124],[137.6082253310343,36.077931865363325],[137.6028905841332,36.07622825173246],[137.59681444872786,36.075841027041804],[137.59279031082428,36.080944640083146],[137.59036975406093,36.08115322524122],[137.58256722429803,36.08542877491806],[137.57771944229853,36.08531850544472],[137.57234861189897,36.08859208085988],[137.56754391731795,36.097023198062175],[137.56296252889763,36.098416505117655],[137.56174503210764,36.1020598376914],[137.5577541889047,36.103399558642764],[137.5508575228564,36.10987508117012],[137.55018002578765,36.112598134796144],[137.5520392221324,36.11671258621692],[137.55689202324834,36.11783313519106],[137.55691625188354,36.12146674789216],[137.5604668868374,36.13047119818731],[137.55776345012316,36.13207225223272],[137.55471228334522,36.13766022483958],[137.55468949362535,36.140010639879165],[137.55823616077032,36.14157841361293],[137.5597489751351,36.14449397341821],[137.5655001171367,36.14591758582799],[137.56804399523423,36.14817230580729],[137.56789294420412,36.1533761977534],[137.57774328062794,36.15952427892239],[137.58314438400623,36.16017483769866],[137.59122247683592,36.16411705365914],[137.59202972808953,36.16952650544391],[137.59506364497133,36.17204817118619],[137.59115674358895,36.178353170562445],[137.59112236070848,36.18626702740147],[137.59517461681514,36.190349532205175],[137.58978269821307,36.191728972614044],[137.58104272414243,36.19530980230559],[137.57868997356354,36.197392305710366],[137.57783138810817,36.20176758570557],[137.5751183664196,36.20388535962172],[137.57352147893312,36.21104008073519],[137.57605428008105,36.21432841402515],[137.57298041531396,36.21841091882891],[137.58302538301507,36.220396468122544],[137.5845365237417,36.2229253599175],[137.5836693389689,36.22720977511108],[137.5896792995601,36.22860341401639],[137.59134294372188,36.23435450475665],[137.5956118294224,36.23743061333221],[137.59635021958707,36.2429761712134],[137.6016132806285,36.24721894599759],[137.605923280635,36.24878672063073],[137.60699856043527,36.25311561269541],[137.61262080440667,36.257412279353275],[137.61471944164896,36.26292727917064],[137.62092444900418,36.26667505361087],[137.62635250326548,36.272198972904334],[137.62879780757282,36.278365919151895],[137.64782061013307,36.289051748239615],[137.64685871595702,36.29645233320866],[137.6486687553588,36.30005872073343],[137.65305683540464,36.304674558584054],[137.6489010250623,36.30891319828555],[137.6497369134279,36.31554346805666],[137.6514391699818,36.317085972639575],[137.65067425431346,36.32739794635819],[137.6463656680412,36.3302318378291],[137.6454224123146,36.341715441114786],[137.6354705055594,36.34254986538406],[137.6283399995914,36.34978430600097],[137.62444975365327,36.35475205396415],[137.62264341136438,36.359544279445004],[137.61917345009476,36.3642092787353],[137.612961529651,36.366834801784705],[137.60890208796104,36.366623945838455],[137.599942943712,36.37021502690203],[137.59373128407162,36.36884030613527],[137.5870865496047,36.371964171409445],[137.58611518826535,36.376282748250276],[137.58750383863128,36.38243802669365],[137.58734719831466,36.389800531669266],[137.58083277561218,36.39115827863168],[137.5776552792678,36.392952134733264],[137.57353666668394,36.39253241393982],[137.57131416311825,36.3891060266219],[137.56825583683747,36.3894318653883],[137.55950525256537,36.38745155914222],[137.5486838911487,36.3903248652004],[137.54090250264846,36.39144177461827],[137.53938194602006,36.39430455860855],[137.53276197078833,36.398891467966905],[137.53000808030868,36.40328505366233],[137.52516364468647,36.40367005432961],[137.5202639169463,36.4060672790817],[137.51592224371666,36.411117531748744],[137.51272282729667,36.41638305423464],[137.51172116689838,36.423449171442144],[137.50423866358358,36.42570997263721],[137.49695756164226,36.42609274838168],[137.49144863764457,36.42356999985566],[137.48301693858093,36.423665279429144],[137.47398608329115,36.42535469366425],[137.4729760825802,36.422284440574515],[137.4683102199408,36.416875279270755],[137.46082905301841,36.41223610761034],[137.45752433228222,36.41287472069183],[137.45258321684207,36.41602472116398],[137.4422009467164,36.41425305403527],[137.4360103626882,36.42039330570657],[137.43178786042154,36.42135080219782],[137.42710089519028,36.42036135998882],[137.42603839205822,36.42235358584935],[137.42070280159305,36.42276608059018],[137.41719586289878,36.42564302710406],[137.41016027227886,36.42463080236968],[137.40376191967687,36.42725827874659],[137.4002663547086,36.432313278934714],[137.39522163377148,36.43639746816865],[137.39472367106066,36.44819163973244],[137.3961833849553,36.45028358601871],[137.39487452693788,36.45557441362831],[137.3900703890373,36.459866919123044],[137.3890689750532,36.45725774844641],[137.38573007828052,36.45571941401977],[137.37968949397498,36.45492972112976],[137.3780172495965,36.4527197208385],[137.37346447490563,36.453586386702455],[137.36653527858027,36.45089027856358],[137.36149778189713,36.45005138736167],[137.35772771686072,36.443211667284686],[137.3591935281588,36.4380597210793],[137.357999921859,36.43630889214171],[137.35127603086414,36.43469280233103],[137.35010683486257,36.43296669395784],[137.33861905332674,36.43389338687035],[137.3331023609852,36.42976089235134],[137.3308956935815,36.43079144077245],[137.32456763918526,36.428443694021325],[137.3195298313367,36.42445786543817],[137.31289593999566,36.42534146823425],[137.30674153029747,36.43220983801365],[137.30514572019888,36.43621233283295],[137.30878824877868,36.439978721440866],[137.31387464340014,36.441667891959696],[137.3120427243923,36.44490483798796],[137.31331274968375,36.4489356668476],[137.3177883013891,36.451182026729214],[137.3166505582767,36.45515094625921],[137.31678252929032,36.460988999642666],[137.31336169888334,36.461152053924195],[137.306610026032,36.46387677489332],[137.30104503200266,36.46154013476945],[137.29832500639395,36.458258198357214],[137.28599503224495,36.46123044063239],[137.28215780763674,36.464529612551644],[137.2777733590533,36.46481602683821],[137.2639422176593,36.45841050484097],[137.26282250325596,36.4554491083897],[137.25637858560333,36.45114133330594],[137.25209416321513,36.458113838283055],[137.24761197091584,36.461963864740596],[137.24242111464275,36.45767386475711],[137.2401005319141,36.45278580212312],[137.2313607520971,36.44426191895246],[137.22217686097338,36.44363080172019],[137.21822683530024,36.43861274837968],[137.21319072627102,36.43797138696999],[137.2125548642157,36.43022858568071],[137.2047595847871,36.432601946023055],[137.20487072570347,36.436773892001554],[137.1997668347717,36.4414663871641],[137.19823019466776,36.4459933333257],[137.19474297001216,36.44664417089183],[137.19385411157805,36.45359058563707],[137.19089442293932,36.455028919049425],[137.18586411183935,36.45321891921782],[137.17593605690354,36.45103253242547],[137.1686463286652,36.455483081179295],[137.16359105058655,36.45450613505017],[137.15969661470706,36.45644419834116],[137.1548635276298,36.449126973331204],[137.14226627766664,36.443147252443794],[137.14350680879227,36.438640026615985],[137.1369895847016,36.437803387316535],[137.12422561571964,36.422092000045836],[137.12200031076577,36.4171500536321],[137.11712557698388,36.418412558792625],[137.11612891142022,36.41610061315282],[137.11151031085228,36.415382838147536],[137.10807833964373,36.409868108126716],[137.10914778194467,36.40734255911184],[137.10451802888394,36.40463533265455],[137.101925771757,36.39919310777577],[137.09617661455923,36.399397558750366],[137.0918938388296,36.396372278957585],[137.09481046702945,36.392824504747125],[137.09562769086529,36.38900422516491],[137.0948826717979,36.38396672128721],[137.08996739298084,36.38273561325798],[137.07872600500116,36.384311441319994],[137.07123569377234,36.37988258601257],[137.07015513585088,36.377738134607284],[137.06555344973196,36.37516702683689],[137.06078955919088,36.374312865146635],[137.05809092125912,36.370996748201435],[137.058404527447,36.36843925167017],[137.06199841799264,36.36575008090159],[137.0569822442352,36.35768730622425],[137.0545469781606,36.35233589218774],[137.0501583396357,36.34954674828384],[137.04898250304018,36.345685640380054],[137.05873552472474,36.342500333423686],[137.05253328098615,36.33853977489076],[137.05227824944177,36.32950561279387],[137.04543988284433,36.32471699988969],[137.04387405974012,36.32188227924382],[137.03757097322193,36.31743866696098],[137.03375457781158,36.31779619783629],[137.0244620881549,36.31667202729227],[137.02144846987107,36.318530080598805],[137.01841124528278,36.315880360390395],[137.01820150539527,36.3114523063789],[137.02125121886877,36.30917646761992],[137.0166009207959,36.30502008081214],[137.01080949366326,36.29802869366932],[137.0108253046442,36.29501508078141],[137.00793752309824,36.29216758616525],[137.00783888455692,36.289670918877846],[137.00255749713085,36.28689594559148],[136.99628500644792,36.287681774993985],[136.99014778189473,36.28711733259888],[136.98561500632752,36.28472122480474],[136.98621608260623,36.282332054380845],[136.9802327500414,36.27927455907371],[136.9761813617805,36.275882360382695],[136.96872163379646,36.2754434678418],[136.96672163419612,36.27744930584083],[136.95824108935483,36.27767930565551],[136.9573741366072,36.27998458641957],[136.9616058371397,36.28471402663109],[136.96050722442897,36.2877787479909],[136.9654947466853,36.292180972573874],[136.96572642013825,36.29535708126434],[136.96882508371073,36.30492069403488],[136.97219871589812,36.310653468282965],[136.97111708238754,36.31554319826006],[136.9637948643416,36.31924153157149],[136.96027544665458,36.32547513466977],[136.9614343319289,36.32755819835222],[136.9548968865821,36.33935044087019],[136.95106744470684,36.339243505183674],[136.9467627498011,36.34580405411384],[136.93964389095288,36.34920822457997],[136.93235138830596,36.34848127918775],[136.92864888483825,36.35172544137606],[136.92280780793408,36.354963505261594],[136.91307557677646,36.35757210756674],[136.90747422765355,36.36084155869105],[136.90312335885596,36.35567402723461],[136.89892333334524,36.35336597296134],[136.89009053215239,36.34555846814885],[136.88697525270584,36.34541122484819],[136.8827710894143,36.34203538662382],[136.87654024633537,36.34685789227797],[136.87574111506046,36.35010566704295],[136.86986221806694,36.349291467627154],[136.87060555090557,36.35332369403329],[136.87600780811397,36.35564789203664],[136.87604724968094,36.360728171268136],[136.87338727630186,36.36098289164721],[136.87304450060333,36.36691205444782],[136.86883839207815,36.363880081001014],[136.86694002576166,36.35849953162813],[136.8642294682154,36.355463414105316],[136.86608055807142,36.35136341389051],[136.86510027186011,36.34966035963794],[136.855186667231,36.349556999655874],[136.85165274977464,36.347570333404235],[136.847495550879,36.35042005384247],[136.84396500588036,36.35109113514784],[136.83734525278123,36.347310027335936],[136.83733413716072,36.34394308070864],[136.83921077765535,36.338391413732836],[136.84248713377428,36.333257532209416],[136.83828933858217,36.32315974822387],[136.83251875503663,36.31541805400002],[136.83039625158585,36.30773777537809],[136.82656817128418,36.30258305386491],[136.81698705590793,36.303433585891355],[136.80915038877947,36.30270772058486],[136.80417680871278,36.3061910538741],[136.79540124487164,36.3026632518077],[136.79228708238304,36.299211026967384]]]}},{"type":"Feature","id":"JP-21-capital","properties":{"Kind":"capital","PrefectureCode":"21","PrefectureName":"Gifu","CapitalName":"Gifu","CapitalNameJapanese":"岐阜市","PointKind":"prefecture-representative-point"},"geometry":{"type":"Point","coordinates":[136.723663,35.391174]}}]}
