{"type":"FeatureCollection","bbox":[138.39713202292455,35.98533300001799,139.66957136182896,37.058626332839026],"displayBbox":[138.39713202292455,35.98533300001799,139.66957136182896,37.058626332839026],"DataVersion":"2019-boundaries-v1","Attribution":{"BoundarySource":"MLIT National Land Numerical Information, via Fabio Crisci / piuccio","BoundarySourceURL":"https://github.com/piuccio/open-data-jp-prefectures-geojson/tree/513fb852832c99470e16b95a30ddd68bf3469dc0","BoundaryDate":"2019-01-01","CapitalSource":"Geospatial Information Authority of Japan (GSI), prefecture representative points","CapitalSourceURL":"https://maps.gsi.go.jp/","CapitalSourceRetrieved":"2026-10-04","Notice":"Simplified and enriched by Ashiato Kai. Modern geographic context, not historical immigration-era boundaries. See GEOLOCATION.md and THIRD_PARTY_NOTICES.md."},"features":[{"type":"Feature","id":"JP-10","bbox":[138.39713202292455,35.98533300001799,139.66957136182896,37.058626332839026],"properties":{"Kind":"prefecture","PrefectureCode":"10","PrefectureName":"Gunma","PrefectureNameJapanese":"群馬県"},"geometry":{"type":"Polygon","coordinates":[[[139.231895966126,36.940527225051426],[139.23779075234143,36.94634527931123],[139.23537797741176,36.951522224870814],[139.2314529699786,36.95539250496017],[139.22871466924664,36.96119774837746],[139.2240821399788,36.96189580214963],[139.2186610248865,36.96070913501865],[139.21453739318622,36.95782135976799],[139.2054481709963,36.955940532029956],[139.2019073278609,36.958403026878216],[139.19842900109757,36.95767274769918],[139.19351927379546,36.961047198269625],[139.18648674356848,36.95991608136211],[139.18310647168641,36.961484694163346],[139.17646177678967,36.969559134846236],[139.17523289188455,36.97360386542613],[139.17718849465336,36.9853593868263],[139.17944661496938,36.99075799998178],[139.17407883327155,36.995763279351934],[139.1709955247237,37.001979108249316],[139.16206577211778,37.00408910842566],[139.14957827541718,37.01022161333685],[139.14533360576138,37.01893825179894],[139.13940389077698,37.02318964028973],[139.1319061088799,37.02572772135733],[139.12905364461005,37.03401464036341],[139.12445561603397,37.04095963957576],[139.12501533069303,37.044829639975944],[139.1229492480095,37.04714408123442],[139.1153894938301,37.0475190814405],[139.11130535675693,37.055213802275205],[139.10530036312127,37.056038531852835],[139.097016199638,37.058626332839026],[139.09127616066633,37.04783191870814],[139.09040557735557,37.044917197970335],[139.091487224356,37.03986246757887],[139.08883581072416,37.02892889235454],[139.09119491591275,37.019969441436615],[139.08631627817374,37.01449083808177],[139.08141795067797,37.011477252173506],[139.08050430602896,37.00864030570557],[139.0735409732374,37.00852974844918],[139.07178233458717,37.00643197275741],[139.06556066099574,37.004909225380516],[139.0624334106734,37.001523386695],[139.05463005173556,36.99851227931828],[139.05011727619137,36.99486730638114],[139.05053085641396,36.99311564017472],[139.04773111489908,36.98767036029892],[139.03871914357364,36.985964531637876],[139.03455525282277,36.98373619776737],[139.03032691305668,36.9837025856059],[139.0216585861749,36.98711594624399],[139.01549885878535,36.9882862250293],[139.01187383910644,36.98505177461976],[139.0069610514115,36.98349094635017],[139.00064516214456,36.979212892061355],[138.9904090534351,36.98026955859331],[138.98358377377224,36.97986372063423],[138.96984652429774,36.98141399985627],[138.96647955878473,36.97884038657463],[138.96774758758113,36.97341233321265],[138.96575891134478,36.967867054121314],[138.96533693864887,36.960935667047465],[138.96609664094728,36.957608170980336],[138.96380160795786,36.95276955936771],[138.96569988344288,36.94330094558222],[138.96680147920495,36.93079261338846],[138.97383228273372,36.92439066709568],[138.97669089476904,36.92079066655606],[138.97439639417826,36.91314844094785],[138.97765416310915,36.90907400036485],[138.97973469520014,36.904459305552564],[138.98011824885816,36.897589027411755],[138.97916849463036,36.891176252382195],[138.97499654955118,36.889927080570374],[138.97155403379168,36.887267639589936],[138.96704875499609,36.891048467712665],[138.953717081778,36.895195107668144],[138.94965761310846,36.89305844079445],[138.94685372212166,36.8944665048254],[138.940398170839,36.895122586338346],[138.93118591419864,36.89168341425824],[138.93053005212028,36.88696702680687],[138.92300613502516,36.883384802266846],[138.9220205581023,36.87875925173813],[138.91778941604878,36.87337730571812],[138.9171682749959,36.87037286501578],[138.9214882493833,36.865610945788546],[138.92211491587068,36.86103733290662],[138.91793988341897,36.856842892185796],[138.91604427981974,36.85070791863558],[138.91705038916416,36.848937640060115],[138.92404844388068,36.84723319815362],[138.92781313906517,36.83937572071301],[138.92979561627476,36.83750377467953],[138.92906724995373,36.832643775389954],[138.91253527898004,36.82930238659594],[138.91141610866657,36.82829961283693],[138.90259747089658,36.82711627859345],[138.8848963291024,36.826185467685264],[138.87953022014358,36.82497713498685],[138.87558350217694,36.81858883770474],[138.86457988325503,36.816302747573786],[138.8573117774166,36.812088054120466],[138.85094705586198,36.81203194631735],[138.83957011666757,36.817175559404575],[138.83636678280084,36.81543694595837],[138.82954369568506,36.81778944112983],[138.82174425419407,36.817626135038154],[138.82159228315743,36.813088108329566],[138.8230400261764,36.809100892092545],[138.82615197093673,36.80537146831864],[138.82678919636442,36.79974594631841],[138.82910167260422,36.795369838047634],[138.82970442342048,36.78589017069487],[138.82869605677763,36.78106686464412],[138.82505491585175,36.775774667367045],[138.82692350201808,36.77229133317854],[138.82110924829328,36.76385935982165],[138.81777033713138,36.76158574778407],[138.81036060965448,36.765085748208776],[138.80628669337625,36.76453269392874],[138.79534464294102,36.75813713462111],[138.79266267214462,36.752640468382936],[138.792707613066,36.747937134591155],[138.78941953338483,36.74487380178459],[138.78374508376862,36.745371027051306],[138.7823911930991,36.747251306202884],[138.77795727640728,36.74770186474933],[138.7703441888333,36.746164640086135],[138.76127805403905,36.74905686518224],[138.75332527903845,36.75498269419603],[138.74601444910763,36.75859435984188],[138.74057885942693,36.75934853220906],[138.73491302171863,36.762812441041376],[138.72946272362583,36.7623921707621],[138.72702744496064,36.76416883812141],[138.7213898828369,36.75923605400072],[138.72083097307097,36.75454797271084],[138.72187374777525,36.74969019834401],[138.71821674370779,36.74611353161424],[138.71577620041137,36.74575019831303],[138.7130741891226,36.73921822534089],[138.705284721113,36.736576278872235],[138.69593163423758,36.73851266672625],[138.6889554986974,36.73722850499155],[138.68215741902975,36.73500294642889],[138.67530294377593,36.73093791904978],[138.66716430588804,36.73028180156393],[138.65668011739353,36.72861205370339],[138.65549868971277,36.727146774803884],[138.64892508442517,36.727119558620814],[138.645211166762,36.72452955879214],[138.6389139429242,36.72317535965516],[138.63687002583106,36.721355360261725],[138.6300877823254,36.71954477497144],[138.62790306107752,36.720893667209054],[138.6217711146453,36.72021310794861],[138.61711383873273,36.713500026804866],[138.6172893899934,36.711659198213454],[138.61114102463864,36.70657666707956],[138.60593241215122,36.70758972098889],[138.60268411218215,36.712235838113486],[138.59767050598907,36.71472053182714],[138.59433522718905,36.71379608092445],[138.59231907936214,36.708658585925036],[138.58966019506204,36.7076866130468],[138.58586155586613,36.702827999612566],[138.5832676646711,36.701306306241065],[138.574897690576,36.7071218648822],[138.5713199221767,36.70554738670256],[138.56263328060152,36.70566874841404],[138.5604210508908,36.70694069375804],[138.55299771667137,36.70457455856905],[138.5436391439314,36.70383453163839],[138.53743944167695,36.69886922533453],[138.53708469510264,36.69713033309847],[138.53083250301768,36.69765502725778],[138.5200164458024,36.692317225359716],[138.51853863844747,36.683694171249044],[138.51977555070118,36.680425278603764],[138.5179174973947,36.67699610788412],[138.52724741863358,36.668802532211146],[138.53433819705026,36.6662686671653],[138.5294439947446,36.65528835957019],[138.52490566766255,36.65090835993294],[138.5148043061738,36.648952224765424],[138.51189875492366,36.64677110800028],[138.50810267160102,36.64826722465273],[138.50161961095637,36.64443525208526],[138.49773294431998,36.64393664006394],[138.49008185499372,36.64119580234444],[138.48110050558398,36.64524772120541],[138.4730971733959,36.64404827920475],[138.47174713362335,36.64155244109236],[138.46608795089833,36.63682217080657],[138.4590562516447,36.6348380001736],[138.45841038912818,36.62891497344731],[138.46057566793274,36.62647219803358],[138.4562222828322,36.6190002518602],[138.4549736452176,36.61385083814571],[138.4503358369294,36.610676946284116],[138.44158333260475,36.610669441441644],[138.43894330708804,36.6055758378547],[138.44142800260033,36.599991693661764],[138.43517216556302,36.60022974780469],[138.42883547317865,36.59789141425739],[138.42631822310761,36.59352419758369],[138.42711929961604,36.588258387314795],[138.42415871615185,36.58151394591192],[138.42029481225586,36.577237306256734],[138.4203348123018,36.57367341439664],[138.42310980537331,36.57293953163412],[138.42842949402598,36.5686961983709],[138.4288278343372,36.5640767479436],[138.42616224379253,36.56039372109342],[138.42884085562105,36.55622538679222],[138.42610778174878,36.551500107743834],[138.41772330698507,36.54319291891812],[138.41238856008408,36.54148625208893],[138.41143355381553,36.539463747853745],[138.41397769091782,36.53260655934531],[138.41171464321633,36.52727155883542],[138.40424654973856,36.5220651712707],[138.40280097318646,36.51605658574289],[138.40603180292544,36.50736408058788],[138.4019537218868,36.5017210272037],[138.39713202292455,36.49058217093051],[138.39729089535865,36.484062721017835],[138.4007603368201,36.481453865103845],[138.40103116675505,36.47711441409899],[138.399561971308,36.473329973399586],[138.40334919630845,36.46687027894029],[138.40007114137018,36.46140499994084],[138.40090416269697,36.45597777485449],[138.398697782177,36.45303055891321],[138.40312639376816,36.45231944068968],[138.4012869132605,36.447063639875125],[138.4005919198812,36.44118086500498],[138.401449947757,36.43402113466766],[138.41528360635346,36.431596441022975],[138.42056693901304,36.428559801893414],[138.42982308706587,36.42561899991699],[138.4416014395548,36.42259291882817],[138.44719258137263,36.4192609998953],[138.45162535682482,36.42117374817002],[138.4569647730059,36.42024013497428],[138.45800255467418,36.418160441051555],[138.45709031116894,36.41229517058571],[138.4611730605883,36.40774072135724],[138.4596500002474,36.404750441379804],[138.46559247661162,36.404251558662565],[138.47786800310587,36.40444989244861],[138.48895741914964,36.40093350457761],[138.4888249418177,36.40891738712776],[138.49205719788142,36.41325764032791],[138.50543466907482,36.41477041422331],[138.51660182881142,36.40783905412911],[138.52306489033253,36.40590433271882],[138.52934680860835,36.40304266658586],[138.53386097270584,36.402208774715234],[138.54061153039788,36.40284933303036],[138.54589822292473,36.407412919370756],[138.5496307259773,36.413344027405],[138.55500797663683,36.417773747860224],[138.5645068607031,36.42021677508416],[138.57312963692323,36.41919513534725],[138.58384216598324,36.422545108170254],[138.58895771662537,36.420983721421635],[138.59019605700246,36.42389038693187],[138.5997852267069,36.42406317097863],[138.6038271729857,36.42199844087537],[138.60786635474858,36.42318789230745],[138.6126219202655,36.422720946314655],[138.61833442289537,36.420670667417426],[138.6212388589862,36.41646902672426],[138.62663442344,36.41550402718917],[138.63232083044204,36.41784955891006],[138.63715138772648,36.41721622484897],[138.6466302717697,36.410772612965786],[138.64838747060537,36.40746761343968],[138.64846383923486,36.39979927871377],[138.65216966299965,36.39506927912396],[138.6521576912245,36.38537180226689],[138.64963878100502,36.378944306234814],[138.6516548640808,36.372817108223046],[138.6571634760137,36.36890153198016],[138.65238955893108,36.36263405411836],[138.65398341120556,36.35709322487247],[138.65008060983234,36.35248325240025],[138.6512783916845,36.34964825206521],[138.6497391957074,36.34159269444734],[138.6505402461355,36.33212991906055],[138.65317885881734,36.32962186455745],[138.65155163360112,36.327317413867604],[138.65330577204384,36.324369892156824],[138.64969269805965,36.31955297309128],[138.64789214021016,36.31447574795743],[138.65024238707656,36.311962667143405],[138.65130044126238,36.30792350516566],[138.65371933877657,36.30678294627603],[138.65353069968216,36.30311489223851],[138.6501226333529,36.30148017117301],[138.6512218027441,36.299097108045146],[138.64640900077484,36.29757710809713],[138.6448862264183,36.294536558715265],[138.64076730176964,36.292768801838804],[138.63743535675633,36.29342713525415],[138.63058338521512,36.28845630621362],[138.6268358877661,36.288777413646756],[138.62092530495897,36.28656105424932],[138.61250891055784,36.28565522470893],[138.61237444932146,36.28383883789212],[138.60717885901715,36.2795955046289],[138.6003355245649,36.278399945900844],[138.6035602461085,36.27494661309578],[138.60381299607297,36.269549386694905],[138.60595216575996,36.2667946670403],[138.60373296990065,36.26283022523478],[138.60487464305038,36.25935910833624],[138.60475433174713,36.25412908119222],[138.60217763918672,36.249500467572545],[138.6073059655979,36.2462765859957],[138.6124968092804,36.240917972886166],[138.61187038920718,36.22939130556438],[138.61451844387113,36.22806822476883],[138.61473508425684,36.224224053797116],[138.62224452676355,36.21458572085436],[138.63320980488868,36.21608933335608],[138.63604700406609,36.20667625180761],[138.6270825286358,36.201133197639024],[138.62279725009307,36.19692791918817],[138.62726500557562,36.19142208076448],[138.62947444918655,36.18632097323439],[138.62941861207935,36.18346625166623],[138.63553386529566,36.17776819844363],[138.6371049683197,36.17488483796495],[138.6359013615587,36.170932613449395],[138.63090830127715,36.17278177515885],[138.62775744465046,36.17121566696949],[138.6127871338192,36.168564306397684],[138.60483933926412,36.16419764010908],[138.59883294358553,36.165688467848554],[138.59456600491728,36.16560597303726],[138.5890332174091,36.170542919220395],[138.5882087810105,36.173651531992675],[138.58962713418498,36.17678708125885],[138.58404710798766,36.177201252335976],[138.5805832171418,36.17574180194265],[138.57892041474543,36.16751236040716],[138.58026680866635,36.16239874780405],[138.5839368088367,36.160349027385735],[138.58707625216732,36.160996252375185],[138.59076041486128,36.15466317076874],[138.59330097266184,36.15306955861331],[138.59479927376753,36.14851344114243],[138.59572316529193,36.14124622473355],[138.60066202343364,36.13562622457067],[138.6062637223929,36.13626150476466],[138.61221678287825,36.13342341435913],[138.62017233498534,36.13403035961346],[138.62216121896518,36.13195508136198],[138.6340915047192,36.13397008075469],[138.63651150480212,36.131106748177956],[138.6373362002056,36.124343973195835],[138.64093175089965,36.121533973114424],[138.64223561588108,36.11224202664829],[138.64640783435414,36.10957230641685],[138.64754863785936,36.10592063982574],[138.644981140867,36.10341258622191],[138.6451830611494,36.09880674793311],[138.63489192022598,36.0943292518935],[138.63062635482243,36.091328135085405],[138.63046549938338,36.08605841366489],[138.633211581949,36.080874000135054],[138.63918600493025,36.07528510842104],[138.64281538272382,36.06874233279245],[138.64237280206328,36.053762640233685],[138.6441711152048,36.04957017082677],[138.63148791163792,36.028278802324905],[138.63613374817396,36.02769908134758],[138.64486289170918,36.02413436031253],[138.64601092126702,36.020027413734226],[138.65350175140475,36.01882297330161],[138.65680367075288,36.01674380188501],[138.66142477323478,36.01636713523516],[138.66169641975398,36.012014667443],[138.67974944198318,36.0116149457732],[138.68105411185786,36.00430161302904],[138.68716686136167,35.99981827859074],[138.68642625167024,35.99490299977367],[138.69080344991937,35.99080189159406],[138.69732345021714,35.99103189230806],[138.7011670303342,35.988010504781016],[138.7125500516437,35.98533300001799],[138.7168090268152,35.99290438692799],[138.72606544736254,35.99447744058148],[138.72991688665502,35.99809797264339],[138.73216802913134,35.99833213541979],[138.7373708562801,36.004297972573454],[138.73668588764372,36.006466026685814],[138.74376983121283,36.01009989209638],[138.74475680927935,36.01367905444488],[138.74918491635083,36.01672183774269],[138.7485485596684,36.01841322509034],[138.75065527911795,36.025052640067315],[138.75357085601024,36.02829013468204],[138.75441119332197,36.03452597259559],[138.75979788596374,36.034852919326795],[138.76914130962382,36.03881261271198],[138.77295105095027,36.03881538712045],[138.78063219202215,36.03685066702474],[138.78181050624994,36.03429233322464],[138.78632358036896,36.03309397310841],[138.79097552510052,36.02939980185943],[138.80219063578932,36.03340227869228],[138.81407405967013,36.033676170818694],[138.8156799223906,36.03537586520406],[138.82848917043896,36.03744169427881],[138.82923610865953,36.041863333426136],[138.83219280165656,36.04772944116081],[138.83727060955107,36.04976138737817],[138.8428270303432,36.0558177745707],[138.8451350837172,36.06087722460427],[138.84603705606537,36.06662500044348],[138.85060121887125,36.069154973223476],[138.8547117771269,36.068514693698205],[138.86152319104247,36.07140802675906],[138.86433291773005,36.077085802068154],[138.88043683479214,36.083318000425436],[138.88671294434698,36.08417797263536],[138.89237627834268,36.087832413635056],[138.89483544659868,36.08751850527483],[138.89785878115788,36.090654613020035],[138.90797630436305,36.092033198173624],[138.9112335283047,36.09088430616583],[138.9163140863261,36.093749027295814],[138.92093658905242,36.091430666791894],[138.93149050558247,36.08810313475192],[138.9381038654011,36.09289338712017],[138.9447952530985,36.0944886666187],[138.95043888474675,36.09959366731397],[138.95153250262297,36.103065332798906],[138.95655335915023,36.10570200024716],[138.9580291960906,36.10962117108022],[138.9562719711746,36.111916721179796],[138.95845228304654,36.124090359882246],[138.96424452676354,36.1259048023648],[138.97001204901687,36.12423897285038],[138.97425399462622,36.119400333358726],[138.9787220486836,36.116002252202236],[138.9815068092919,36.1170855863308],[138.9856907000658,36.11557141398964],[138.98929600480687,36.11791669390038],[138.99304241227753,36.1244647746297],[138.99682741865047,36.12566505389918],[139.00195800325935,36.12532950515259],[139.0067321919372,36.12955033288159],[139.00485302164964,36.133409532424025],[139.0107347209307,36.13205310836429],[139.01562194629582,36.134069251694655],[139.021087808056,36.13133117129655],[139.02375863805082,36.133900919292046],[139.02658949430975,36.13278841385426],[139.0311978336132,36.12772699970134],[139.03683061044433,36.12619061320629],[139.0424042541531,36.1284595316821],[139.0431998052269,36.13091535985603],[139.04101092101723,36.135541774633225],[139.042722088054,36.14802736027451],[139.0471690530095,36.14933374785426],[139.04901600508458,36.15242846789954],[139.0605613099566,36.15226322466816],[139.06376466900429,36.158852667017015],[139.06297885938693,36.16128630621813],[139.05871661517972,36.164281586426114],[139.057804967925,36.17340213470078],[139.05638583683697,36.180519667049055],[139.05768277613925,36.18372272122667],[139.06304946785872,36.18581050455117],[139.06457700412545,36.189375251666604],[139.0633228266871,36.19571219765987],[139.06531564160366,36.19869000044321],[139.07196455342148,36.20381833314963],[139.0817260053509,36.214887251845255],[139.0889819199797,36.22843280183241],[139.11119513584686,36.258497000236446],[139.1078035019301,36.26170533343446],[139.11333046722734,36.26678338684388],[139.1177804673947,36.26875644095702],[139.1269963545982,36.278535053749806],[139.12943916958204,36.283343666676956],[139.13611749732468,36.27842061322076],[139.15087697828994,36.27854950495572],[139.15902338542094,36.27782366662899],[139.16390338473343,36.278911721298925],[139.16947005240104,36.27475283797315],[139.18055116680296,36.26910033271423],[139.19800175117996,36.26224755897772],[139.20825344963703,36.26246450513287],[139.21197316522944,36.26017338689235],[139.21214535662295,36.25633644107393],[139.22400403385916,36.25830169356834],[139.2310120485672,36.25262502712337],[139.2334867831886,36.24891058605476],[139.23747399492902,36.24620474815066],[139.2440667827559,36.244433919190044],[139.2538940335828,36.245843639772204],[139.26169294357453,36.242703360072085],[139.26701072566448,36.24262197322554],[139.26681518787063,36.25042058644095],[139.27768827469424,36.24797058587387],[139.28631966282228,36.24513308092702],[139.2949788067266,36.24358661303182],[139.30144250316903,36.239786748060055],[139.30925671872262,36.23743513512346],[139.31514871614036,36.23661402711571],[139.3279732814418,36.23735763964339],[139.327979779943,36.240539171245814],[139.3333792483537,36.242888305650865],[139.34024871620534,36.24386413482199],[139.3394812185834,36.245987748036214],[139.3458612843708,36.248982467966584],[139.34730158190257,36.253651360422],[139.35059547300273,36.25415136009724],[139.35358408563707,36.25151302710458],[139.35823299605602,36.25332800018714],[139.36154328089776,36.25209189192731],[139.36781744521898,36.24680883805746],[139.37667299566226,36.24450494584664],[139.37933856012648,36.24118189243046],[139.3934315823018,36.22762413504586],[139.4076932813199,36.22264689204047],[139.40869994824413,36.223422999771685],[139.4190718941527,36.21644525174702],[139.419357690605,36.21129386491998],[139.4239707783288,36.21087497330143],[139.42926022008317,36.20831219774976],[139.4426151884403,36.197841640279535],[139.45434856043778,36.19141027896126],[139.46239274972572,36.18951166712981],[139.47442500600926,36.189457504560266],[139.50507795098667,36.19358005437607],[139.52116966334938,36.19122036013158],[139.52821664118505,36.19150177508692],[139.53521861244906,36.192942891901],[139.5547379118252,36.20082853161148],[139.56487988310016,36.20207380216431],[139.57346522683883,36.2042201709242],[139.58300469461108,36.2092387476701],[139.58777167342407,36.21036927911899],[139.594359728119,36.208887891562995],[139.6037864200074,36.2034153604306],[139.61301610910618,36.1937328653795],[139.61862082978757,36.18980286491035],[139.6250399998961,36.18701341433763],[139.6264091961276,36.19324977475736],[139.6290203372189,36.19516977516503],[139.63724535678784,36.19720891865671],[139.64880788637493,36.19613030596889],[139.65150430567928,36.19837417113115],[139.65002457827177,36.202775559344616],[139.6493984954443,36.21119110838299],[139.65225352817788,36.2128141706375],[139.6599746692956,36.2149013604095],[139.6635399479103,36.21235080214785],[139.66127325615594,36.20839691928245],[139.66442547255758,36.20706080191451],[139.6639746433152,36.20869580176986],[139.6694507780311,36.21258330567508],[139.66957136182896,36.21513358604619],[139.66487858607798,36.2234705046601],[139.66120024559496,36.224121639901796],[139.65894444912703,36.2314132791995],[139.6541027762222,36.231581613400806],[139.65463999973622,36.23530105380064],[139.6505716727446,36.23913550489971],[139.6423852790574,36.24134689194557],[139.63858944214905,36.245304667076766],[139.6355975227076,36.25079772073826],[139.63071975371372,36.25484130558186],[139.63653063588026,36.26187936034427],[139.6422287160824,36.264094612676274],[139.64173289195946,36.26695655939773],[139.63665591413917,36.26509489171593],[139.633908171425,36.27022766707324],[139.62602924785153,36.27135294558201],[139.61977841823943,36.274388467753624],[139.61591700366682,36.27365180158944],[139.61200919576788,36.26946822467886],[139.60860252878376,36.2680954410518],[139.587939663185,36.26866958623248],[139.58457383891164,36.26921846765822],[139.57813516160843,36.26696069358121],[139.57038267192286,36.268087640332396],[139.56127011682247,36.26712983807164],[139.55352511039564,36.27388397326678],[139.55591513607476,36.276615054241404],[139.553268469964,36.27945672125071],[139.54917233503534,36.280446134681426],[139.54402980473174,36.275783666982704],[139.53978036327317,36.27705502686803],[139.54034481196356,36.280026135098126],[139.53655036270914,36.28179972138008],[139.53458671910187,36.279022251575725],[139.52560810632906,36.28470333279262],[139.52054946838336,36.280899197839744],[139.51507252877423,36.28114530631086],[139.51347111500002,36.27862808142089],[139.50900333343714,36.278675332700516],[139.5032216729419,36.281066441163375],[139.50061968874775,36.2762564405823],[139.49286133638168,36.27378674756039],[139.4899577168752,36.27593536012881],[139.48557547342944,36.275220640120494],[139.4825487808016,36.27202761338373],[139.4767146169861,36.27261510810081],[139.47564795089227,36.2756231352995],[139.47148238740238,36.275741225277386],[139.47265929958712,36.27162594558098],[139.46913625223635,36.270598999844026],[139.46387788565596,36.271520946134785],[139.4587834762765,36.277101504730695],[139.46745878099796,36.28049453169734],[139.46084710830746,36.285144801891136],[139.46087435776542,36.287204252074616],[139.4570651884078,36.28919286535853],[139.44364929997528,36.28836094570113],[139.44353294389032,36.293693694308615],[139.43710544695887,36.29700900006537],[139.43478819711765,36.292990386697056],[139.430364306068,36.2956856665603],[139.43152294402876,36.301009558644296],[139.42671544716018,36.30395010791119],[139.4291632174086,36.30617841390273],[139.42319849541434,36.3078651076886],[139.4198309993012,36.3124720539422],[139.4156996109483,36.31586955863327],[139.41566574607737,36.31970566718286],[139.41819855981578,36.32141702667451],[139.4148605057078,36.324317864577836],[139.41913581076915,36.32683674781771],[139.42047216555807,36.32311758620767],[139.42656163431207,36.324350919159656],[139.42657805413398,36.32670591894305],[139.4227925027718,36.332256198264986],[139.41794444917707,36.336559251908],[139.4135108301607,36.33771258566736],[139.3969374705879,36.34582122486967],[139.3915110890656,36.34943400027896],[139.38843581056426,36.35464455889934],[139.37814635497034,36.359989306261525],[139.36859910536452,36.36731791938655],[139.36644691259505,36.37052569410554],[139.3681571982961,36.37247430644413],[139.3663150324129,36.37942055931143],[139.36097771704806,36.38368027912162],[139.36813561636563,36.392801251876335],[139.36994175091115,36.39776541424254],[139.37545927422616,36.40030902704001],[139.37686321666422,36.41102817061363],[139.37864296959742,36.41455899979803],[139.38586968863524,36.421522891967925],[139.39173749698796,36.424310360434845],[139.39194861193891,36.42744202732774],[139.39503085568947,36.43091897273246],[139.3943908954235,36.43422202702499],[139.40252647201908,36.436815359741104],[139.4045764982069,36.44063591901249],[139.4049865243087,36.444978972701506],[139.40759319127278,36.446076440575325],[139.4123084950411,36.45070366744034],[139.4110996371386,36.458434505048444],[139.4147410505591,36.461856440722215],[139.4177535536836,36.460792279240366],[139.42040299600149,36.457073667116106],[139.42783775610758,36.45911200031861],[139.43647472093164,36.465975306015594],[139.4376933850417,36.474335305729824],[139.43170863784337,36.47215780244068],[139.429659779875,36.48194617107896],[139.42593505775676,36.48451505392666],[139.42808119269296,36.49041783781303],[139.42146953259294,36.490518387413715],[139.4225686902929,36.493662559379686],[139.41792814536768,36.49463922492032],[139.41967510991844,36.50017977537641],[139.41902927438161,36.50227810774851],[139.42298958470167,36.50441922536703],[139.42168457758123,36.50874394637606],[139.42767739259762,36.51063533305421],[139.43441383902757,36.519360053723574],[139.4346463290649,36.5220692254145],[139.4399124765796,36.52540117132702],[139.44150916981243,36.53059838670623],[139.43746802932617,36.53246310758641],[139.43628917010915,36.53806533264901],[139.43929894918722,36.55096310816094],[139.44390700430483,36.55251144125009],[139.4522359135566,36.54959508104821],[139.45677316504964,36.55298591906495],[139.46075788566793,36.55324674763932],[139.4630470820573,36.55963230558649],[139.46561905317685,36.56362008120186],[139.47402549927745,36.566730360417864],[139.47390914409175,36.57313205400112],[139.48238167327565,36.57784372091106],[139.48304114073608,36.58327789236091],[139.47631807981554,36.58741844120817],[139.47384002579656,36.590456225174705],[139.4747047473263,36.59464538687513],[139.47001450136815,36.60415261305269],[139.46406669292355,36.60577510783503],[139.4575669390631,36.606292891603744],[139.45259914433507,36.603625918801185],[139.45098442329254,36.606480359780846],[139.4450418938684,36.60729258608404],[139.43815238732293,36.60416758586547],[139.43627461727988,36.60173341426571],[139.42686483804187,36.60113310780673],[139.4150022829291,36.60581946779428],[139.412373384724,36.60812419817324],[139.4056791956384,36.60876919823994],[139.4065472500556,36.60478586527552],[139.39870360598673,36.60218946766986],[139.3951630218561,36.60349697310687],[139.38668883342302,36.611983332964485],[139.379439921815,36.61311722517985],[139.3717754469793,36.611951945725764],[139.36322649790463,36.61433333341665],[139.35916955902803,36.61355833275093],[139.35228841797618,36.615090279292986],[139.34761147928646,36.61911917101298],[139.34573282700842,36.6233469460048],[139.33869724987824,36.62718972122872],[139.32965447497406,36.6275886128243],[139.3281188852784,36.63365110821212],[139.33053442292533,36.64226386508534],[139.32866466943904,36.64797522467694],[139.3265660573777,36.650696054279535],[139.32858325561278,36.6526349458461],[139.32670185500672,36.65711241400675],[139.33065321707238,36.66379905418307],[139.33452211400447,36.665691279029375],[139.33573569424698,36.67070902660038],[139.33493011663165,36.67451374791119],[139.33925983067672,36.67833372082458],[139.33671481223882,36.68238869378325],[139.33912674360442,36.68498702672997],[139.33691836569005,36.692129775169064],[139.34101286565124,36.69414174834304],[139.34372933893792,36.69735702700524],[139.34874688685943,36.69983202692657],[139.3524464198664,36.70427122533681],[139.35634230905043,36.70709761286457],[139.35543230935366,36.70985569418497],[139.3585440598605,36.71313625193653],[139.35974464310084,36.71674180219247],[139.36487444889678,36.71973017111054],[139.36693422823214,36.72458933313129],[139.36480924804846,36.729055441055834],[139.36751488990035,36.734811026607645],[139.36799355405935,36.741376054161606],[139.37027722411472,36.74495189171648],[139.3657708301597,36.747917720926125],[139.36218914431367,36.747889666574906],[139.35607608274506,36.7504532793954],[139.3544986116217,36.75339413533112],[139.35527922225833,36.760246359581856],[139.3508203628695,36.76344972132762],[139.35444680887315,36.769087224995474],[139.35339936398952,36.77411058613467],[139.3599141374276,36.775158360170224],[139.36228391666953,36.78072725186121],[139.36755147881775,36.78378864033351],[139.374330973096,36.784290864931506],[139.3765426722066,36.786487279164646],[139.37563574639262,36.79100199994241],[139.3780405056649,36.792069774900256],[139.37763247695727,36.79662533299279],[139.37567834008337,36.800413972626814],[139.37793450077663,36.804448973441424],[139.38297814522525,36.80562286480341],[139.38861177731178,36.805268135316226],[139.3937018546569,36.809679252395654],[139.39107269834642,36.81443344105054],[139.39440885938143,36.81837677486834],[139.40124533110725,36.82151789183729],[139.40669955923738,36.82694010769984],[139.40451014262908,36.83143569360243],[139.39733844411398,36.83469430609739],[139.3909200519189,36.832655972894884],[139.38666839183293,36.835516252273294],[139.3808464201262,36.83659489194076],[139.37675586279295,36.838821838157344],[139.36646055800838,36.84205350516521],[139.36382474671473,36.84731519833781],[139.35261830099387,36.84907158598497],[139.34870525274528,36.852559360126406],[139.35562727607794,36.858439640277254],[139.35513839202326,36.86185297303632],[139.3577206612796,36.86573519792108],[139.3582056944373,36.87221019794231],[139.3624099215807,36.87751380222022],[139.3678721662675,36.877180197807945],[139.37188749711038,36.88281880224599],[139.37063197068892,36.88959546815636],[139.3734225813871,36.89325602724392],[139.3794209730995,36.89798658621203],[139.38688269757847,36.900166053620524],[139.3939033072919,36.903278838347774],[139.39559555079404,36.90610161329886],[139.3932891962395,36.910795505108524],[139.38330243805717,36.91140269407913],[139.3814254989876,36.914035197666294],[139.37313158235668,36.91839380243209],[139.37060878077068,36.91736213525439],[139.36474985682048,36.91832099961448],[139.36120204933513,36.91637572106271],[139.35278199739128,36.91576905369891],[139.34471946822896,36.923510134585115],[139.34238671857224,36.92753319779888],[139.33779474693006,36.92727236023131],[139.33428555093747,36.92475125206869],[139.3275121657539,36.92458569407455],[139.3239752265755,36.92601817110176],[139.31834603084474,36.92550872135047],[139.30901763935265,36.92696455916712],[139.30506927382794,36.92581205368339],[139.29481900079634,36.934464252123576],[139.28623199690924,36.934227305945456],[139.28171058427608,36.931147306003425],[139.27751114062676,36.9338742249156],[139.27511833963968,36.93363477502493],[139.2682094419123,36.93859338677544],[139.2614258107526,36.93791446787844],[139.25465852117384,36.93233558561883],[139.24055846989756,36.92948364025784],[139.23887291825065,36.933243360392794],[139.23275374758748,36.93737808073388],[139.231895966126,36.940527225051426]],[[139.26308377389716,36.243938080677935],[139.26172350163836,36.24427891923676],[139.26289044124098,36.24510058572349],[139.26308377389716,36.243938080677935]]]}},{"type":"Feature","id":"JP-10-capital","properties":{"Kind":"capital","PrefectureCode":"10","PrefectureName":"Gunma","CapitalName":"Maebashi","CapitalNameJapanese":"前橋市","PointKind":"prefecture-representative-point"},"geometry":{"type":"Point","coordinates":[139.060455,36.39069]}}]}
