{"type":"FeatureCollection","bbox":[139.6878641118393,35.73913553197929,140.85197438431044,36.94510538670431],"displayBbox":[139.6878641118393,35.73913553197929,140.85197438431044,36.94510538670431],"DataVersion":"2019-boundaries-v1","Attribution":{"BoundarySource":"MLIT National Land Numerical Information, via Fabio Crisci / piuccio","BoundarySourceURL":"https://github.com/piuccio/open-data-jp-prefectures-geojson/tree/513fb852832c99470e16b95a30ddd68bf3469dc0","BoundaryDate":"2019-01-01","CapitalSource":"Geospatial Information Authority of Japan (GSI), prefecture representative points","CapitalSourceURL":"https://maps.gsi.go.jp/","CapitalSourceRetrieved":"2026-10-04","Notice":"Simplified and enriched by Ashiato Kai. Modern geographic context, not historical immigration-era boundaries. See GEOLOCATION.md and THIRD_PARTY_NOTICES.md."},"features":[{"type":"Feature","id":"JP-08","bbox":[139.6878641118393,35.73913553197929,140.85197438431044,36.94510538670431],"properties":{"Kind":"prefecture","PrefectureCode":"08","PrefectureName":"Ibaraki","PrefectureNameJapanese":"茨城県"},"geometry":{"type":"MultiPolygon","coordinates":[[[[140.63640992238004,36.4745217477805],[140.63649518800264,36.477174747816434],[140.63640338520815,36.477174747816434],[140.63640992238004,36.4745217477805]]],[[[140.63010999967685,36.48646272107777],[140.6297987811888,36.4862733868074],[140.63338749703541,36.48162189173695],[140.6336064199004,36.48179858603595],[140.63010999967685,36.48646272107777]]],[[[140.63051869028538,36.494909440618244],[140.63086863807723,36.49663999973626],[140.6307838652832,36.49660064000756],[140.63051869028538,36.494909440618244]]],[[[140.63883664129798,36.499079053755395],[140.6388155252164,36.49930683764052],[140.63861802869917,36.49925210759875],[140.63883664129798,36.499079053755395]]],[[[140.63525944216963,36.50806683781434],[140.63545861232512,36.50828572110919],[140.63550999958693,36.50853517056174],[140.6352677815829,36.508502107886045],[140.63525944216963,36.50806683781434]]],[[[140.64671092077242,36.54220717112412],[140.64729885885527,36.54236580164047],[140.64711481169923,36.54248494562381],[140.64671092077242,36.54220717112412]]],[[[140.6476351360527,36.542481081236986],[140.6478666674128,36.542544585963924],[140.6478823354015,36.54270633263121],[140.64755855967985,36.542602666879645],[140.6476351360527,36.542481081236986]]],[[[140.6721416339293,36.59757089228293],[140.67187664059452,36.59751858591409],[140.67191442291232,36.59743569360245],[140.6721416339293,36.59757089228293]]],[[[140.68061282672068,36.61439153214354],[140.6804387809251,36.61435177491455],[140.68025442260364,36.61442958605659],[140.68018311266053,36.61429013538151],[140.68044503211263,36.61425808084579],[140.68061282672068,36.61439153214354]]],[[[140.68960105144743,36.62483505419442],[140.68958922176523,36.62517030616476],[140.6893891046235,36.62516191908736],[140.68960105144743,36.62483505419442]]],[[[140.7088807255651,36.65459172133092],[140.7089702458802,36.65473508135898],[140.70889907892945,36.65482202691504],[140.7087667194087,36.65463989171769],[140.7088807255651,36.65459172133092]]],[[[140.71239647221944,36.658490973080006],[140.71228150468778,36.65865025200759],[140.71225619956397,36.65880435983337],[140.71216369619765,36.65881425237592],[140.71211661488996,36.65867905369544],[140.71231669336078,36.658488134819606],[140.71239647221944,36.658490973080006]]],[[[140.71679313899222,36.68609274768221],[140.71681425417455,36.686233306322094],[140.71670230926418,36.68627274788906],[140.71663230873412,36.68610413489796],[140.71679313899222,36.68609274768221]]],[[[140.71755538277478,36.686982748255275],[140.71762538330483,36.68703358603125],[140.71745761297848,36.68714053161028],[140.7174715048062,36.68696025171431],[140.71755538277478,36.686982748255275]]],[[[140.7167723349753,36.68781108141633],[140.7168423346061,36.68792386539411],[140.71673038879646,36.687996919122554],[140.71669538268577,36.687861919192244],[140.7167723349753,36.68781108141633]]],[[[140.71717069956821,36.68848691923597],[140.7169818032677,36.688639134888206],[140.71694011699287,36.688447467776484],[140.71717069956821,36.68848691923597]]],[[[140.26425652381954,36.93331538709549],[140.257772866025,36.93267927862587],[140.25346697771886,36.929692918793194],[140.24838518762635,36.92131486518895],[140.25010294399578,36.917286252258805],[140.2487181454261,36.90885955882163],[140.2505106363568,36.90609594577131],[140.2504511408075,36.90172983796168],[140.254280803916,36.891142026883074],[140.25287880671158,36.88565925157326],[140.25427428023386,36.87700727886289],[140.2567148379195,36.8730995051381],[140.25417505803262,36.86927477481106],[140.2543071981188,36.860081440805914],[140.25153600468298,36.85245700019044],[140.2527198830162,36.849412838231956],[140.2566818292031,36.84809641421822],[140.25498871605646,36.84191366688225],[140.25720455294777,36.838336413794536],[140.26148403356137,36.83789225212581],[140.26225593966,36.83289613504866],[140.26569177705392,36.82897833298375],[140.26661610924612,36.81310889166207],[140.26371330722338,36.81129141396764],[140.26460352813035,36.80413391934496],[140.26703797672133,36.79952169407096],[140.26453625164675,36.79456225224618],[140.26644153015252,36.791059197723825],[140.2616100519624,36.78655808099069],[140.25381472127242,36.78365505413751],[140.25742469529348,36.77723227864681],[140.25367189364306,36.7745158916951],[140.25849413669516,36.77106866708539],[140.26106719779295,36.76759310843528],[140.25686075202213,36.76611255904743],[140.2549448902945,36.76022174783543],[140.25962849475934,36.754766170722235],[140.26220627819725,36.74828366675786],[140.26714016938342,36.74548394592739],[140.2691243319224,36.74210061275312],[140.27746494225335,36.738749198316896],[140.28333632900842,36.734138613406344],[140.28767105137797,36.72536969375642],[140.28725766540902,36.717985532206626],[140.28924044119344,36.7169716131495],[140.29010489022858,36.71204050536511],[140.28598070004932,36.71249746798384],[140.28230647216606,36.7081127478051],[140.27105444880385,36.70673055906809],[140.26781856037837,36.7022705593389],[140.2584409732724,36.70157225195794],[140.24669700366383,36.70227117087791],[140.2441772498803,36.69779008114739],[140.23339160773662,36.7002470541583],[140.22987907885647,36.69882566667121],[140.22681291768208,36.692393171307856],[140.22042033692912,36.68714650490733],[140.22346005174006,36.68355733310449],[140.22501756241059,36.677778170925876],[140.2214905580429,36.6744478923564],[140.23141756167115,36.67011758565809],[140.23273364484191,36.665474224955574],[140.22930861190298,36.662278386938056],[140.23568503183878,36.65721502665224],[140.24093031058544,36.65092280214566],[140.23910941636655,36.64556446782598],[140.24156163376244,36.642947224834586],[140.24271496842107,36.6365591712688],[140.2343140603457,36.63462777465213],[140.23469566787082,36.623758053991025],[140.23953710785133,36.62500805407848],[140.24527457835916,36.61750358572198],[140.24576680879125,36.61399553186834],[140.248391776959,36.61093719839306],[140.24815564196933,36.60550469428625],[140.24913977997687,36.599403612586684],[140.24609389132013,36.59438055901563],[140.2433743576405,36.58458086521483],[140.24557491594965,36.58245613504266],[140.24468847039668,36.57610086536272],[140.24696702960478,36.56753422482467],[140.24378197086128,36.56281977541238],[140.25153975395654,36.55458005372657],[140.25150055790448,36.552598946184446],[140.24696939032515,36.54801646778583],[140.2481560565568,36.544808693966104],[140.24774736684753,36.53449010843178],[140.25337513625357,36.527168170974335],[140.2525748376587,36.524914837749634],[140.2601756935535,36.51762983814655],[140.2476130872742,36.515066801791534],[140.24893136209278,36.50766210782007],[140.24244355392693,36.507528505436255],[140.24151016915903,36.503147135232155],[140.2306437220302,36.50297410836845],[140.23118119285778,36.49913410755306],[140.22957031102112,36.49088466689392],[140.2233982494297,36.48167277537834],[140.21661875515144,36.47897805399407],[140.21206671880407,36.4707141981018],[140.21290031120043,36.467038360432014],[140.208304968,36.46443144075846],[140.20735880656378,36.457025054262886],[140.2028765504125,36.45443727935702],[140.20278625218384,36.450743693566665],[140.20618736675362,36.446479801801445],[140.2013467190759,36.43814369437604],[140.20175194639523,36.429587612778164],[140.20339472088972,36.42873344119539],[140.20238274976418,36.42394510798039],[140.2032610888283,36.42074317076077],[140.1982996109383,36.41557538659487],[140.19594372172548,36.40943597309172],[140.19249116683397,36.40457791903577],[140.18610306110747,36.401117108367885],[140.1851574707407,36.39833766724962],[140.17835379998792,36.39733325222784],[140.17627325620583,36.39864853230398],[140.1691084950611,36.39899046803572],[140.16560291794042,36.40010519839626],[140.15958481218945,36.39801272061061],[140.1561970039886,36.39815355893967],[140.1485703366518,36.406661613143],[140.1450956422501,36.41174494557282],[140.13577335895343,36.412942197724306],[140.13183306124688,36.41492053175716],[140.12171688702483,36.413226945567146],[140.11409652393547,36.41080863980693],[140.10958455328455,36.407301414228925],[140.11122116742297,36.39805530620748],[140.10169185479538,36.397008251629586],[140.09558358031802,36.39872758630912],[140.09228635543104,36.4016431353225],[140.08795102511976,36.398284531705826],[140.08310185456696,36.40288341373861],[140.0764882231531,36.40417844108225],[140.0681662260905,36.40326180169086],[140.0650025811043,36.40068458572512],[140.0662658875607,36.39413653197545],[140.0691397538966,36.38903180197616],[140.06361219234884,36.38205766742749],[140.05696158171168,36.37988350511972],[140.04816566801128,36.37558297317571],[140.03979033665473,36.37500494562181],[140.03552033669428,36.37776355934085],[140.02710666723897,36.37684802701489],[140.02616221811195,36.37542830597158],[140.01278464259724,36.376415559230736],[140.0090415563228,36.37508694580595],[140.00043177710495,36.376632532365534],[140.00091011660868,36.37360974819137],[140.00385289169765,36.37060197280283],[140.00156481226634,36.36806530636886],[139.99662700363342,36.36959225178106],[139.99131031062245,36.36948974795354],[139.98992878108845,36.36720780189859],[139.97924383873226,36.36976644056881],[139.97831855955394,36.37244144071997],[139.9745696627598,36.37454366715656],[139.9652848380249,36.36747869388665],[139.9657339693473,36.3602100808306],[139.96402199741726,36.35617397295056],[139.96450141430887,36.35094174786343],[139.9461673926112,36.34918705363964],[139.94378102537405,36.34685105383312],[139.93522674421888,36.34535958577629],[139.93513953336287,36.34349486489617],[139.92782808020183,36.34295569434988],[139.922653864984,36.3415821076282],[139.91829852115984,36.338225999630254],[139.91433155585673,36.336711586270724],[139.91168680889916,36.33151186538032],[139.91255593980486,36.32504158590052],[139.91030891082767,36.30981772111102],[139.91477727605047,36.30785686540207],[139.91075444935836,36.30120133277535],[139.90426605663322,36.297925775254384],[139.8942890533972,36.30193386475611],[139.89423238711504,36.30404025235583],[139.89905411215761,36.30630799991434],[139.8966424119178,36.309754387255225],[139.89167571975872,36.30908580156853],[139.887214863875,36.31150330603282],[139.88185038898428,36.30977886500267],[139.8788181448416,36.310703027222985],[139.8785203892047,36.314008586127386],[139.8824135021814,36.31971302723446],[139.88143905257027,36.32263302699266],[139.87467066132206,36.32316389229982],[139.87212785971303,36.318246386761416],[139.87247756198997,36.31507889177749],[139.86259722418265,36.31307861338735],[139.8568729961919,36.31048725198514],[139.8499526977589,36.31178946760991],[139.84550708178642,36.307875865378946],[139.84164980499452,36.301331134624206],[139.83953671924428,36.30023086536221],[139.83560169875943,36.29411030614574],[139.83521083001585,36.291802802257564],[139.83719055799793,36.28609502736367],[139.84173333312685,36.27733030574905],[139.84132080421182,36.27529808074189],[139.83595352793304,36.27143669404825],[139.8318609992857,36.26506225172159],[139.82872511007588,36.2526372785876],[139.826820635564,36.24756644133822],[139.82180669302454,36.239769505358424],[139.76004021978042,36.21923538670376],[139.74827795076692,36.211087639582956],[139.72902089459865,36.20228517072411],[139.7275420233458,36.205842666605804],[139.72013089472512,36.20766186470337],[139.7201873020025,36.21132266660783],[139.7160297802502,36.20986964007187],[139.70749447479022,36.210835747571764],[139.7083422440993,36.20682908079749],[139.7064730607832,36.20185658621256],[139.70034722434502,36.203352720851456],[139.69362219211052,36.20648938707558],[139.6905591443891,36.20536410766749],[139.68794383943668,36.19968133302717],[139.6878641118393,36.19635580197871],[139.69364686141364,36.19167522463198],[139.69088791224738,36.175255251628585],[139.69196817069462,36.16983997313628],[139.69402510997088,36.16636025242377],[139.69611730177212,36.15639638738344],[139.70136783435817,36.1470608381872],[139.710133916647,36.13594469429228],[139.71358472055852,36.12624917076266],[139.72204608286052,36.1181577481816],[139.72637855962284,36.1125191347503],[139.7280648900827,36.09645110783242],[139.72830542185784,36.090139440882524],[139.7317673278999,36.08651777477553],[139.7467584949087,36.087079440963464],[139.7564721136971,36.08255886469988],[139.76576102495142,36.08042774844188],[139.77186021987336,36.08223800008369],[139.773139441632,36.088904667216696],[139.77621722384583,36.09076741408495],[139.77641836621467,36.09645713508877],[139.7779697803811,36.098557413593824],[139.78677566756312,36.1040998921963],[139.7974462261625,36.096359305937256],[139.8000239952113,36.09369653206937],[139.80378535660896,36.08685513475672],[139.8083275228969,36.070410171392325],[139.81367058403032,36.06242546776116],[139.82335530490343,36.05444297286493],[139.8372350582514,36.04110102669108],[139.84735783439658,36.03386050485847],[139.85708369565612,36.029426613347596],[139.8717514790476,36.01442691896716],[139.87577036311188,36.01127525205129],[139.8782445266636,36.00760497309108],[139.88233308660278,35.9914497209279],[139.88416364493628,35.9888280811511],[139.8960288854248,35.97943864008124],[139.89937527894608,35.977520027327444],[139.91671805439478,35.970330586087755],[139.92425335870564,35.97053058631758],[139.93245586284786,35.969439197860765],[139.93676197058858,35.9659075323068],[139.93804360612762,35.9620147475826],[139.93165522700724,35.950766693827916],[139.93358630436455,35.94643836024221],[139.93863933863463,35.94057055908411],[139.95152435816271,35.93612610773374],[139.96546269784528,35.92672664012241],[139.9774590792731,35.922708278564244],[139.98579294378942,35.91480713544098],[139.99309961075846,35.910275748427125],[139.99674435796578,35.9092248924149],[140.0132155248766,35.91109736005518],[140.01886080408292,35.91004761290708],[140.0311066412586,35.90061230641288],[140.0475393639506,35.891961413788295],[140.05560131035224,35.89069972071559],[140.0611168353737,35.88805638659301],[140.06659868977772,35.880871918604214],[140.0743258626485,35.87662689191757],[140.07933697771944,35.87856272129261],[140.0816872497668,35.880799080713075],[140.08813002617978,35.88403019823511],[140.0928233586112,35.88386461326132],[140.10275577166158,35.88073736024103],[140.1117307259923,35.876042332587645],[140.12173175101952,35.873663107766276],[140.12758282658626,35.870383666972714],[140.1304197280881,35.86441227920335],[140.13424386486258,35.858919224642534],[140.14120494215445,35.85211699999962],[140.1464696633443,35.845718134784136],[140.15073022042338,35.84337730561822],[140.15674664084486,35.84270869385119],[140.1677794679482,35.84545702741991],[140.17789455309116,35.8493800536466],[140.1866304667227,35.851757837754064],[140.19911924765518,35.85911283788721],[140.2054318031353,35.861320332667276],[140.2154621919267,35.86161786527231],[140.2277875624461,35.85536427923813],[140.23258758774705,35.854110108095085],[140.24056433237809,35.854383721431645],[140.2436174192086,35.85539983843182],[140.2656890790878,35.869305666723164],[140.27623557711024,35.873551224909136],[140.2811450840784,35.87411150524184],[140.28606788572438,35.87292622486541],[140.29995596589515,35.86669038695186],[140.30828741932896,35.86448736000369],[140.31705299619887,35.86433069360669],[140.3230527755652,35.86605930569243],[140.33496788615912,35.872387333108975],[140.34190243794717,35.878670945707654],[140.34838834044956,35.88320927908501],[140.35308038864912,35.89193955936321],[140.3569584946389,35.89563455888782],[140.36371581073615,35.89938566711487],[140.3807003628316,35.903717332688814],[140.39025654989996,35.90736619789175],[140.3964771730831,35.9090084139072],[140.40764027238072,35.909221694425696],[140.41795530469358,35.90637774763502],[140.42610505820198,35.90769519777518],[140.43590347586473,35.912144865193454],[140.44846577187798,35.91501866677811],[140.45644730180163,35.925003585846866],[140.45843817058517,35.92654022505138],[140.4711309474353,35.919719054390896],[140.47423202298955,35.916126558693804],[140.48454033736675,35.90965317115695],[140.4975934114069,35.90626280168698],[140.49812538288018,35.909187801675785],[140.49064291823618,35.91540117092734],[140.4872980032004,35.9245622786263],[140.48717639417532,35.92859200042051],[140.4906250577003,35.93189919788972],[140.49495671877764,35.930601108354494],[140.49725289210733,35.93388136033656],[140.49969552542825,35.94439772117795],[140.50388367089477,35.951005721037234],[140.51124464342558,35.95873541380837],[140.5269260050312,35.947858135244815],[140.53240652394197,35.94178286498726],[140.53735124476418,35.93872033257736],[140.55068683542913,35.932855586416224],[140.55726185535036,35.93078666727092],[140.57062661462658,35.92406441394161],[140.58124352776667,35.91645053226631],[140.58468321695693,35.91115080226774],[140.58790961123964,35.9104638650154],[140.58854097308745,35.906026919406884],[140.59886128442076,35.903165801860325],[140.60274680891814,35.89916358583088],[140.607992917739,35.89581194566483],[140.61329535739492,35.88887610784616],[140.61648555126726,35.881384170643],[140.62878403385616,35.8646600271386],[140.63068616113753,35.85912419812331],[140.64106788627396,35.856406413625166],[140.6663921655661,35.85319719819222],[140.6758427497432,35.85126938717252],[140.68683639428423,35.84776383793081],[140.69717775604863,35.842378774860606],[140.7065757460739,35.836255414256016],[140.71305403401652,35.829418467688186],[140.71722671923771,35.822767892124546],[140.7218262775607,35.81018399979183],[140.72586700435886,35.800747613211854],[140.72895111510195,35.79664702663899],[140.74166666728297,35.78514872123657],[140.751508196646,35.7790302790242],[140.78820121871138,35.758422639892956],[140.80097705604635,35.74966010812756],[140.81535153004916,35.74151450499045],[140.82195907934806,35.73944530615603],[140.83765927365664,35.73913553197929],[140.8460032807269,35.73989466680547],[140.8499022177133,35.741439080649116],[140.85197438431044,35.744667072127754],[140.84639861190647,35.74722574767014],[140.84278730239214,35.74648830629036],[140.83663099872172,35.75246780234727],[140.82884099921284,35.75719586479738],[140.8253196632719,35.760482585602915],[140.81057999976724,35.777045585885105],[140.80748119320253,35.781948197751205],[140.80434236141093,35.784840054125254],[140.79798977980454,35.79370883809247],[140.79515338462102,35.7961864136721],[140.78714968910697,35.80717702659854],[140.779811776992,35.81617517084749],[140.74192133640065,35.86710391861101],[140.73994542244338,35.87241125237745],[140.74166910534495,35.8740840993018],[140.72008725042633,35.90381766735152],[140.7078782234014,35.921359225348],[140.70654099896797,35.925124945759705],[140.70252357989932,35.92164310804304],[140.70002999998462,35.925702585705835],[140.69185588833864,35.92043355856191],[140.6775302718047,35.91227641442504],[140.67862358031402,35.90118389212296],[140.69103464273462,35.883126919172014],[140.68687688715863,35.88100880171487],[140.6852394159663,35.885749441183805],[140.67723710810617,35.89668719825562],[140.67465671933223,35.896997774627664],[140.673468663648,35.91246372072419],[140.6689085855628,35.91916872056004],[140.65236697835348,35.92661505404158],[140.65468702958276,35.929855072153885],[140.66121815809163,35.925637440615446],[140.6628477692093,35.928596441272816],[140.66691955859085,35.92676400875206],[140.66528652375416,35.9238944141959],[140.67688994821265,35.919127892238464],[140.69390953339837,35.92881491897339],[140.69346355419975,35.934401801601894],[140.70100328137642,35.93781766685191],[140.69420574579863,35.94849235963471],[140.68489664116714,35.964434027308585],[140.68804085630052,35.9657639456496],[140.69604176391636,35.966366639808655],[140.69349644600425,35.969106739184724],[140.68190992160567,35.96885041441516],[140.67833116665008,35.96746830571777],[140.67700581056977,35.97045538680669],[140.6738874968106,35.97032305426558],[140.6705722180335,35.97286746835903],[140.66945255489156,35.976383640392726],[140.6668716993695,35.97784746778649],[140.65810953272887,35.99246430638266],[140.65458649796858,35.99986500016968],[140.638865940311,36.02940205376183],[140.63144243791828,36.04229630572996],[140.62848481232425,36.049705559264225],[140.62671464256675,36.05169922493934],[140.6199367436858,36.06602725165641],[140.6186076392312,36.067156586107615],[140.6089354216325,36.086410206865594],[140.60512361905978,36.096193387315],[140.60376799000085,36.097135125885416],[140.59450736692156,36.11781440501085],[140.5871782618674,36.137708936618196],[140.58367684770838,36.146042332587626],[140.57444083008033,36.175134288316826],[140.56943722434846,36.19427468532854],[140.56330547306914,36.22139684698698],[140.560037717167,36.24831773857284],[140.55817986980526,36.273103099128775],[140.5584779384062,36.28528073891505],[140.5605371080012,36.291673117320556],[140.56553645904046,36.29767814423104],[140.57290735379138,36.30266701816839],[140.56996025925866,36.30776729742291],[140.57445758804727,36.307701108219646],[140.57739581076817,36.31069999111173],[140.58464152978286,36.31045558595656],[140.58688234804197,36.31141762222552],[140.58919631625702,36.315174756809654],[140.5927891051332,36.319079107714686],[140.59498823621823,36.334740748087086],[140.59399433157319,36.33806710831044],[140.59658861217474,36.34169813456134],[140.60108805437028,36.33962980177398],[140.60700522740933,36.3460069996234],[140.60982678287974,36.353507802343245],[140.61833705571064,36.358909748386225],[140.6210754733545,36.359634135207216],[140.6229309474054,36.36720291857989],[140.625187664779,36.371037224888084],[140.62490299607646,36.37459002720806],[140.62731566758407,36.3771565592279],[140.6269015297819,36.38097880203014],[140.62276596587674,36.38359141441231],[140.61840041474738,36.384666748171924],[140.61499686121624,36.388861251845356],[140.61173194627236,36.39915169399552],[140.6124418288274,36.4045631980332],[140.60969483794645,36.40517886491273],[140.60887867710937,36.41824239626965],[140.6126472240902,36.41822173884225],[140.61261080424526,36.421226550065285],[140.6180527503342,36.42149072141973],[140.61815946838487,36.427091027329084],[140.61018540912937,36.42720276629467],[140.61002910515913,36.43130055867391],[140.62720325592556,36.43119758629962],[140.62732871584763,36.44145746768805],[140.6150099481506,36.44174405374514],[140.60943347607417,36.44043263985452],[140.61028447484875,36.44355844136902],[140.6083666669881,36.45201438705436],[140.61047061023055,36.46767461279319],[140.6109978863434,36.47497508073542],[140.61366571979715,36.48077188311595],[140.6161712454067,36.48312505367835],[140.619251997182,36.48019444102067],[140.62239477340017,36.48361497285276],[140.62160481161288,36.488565306343844],[140.61772669303252,36.49071397287162],[140.62217795135143,36.495394532231956],[140.62419756156828,36.49357400043982],[140.62724583702584,36.500310440574424],[140.63325630393535,36.50930491918672],[140.63155625161983,36.511657694047415],[140.63408483764522,36.51561205355347],[140.63339983123728,36.521214080765276],[140.6370594424394,36.530507639715836],[140.63871652424825,36.53845953158219],[140.64616333257186,36.544227107794825],[140.64400719807384,36.549008838187376],[140.64437885909717,36.55165897298326],[140.64992455277593,36.56619110803325],[140.65443808015334,36.575436558650324],[140.66045999992912,36.57860263989994],[140.66444542201873,36.59123389233031],[140.6713122440649,36.59790413516777],[140.67550046687313,36.60638546781513],[140.67710902666033,36.607783386594065],[140.6802076389714,36.61498758570855],[140.6863860048103,36.62005827906637],[140.68943719766855,36.62090305363307],[140.68901557660763,36.623099775434355],[140.68971063563743,36.629678559018316],[140.69203552521935,36.64067283758146],[140.6937629699852,36.64469553207317],[140.6990049419246,36.64957772123489],[140.70414472120194,36.65580425206463],[140.70840330696706,36.65488746788236],[140.7123889107197,36.659518747991854],[140.71611868972582,36.66262461333531],[140.71511980463538,36.66486155911372],[140.7142543582521,36.67412577498459],[140.7168209730096,36.6939261349832],[140.7225771341275,36.70882530584322],[140.72574719757517,36.71478283775781],[140.7292449676812,36.71681355909851],[140.72817022027948,36.72684553159604],[140.72976910516013,36.73893425181433],[140.73342396884118,36.74938186488123],[140.73800510994795,36.75876813494153],[140.74654016899365,36.78042074761947],[140.7543354223419,36.79342877461829],[140.75749027195855,36.79472453221143],[140.75922452729014,36.80103072139076],[140.76293333320677,36.8086739191661],[140.76848661536508,36.81832897320362],[140.77325891097007,36.822968973139666],[140.77733352782013,36.824983441033055],[140.78226505828593,36.825422946012225],[140.78634968908693,36.82725825186691],[140.7861339947881,36.82947036016901],[140.79131817089694,36.82974450500495],[140.79254588758272,36.82612510788749],[140.79704016856897,36.82655641374754],[140.80574411220107,36.83122135997786],[140.80224749682463,36.83285272117621],[140.8040310889636,36.83539980175948],[140.8023912840306,36.83941846818783],[140.7987676133348,36.84022683819808],[140.79715863806075,36.84274783844205],[140.79711649762828,36.85135205355448],[140.79585891086015,36.856204864562926],[140.79349635497283,36.859456081033386],[140.78972985664768,36.85648417060804],[140.78581758811129,36.85644253199729],[140.78642988343245,36.86194999999253],[140.78163036265119,36.86348308057978],[140.77720561634624,36.86738253197831],[140.77293108919844,36.86668255905289],[140.7715438004061,36.86306619804668],[140.76683150487008,36.861549837654934],[140.76143147887967,36.866432359565806],[140.7555564462731,36.869548468187304],[140.74586438423398,36.871242720775],[140.74050241215662,36.87556438678706],[140.73420780804395,36.87159283763941],[140.72935500602875,36.874414558585045],[140.72408739261914,36.87403105438972],[140.71992841756253,36.872322838028595],[140.7141391703865,36.87282827860224],[140.7097513619359,36.8771834137836],[140.70548769140385,36.8783943868915],[140.70222379988854,36.88351344129234],[140.69920961143453,36.88354408119443],[140.69503652421633,36.88878791922713],[140.69254452710834,36.887602135230395],[140.68371719829008,36.89062655886863],[140.68010325556088,36.89338474810768],[140.67340147889524,36.89317344070179],[140.66461138830505,36.89642580200922],[140.6558654472327,36.89728661328661],[140.65446433226316,36.90100558603899],[140.65108652362426,36.89971663991105],[140.6473817511669,36.900996892292824],[140.64477866440393,36.89898874843203],[140.63728192032443,36.89756361257071],[140.63515022040644,36.89896333269172],[140.62268924831028,36.903226252289755],[140.62084394289366,36.902462333070275],[140.61470389087197,36.904506135050156],[140.61565891063026,36.90663369359015],[140.61246944161155,36.91067205427191],[140.6071926982845,36.91276617062232],[140.60289124543465,36.91996480203403],[140.59804452733317,36.92504646802013],[140.59296389107078,36.926464467761036],[140.59445613524247,36.930062586019574],[140.59387450140719,36.93427958623397],[140.58929888483578,36.93948066689933],[140.58660525342975,36.94510538670431],[140.58320516228844,36.94310117108222],[140.57469608285805,36.94207799979989],[140.57497525310555,36.93918353179458],[140.57055208780866,36.939135721136665],[140.5674445272432,36.93667510767011],[140.57054233466113,36.93113261287982],[140.5678867193966,36.92505922490335],[140.56768418937395,36.91894472082225],[140.5656558107671,36.91643386493098],[140.57406374794368,36.91067913463439],[140.57386513626705,36.909059945759964],[140.5807735798369,36.90440772133934],[140.57937744531296,36.89613625178663],[140.5823541626146,36.89322010832137],[140.58703924826273,36.886254198072834],[140.58989791155943,36.884571134850034],[140.59329325607894,36.879841081300924],[140.59224625186312,36.873452972876464],[140.58603221801252,36.87315274770117],[140.58287241223206,36.868064441121135],[140.5804726334054,36.8668897205842],[140.57549752269256,36.86911141386071],[140.5722860571559,36.86594780214938],[140.56484505755338,36.86223980202527],[140.56036941591583,36.863358973238064],[140.55691211440262,36.860053999792285],[140.55456372193828,36.86143150486009],[140.5454660308327,36.85813710834094],[140.54088372240597,36.859581279252666],[140.53796616070986,36.85877294611464],[140.53716530543454,36.85475963964569],[140.53284769086827,36.85017661266062],[140.52810761257638,36.84855746785291],[140.52848282682112,36.839994721379355],[140.51905070032967,36.836153919267986],[140.5166808563365,36.826556467706894],[140.5113682489456,36.82210510776457],[140.50475538285468,36.82329264004335],[140.50292557725368,36.81903430608838],[140.49582522735238,36.81817517114729],[140.49305907911332,36.81943433262842],[140.48892124531926,36.81871269413557],[140.48918089488245,36.80935105380814],[140.48549027235822,36.80821217125475],[140.48058961112167,36.80373635964531],[140.48013846981462,36.79982417114866],[140.4756664461496,36.79672000012795],[140.46651907919227,36.79184894637183],[140.4620054726745,36.79357841371285],[140.46195299633382,36.79691591923432],[140.45333880684052,36.802984837580254],[140.45056131005651,36.8084528918875],[140.44713016892217,36.80978680231914],[140.4394857462703,36.82048599982909],[140.43622350231283,36.821391558673554],[140.43092841821203,36.817302441154766],[140.426666744175,36.820943865367155],[140.42306644595976,36.82051917132276],[140.42208533057362,36.8241197213481],[140.415842801704,36.82856530584422],[140.41349783385806,36.832120585796474],[140.409897496972,36.830395332678506],[140.40733830072202,36.8323381353967],[140.40298243798918,36.831368441400514],[140.39678128422895,36.83311958600012],[140.39507153002717,36.83229625217035],[140.3871297798155,36.834167973373326],[140.37720608299435,36.837924694269304],[140.3758574974256,36.841388026636196],[140.3776983655872,36.842974134848475],[140.37490172493472,36.85078719837054],[140.37057891138772,36.85522274823131],[140.36840727617493,36.8612302518747],[140.36859119292933,36.867085252082745],[140.37191180288744,36.870182134997606],[140.3692931911279,36.874734387182286],[140.36777822288673,36.88051435965002],[140.36521182936247,36.884324946339234],[140.36061513627953,36.885652747676204],[140.35517841794967,36.884416694275046],[140.35005228318641,36.886499775044626],[140.34661280173952,36.8850195323256],[140.33333160836708,36.88889408059737],[140.3240457458146,36.89333802742806],[140.32335136217569,36.9022283060915],[140.32185666735143,36.90778305414466],[140.31761697814113,36.91292669421165],[140.30772916966555,36.91918955855135],[140.30592808031668,36.92369680236561],[140.30271671910134,36.92703125199074],[140.29733114071962,36.92891908095089],[140.29270391655257,36.933197441009156],[140.28875333329972,36.93324580205217],[140.285980271972,36.935383891653316],[140.27947328126697,36.9336542246628],[140.27750936426582,36.931199505352936],[140.27297488987938,36.93015480160284],[140.26425652381954,36.93331538709549]]],[[[140.74474297011204,36.71279308143562],[140.74486883293036,36.71300169357335],[140.74451214022315,36.713164774834524],[140.74444907886198,36.71283810779249],[140.74474297011204,36.71279308143562]]],[[[140.73020116735006,36.71606102709478],[140.73022228343166,36.71627519794208],[140.72998450088403,36.71618491859914],[140.73020116735006,36.71606102709478]]],[[[140.72997038872256,36.719429918955655],[140.7298515046433,36.719165198115434],[140.73015233506226,36.7190863059883],[140.7302084437647,36.71938491867911],[140.72997038872256,36.719429918955655]]],[[[140.73326461706847,36.720844333099535],[140.73290795134096,36.72057377475994],[140.73327182873197,36.72047794570068],[140.73326461706847,36.720844333099535]]],[[[140.75764518827486,36.79407780184914],[140.7570950064295,36.7939609997004],[140.75719710826002,36.793700027234536],[140.7576688854108,36.79362263967312],[140.75764518827486,36.79407780184914]]],[[[140.76260153013652,36.805463414105304],[140.76242700410307,36.80579305430604],[140.7622827762292,36.80561783759316],[140.76260153013652,36.805463414105304]]],[[[140.7866517245975,36.82237741438621],[140.78651505822347,36.822446360011554],[140.7854531909121,36.82109972057572],[140.7855903114438,36.82103074797067],[140.7866517245975,36.82237741438621]]],[[[140.78775797704907,36.82427202693253],[140.79282124470478,36.825753945987856],[140.79276549932842,36.82587489221254],[140.78775797704907,36.82427202693253]]],[[[140.80404900076087,36.82907830611896],[140.80422680931986,36.82918605389335],[140.80415238682326,36.829285721259055],[140.8039780289629,36.829105278585814],[140.80404900076087,36.82907830611896]]],[[[140.80385228305647,36.8335316130935],[140.80384717310858,36.83376561309262],[140.80361736664827,36.83362383767002],[140.80385228305647,36.8335316130935]]],[[[140.80409635456317,36.83389550487368],[140.80408136196536,36.83408450459626],[140.8039339432969,36.83406689227331],[140.80409635456317,36.83389550487368]]],[[[140.80065930038643,36.86103058619267],[140.80028150508747,36.86002877470821],[140.79951335905434,36.85917225229764],[140.79927291811077,36.857409667422246],[140.79947658937317,36.85739233298983],[140.79984044068385,36.859079224626555],[140.8006092216383,36.85996697329722],[140.80065930038643,36.86103058619267]]],[[[140.6051135799279,36.33667294599974],[140.605148495207,36.33766508077889],[140.60506557681504,36.33766508077889],[140.6050044750765,36.33667294599974],[140.6051135799279,36.33667294599974]]],[[[140.59672111468774,36.33803589194292],[140.59626516200774,36.33822989189605],[140.5952580544157,36.338065333048746],[140.5954167191063,36.33775086531023],[140.59649277592098,36.33782466727462],[140.59672111468774,36.33803589194292]]],[[[140.63937147891068,36.39717591943321],[140.63872250294128,36.39868489189428],[140.63848775560552,36.39859546780667],[140.63937147891068,36.39717591943321]]],[[[140.6258271079347,36.42724966683869],[140.62220277623715,36.427308054423236],[140.62219916995582,36.42716177519583],[140.6258235277337,36.42710338671196],[140.6258271079347,36.42724966683869]]],[[[140.68095335861062,35.97328910830578],[140.67967586265104,35.97371161340027],[140.67960697817955,35.97357910818937],[140.6808836449643,35.97314966662384],[140.68095335861062,35.97328910830578]]],[[[140.84152224405636,35.750270918668036],[140.84130997437592,35.75042844121964],[140.84111703022688,35.75025555914681],[140.84132929990733,35.75009813462128],[140.84152224405636,35.750270918668036]]],[[[140.6983877300098,35.93376441429632],[140.69411299601802,35.9319110626455],[140.69480191987282,35.92933163974345],[140.6962226202778,35.930138468315704],[140.69512887199994,35.93220444128201],[140.6983877300098,35.93376441429632]]],[[[140.58662189358563,36.291337252012625],[140.58502360585476,36.29339874815378],[140.5851911666391,36.30181313526805],[140.5850019456833,36.301816864756574],[140.58484302198792,36.293370972592356],[140.58662189358563,36.291337252012625]]],[[[140.59016482494678,36.315634667406016],[140.5902506355585,36.31579049473561],[140.59011351502681,36.31579893667163],[140.59016482494678,36.315634667406016]]],[[[140.5910953696557,36.31572655923338],[140.59109810629263,36.31596303596541],[140.59086508385656,36.31581904461325],[140.5910953696557,36.31572655923338]]],[[[140.59125776923077,36.31631593713087],[140.59122400778176,36.31644035114135],[140.59102647169436,36.31623638669993],[140.59123608297887,36.31620432407033],[140.59125776923077,36.31631593713087]]],[[[140.59360118035022,36.31842314401291],[140.59372408619765,36.31851059498803],[140.59361399479008,36.31887198215628],[140.59338539611917,36.31889866684003],[140.59360118035022,36.31842314401291]]],[[[140.59354492865555,36.31940884684087],[140.59365721081167,36.31954899988648],[140.59350456528352,36.31961062233239],[140.59354492865555,36.31940884684087]]],[[[140.5943366666039,36.32013309876356],[140.59412852121432,36.32075160390343],[140.5940064067703,36.320379531889955],[140.5943366666039,36.32013309876356]]],[[[140.5945195068698,36.32070215288212],[140.59456607016807,36.32103559541645],[140.5944440861257,36.32095219768581],[140.59444717259896,36.32074254143521],[140.5945195068698,36.32070215288212]]],[[[140.59419210058502,36.320877098899075],[140.59413892277314,36.32107743187805],[140.59393061010962,36.32118717075139],[140.59411994797733,36.320889459181274],[140.59419210058502,36.320877098899075]]],[[[140.59455255515638,36.32158129683944],[140.59419053216743,36.32166669376295],[140.59433014292188,36.32114560408644],[140.5946491963034,36.32123406320153],[140.59455255515638,36.32158129683944]]],[[[140.62779700362887,36.43758805364581],[140.62751505807353,36.437294135416096],[140.62748128403405,36.43412141357243],[140.62775997404367,36.43411946833885],[140.62779700362887,36.43758805364581]]],[[[140.6371204668361,36.402804359733466],[140.636223722247,36.40488844144846],[140.6363740601148,36.41666380189298],[140.63637808008434,36.44534110810571],[140.63618686083498,36.445345198222356],[140.63615144013693,36.41197194614847],[140.63596335862212,36.404853332815094],[140.6371204668361,36.402804359733466]]]]}},{"type":"Feature","id":"JP-08-capital","properties":{"Kind":"capital","PrefectureCode":"08","PrefectureName":"Ibaraki","CapitalName":"Mito","CapitalNameJapanese":"水戸市","PointKind":"prefecture-representative-point"},"geometry":{"type":"Point","coordinates":[140.446823,36.341736]}}]}
