{"type":"FeatureCollection","bbox":[133.44656166029245,34.01237861268288,134.44735055798196,34.564568612751316],"displayBbox":[133.55777181641622,34.01237861268288,134.4406961090383,34.40032716226875],"DataVersion":"2019-boundaries-v1","Attribution":{"BoundarySource":"MLIT National Land Numerical Information, via Fabio Crisci / piuccio","BoundarySourceURL":"https://github.com/piuccio/open-data-jp-prefectures-geojson/tree/513fb852832c99470e16b95a30ddd68bf3469dc0","BoundaryDate":"2019-01-01","CapitalSource":"Geospatial Information Authority of Japan (GSI), prefecture representative points","CapitalSourceURL":"https://maps.gsi.go.jp/","CapitalSourceRetrieved":"2026-10-04","Notice":"Simplified and enriched by Ashiato Kai. Modern geographic context, not historical immigration-era boundaries. See GEOLOCATION.md and THIRD_PARTY_NOTICES.md."},"features":[{"type":"Feature","id":"JP-37","bbox":[133.44656166029245,34.01237861268288,134.44735055798196,34.564568612751316],"properties":{"Kind":"prefecture","PrefectureCode":"37","PrefectureName":"Kagawa","PrefectureNameJapanese":"香川県"},"geometry":{"type":"MultiPolygon","coordinates":[[[[134.0569484438157,34.35741949481388],[134.0575047212659,34.35904794580608],[134.05749213975048,34.359050802052934],[134.05693593964202,34.357422440992934],[134.0569484438157,34.35741949481388]]],[[[134.05833333321686,34.35984044098359],[134.05755839190635,34.359141468104326],[134.0575691046305,34.35913338679643],[134.05833333321686,34.35984044098359]]],[[[134.07987647232142,34.361483891768216],[134.07761627816876,34.36163936026833],[134.07761544719517,34.36163069440107],[134.07986518762834,34.36147591927829],[134.07987647232142,34.361483891768216]]],[[[133.99991455301426,34.3583333328171],[134.0002310514219,34.3597900807477],[133.99451391728348,34.36322335957044],[133.9929953571501,34.35806644101348],[133.99611291817666,34.356229639586275],[133.99991455301426,34.3583333328171]]],[[[134.0610794157825,34.36676830631234],[134.06099944177083,34.36682463984528],[134.05590108886418,34.36147735999225],[134.05601983085057,34.36148466698387],[134.0610794157825,34.36676830631234]]],[[[134.12233394275734,34.37999430559279],[134.12265652417932,34.38089825195283],[134.12254878090152,34.381047197670114],[134.1222663038469,34.38003927888968],[134.12233394275734,34.37999430559279]]],[[[134.121651440062,34.38195961294582],[134.1227591700997,34.38502555918228],[134.1226481973565,34.385049026991055],[134.121651440062,34.38195961294582]]],[[[134.05083878078517,34.38664460416521],[134.0500879377082,34.38675355882975],[134.05008133578508,34.386723296642856],[134.05083303501658,34.38661281133221],[134.05083878078517,34.38664460416521]]],[[[134.12243525318445,34.38714555892045],[134.12238938955875,34.38720691876432],[134.12256569355202,34.38585874778306],[134.12259150499403,34.385922080739476],[134.12243525318445,34.38714555892045]]],[[[134.0545720491608,34.38919372081364],[134.05454654978348,34.38921953225565],[134.05348832742447,34.388498945969616],[134.05351383939228,34.38847322535912],[134.0545720491608,34.38919372081364]]],[[[134.12647422810323,34.38809338680039],[134.12634966300664,34.38861233339253],[134.12563092123014,34.38951627885325],[134.12560919630744,34.389504225239875],[134.12632036309435,34.38860733316193],[134.12647422810323,34.38809338680039]]],[[[134.05676097294065,34.3940862251992],[134.0567218938004,34.394426197710914],[134.05651814519626,34.394402333301116],[134.05676097294065,34.3940862251992]]],[[[133.92256260657905,34.39650833329301],[133.92158238691763,34.392868802153544],[133.92441072597433,34.391860829413815],[133.9244493392656,34.39526649455314],[133.92256260657905,34.39650833329301]]],[[[134.17545085617212,34.39574494557286],[134.17242016875582,34.39292186485221],[134.17615603077627,34.39040058581844],[134.17545085617212,34.39574494557286]]],[[[134.12092166000662,34.39876444092624],[134.12088778164582,34.39863472091571],[134.12107805390917,34.39859527934874],[134.1211458367111,34.398685558691625],[134.12092166000662,34.39876444092624]]],[[[134.44020669258487,34.20785388295042],[134.4377792218337,34.20703602689116],[134.42829338513172,34.21117164025907],[134.41519635492796,34.219391666792035],[134.41449442327905,34.22156241437398],[134.40990197139888,34.22304158600042],[134.40641822262296,34.22641949536347],[134.40682311269654,34.23112094597491],[134.4119398828194,34.23248372104695],[134.41211686130418,34.23496399998868],[134.4071227497152,34.23800889219666],[134.40200569360798,34.23840544105832],[134.39920238718048,34.23650394600037],[134.396386394017,34.23878097276372],[134.3985843317016,34.24149630570997],[134.3937390534146,34.2510988015685],[134.39005007844844,34.254842801554105],[134.38307992160117,34.25739508111815],[134.37751358038747,34.260553585579544],[134.37542927384197,34.2594674410696],[134.37689160836112,34.25374002678086],[134.37238350209702,34.251034107937755],[134.36475983130128,34.249247973415265],[134.3610264981744,34.25048205370388],[134.35681133617425,34.253547359622985],[134.35187011731216,34.25210858644215],[134.34683236072487,34.25250266666478],[134.3405288065593,34.255049919018575],[134.33854411162156,34.25875182893378],[134.33416508415132,34.2586423328774],[134.3234887546024,34.2655608920216],[134.31300730184557,34.27468494585361],[134.30887483790355,34.27550177488706],[134.30591824922783,34.278492559384176],[134.30202457777216,34.2757548647952],[134.2960704407983,34.274022414402964],[134.28741177713187,34.275573585752454],[134.28050533095632,34.27900300018837],[134.27479275008545,34.28486144120262],[134.27609985712274,34.286733080567274],[134.27172513560663,34.28914766673148],[134.26817608256022,34.2878938022572],[134.2682365889475,34.28402625161027],[134.26491115412648,34.28475032366856],[134.26235763889395,34.282831612888685],[134.25572136165158,34.287064747839906],[134.25045508373523,34.295216225348554],[134.25021297005264,34.29761238710205],[134.24670258065964,34.303910891574446],[134.25132208774426,34.311383774841374],[134.25914647193224,34.314276386645986],[134.25998542159005,34.31796986541701],[134.26483778203806,34.31909227868579],[134.26183077826784,34.329396467872755],[134.26638994803773,34.332762865014274],[134.26583542156754,34.33660582909579],[134.25846852070572,34.33661191930469],[134.25671119326705,34.33895202721436],[134.2574254474265,34.345295639881954],[134.25011985694596,34.3515858651956],[134.246599001243,34.34921063965936],[134.24239216606566,34.34426294567845],[134.240750077754,34.340371197872514],[134.23198658910985,34.339228720728954],[134.22620625241666,34.34202069389994],[134.22431252929982,34.34670264001488],[134.22052069977053,34.34739702725108],[134.2183021918927,34.3497391982055],[134.21659350158893,34.36200758588143],[134.21609150541872,34.3622797207326],[134.2161058630952,34.36247166663418],[134.21551800325335,34.36322061304094],[134.2152975227625,34.36483527922479],[134.2116784440051,34.36563486465735],[134.21131630410423,34.3691318919233],[134.20699204894402,34.36962519794457],[134.2043271733604,34.36681016165966],[134.20631674442222,34.36038594635437],[134.20982389085998,34.35797053191459],[134.21007688723864,34.35475216228252],[134.21336202343866,34.349876198228],[134.20877566806269,34.34523019801526],[134.20470739323173,34.3432278287014],[134.1974913878173,34.345476864965406],[134.1923197536538,34.34387016227822],[134.1900660831833,34.3497260806941],[134.188070169203,34.35134946760388],[134.18310922191313,34.35167494574222],[134.18374639428077,34.34651544073506],[134.1868982752353,34.34603466676651],[134.18701613498672,34.33949327879185],[134.1849834108558,34.33357410835845],[134.17823041510167,34.33224025188616],[134.17863897530856,34.326709774736344],[134.17400352774064,34.32425413542006],[134.16631744489428,34.32587210841115],[134.1600542541006,34.330656829049474],[134.15899002606886,34.33492499978894],[134.1562161085866,34.33711805415493],[134.15572852135426,34.34271622507379],[134.15780533115117,34.347552531724034],[134.15783591439595,34.35067686464566],[134.15992360598966,34.354365864792896],[134.15716321700893,34.363872359821585],[134.1582009725969,34.367922667097446],[134.16083063612507,34.369405134739225],[134.1605169777764,34.37289536043261],[134.1634384443288,34.37783969364699],[134.16366688741698,34.38257910823933],[134.15954961122566,34.389079225425974],[134.1518247469146,34.39194761309193],[134.14585849517346,34.39505710809914],[134.14293308689253,34.39762369407828],[134.13634077840425,34.40032716226875],[134.12661555116676,34.3959832524252],[134.12112771717045,34.39835380238611],[134.11973949398248,34.39481769418131],[134.12240308713285,34.389529414351045],[134.12609775570695,34.39177516179433],[134.12880669267474,34.38606297302783],[134.12493944240146,34.38503255860576],[134.122866303637,34.37908086508992],[134.11992386489453,34.37656810803179],[134.11642369629658,34.3762687210247],[134.1164316597933,34.372310360434824],[134.1205744488518,34.359468585706736],[134.11528771675478,34.3589014678285],[134.11300516185884,34.36427358605721],[134.10782442295886,34.37202525196386],[134.09923399535262,34.380094161816146],[134.09230121882626,34.384578495401286],[134.0911330867226,34.37224422519091],[134.09213350155994,34.36902986473655],[134.0907179506729,34.362653441203406],[134.08528557696786,34.353093000341744],[134.0856606356299,34.35173780205798],[134.07867180256176,34.34999999980022],[134.07956143980869,34.359246999949164],[134.07499852076523,34.361781586251254],[134.07465885941895,34.35126377480344],[134.06951221831434,34.35204305444347],[134.0693111928573,34.362164198319135],[134.06334166038937,34.36257677489829],[134.06416616063984,34.357625613131574],[134.0551725291889,34.35624472121697],[134.06016769118605,34.35406282923623],[134.06032133586098,34.35086441376171],[134.04984255498994,34.352459532281614],[134.04729282680262,34.355509558719234],[134.03789216579094,34.352323197757414],[134.02820428020345,34.353766224731544],[134.02504069996837,34.354978892162194],[134.0194461353309,34.354679999782206],[134.01618944198924,34.35633613460499],[134.00731949429928,34.35775302728041],[134.00319555143358,34.35923005402384],[134.00231763864815,34.35520849537579],[133.99881364523355,34.35461416221386],[133.99276289229374,34.35660874789545],[133.99093717321205,34.36073622509679],[133.98050291777554,34.366944891793366],[133.97810591425662,34.37245682941921],[133.97567085592527,34.37310100031095],[133.97025752266666,34.36942527865375],[133.9713435799423,34.3681047483355],[133.9636123871021,34.364970612803575],[133.96049939013483,34.36876261320407],[133.96316686116177,34.37026733277122],[133.95918542216953,34.377639107958544],[133.9474494160578,34.380890414361204],[133.9431982748805,34.3755364678338],[133.93845705624824,34.37567877475573],[133.93882741865048,34.38068444083433],[133.93380319056484,34.38454758570259],[133.930231310027,34.38933994608169],[133.92636552474926,34.38842908123718],[133.92532466919818,34.383955107841984],[133.9209040858549,34.377725000408475],[133.91755530463365,34.37685436044046],[133.90974027159632,34.382026386708446],[133.90743245114675,34.378319053881285],[133.9004580539961,34.3776966133081],[133.89871963660198,34.38138749483704],[133.8939533592602,34.38242205423444],[133.8891316081373,34.377749918823724],[133.8880485860734,34.375158532240505],[133.89009900076837,34.3689653869431],[133.89271494244065,34.36447025160089],[133.89098586270745,34.358924306111874],[133.89494511002886,34.35458694603079],[133.89054302214277,34.35169253198484],[133.88205516221603,34.344060332918104],[133.8783801690097,34.34476474759509],[133.87141230903092,34.33973238694017],[133.8619904671864,34.33188633268816],[133.8569620752396,34.33068182030979],[133.85780224437815,34.32666961281245],[133.85080167335855,34.32640049518676],[133.85044968860234,34.33011094596344],[133.84642610917763,34.328000523105686],[133.83432535692975,34.324895693781286],[133.83321739306825,34.32963336009152],[133.83043797713106,34.333312721305106],[133.8390523869582,34.33459710787031],[133.8384459399282,34.33864908069057],[133.84459147871382,34.339522333189166],[133.84778060958752,34.338905008859115],[133.85761810639053,34.34580437826952],[133.8589836064084,34.35308835084675],[133.85788466904228,34.35742727934553],[133.84955469499323,34.35995033274173],[133.84864185523747,34.35622480213294],[133.83620192008266,34.345774919177245],[133.82891897543038,34.34214619788878],[133.82938639356723,34.34763822542379],[133.83275800317938,34.349319278661824],[133.8406909211492,34.35603769368464],[133.84054041510808,34.36066936859652],[133.824349415793,34.35259583802758],[133.82071153041284,34.351302693864284],[133.8221670040041,34.34595959495937],[133.8204718026317,34.33534061337866],[133.8227016338734,34.32556513472326],[133.8247153832084,34.32336230562595],[133.81926418939088,34.32102082894812],[133.820690142736,34.318752468052026],[133.81525189375998,34.317324892329964],[133.80729472107453,34.31343535955426],[133.807205693588,34.31105644140172],[133.79697092127105,34.30599500026909],[133.79668481185467,34.30171466709828],[133.78974427957496,34.29866816240582],[133.7827419710652,34.310655531727434],[133.77214150472673,34.30597602727187],[133.77641494189606,34.303899891966466],[133.778731660238,34.30025649464159],[133.77533775643235,34.2964979463232],[133.7683769129642,34.30380441364281],[133.7659051622935,34.30169419762916],[133.76187741900776,34.299917999715944],[133.7670516342256,34.29208172109463],[133.76809880661472,34.28777622489292],[133.76330166004368,34.283733757007326],[133.7608121396686,34.28706643227008],[133.75698603068088,34.28512730598044],[133.7582756162268,34.28209338730005],[133.75170616131038,34.27872997320975],[133.74680219236734,34.285368135431156],[133.7403994160003,34.281937747928794],[133.7438096371052,34.27740605424606],[133.74705202313237,34.27725025209753],[133.74388491575633,34.271808829414],[133.74115114131223,34.27165853201569],[133.74008144000652,34.2755775859369],[133.73590713420697,34.28105433309105],[133.73131413733768,34.27868833280036],[133.73015379965818,34.27465794640716],[133.73106566814613,34.27132558590711],[133.7369943579033,34.26519572140546],[133.735619389823,34.26144372105091],[133.72698700434682,34.257269333413035],[133.72471418910857,34.25458382918043],[133.72007778196416,34.25316672066765],[133.71319267220417,34.247173865181765],[133.7074834763814,34.239709054229536],[133.7041954218813,34.23921140538209],[133.7018894162636,34.23602748607965],[133.69822057082274,34.23430522500615],[133.6946535933887,34.23701641387646],[133.68811689987513,34.23711885565069],[133.68801980457044,34.23333568479404],[133.68160425423298,34.23396338730055],[133.6796324249965,34.232594081351806],[133.67731450066378,34.22464419767164],[133.674000998947,34.222012432427846],[133.67157699058566,34.22380072082666],[133.67584678280286,34.22718680232913],[133.67848813212163,34.236318576840915],[133.67523525280478,34.236883153235],[133.67237084284022,34.22694893704386],[133.66813630404727,34.232978135032965],[133.67029328120998,34.240565063127235],[133.6743140205757,34.24266479304583],[133.6716301818874,34.24654574808784],[133.66661804158946,34.24054820713411],[133.6595207520811,34.23978164930372],[133.6557026848311,34.23534778387318],[133.6490531129109,34.23276272132256],[133.6338951360517,34.23888277512003],[133.62730282666416,34.23766454088593],[133.62290496828973,34.23557636006103],[133.61923635487392,34.236864918581205],[133.61634076541407,34.24004759502054],[133.61724088156154,34.24423154065312],[133.60903622624096,34.25236445885275],[133.5914189750058,34.255313513907595],[133.5877835411776,34.26088777455118],[133.58309952032664,34.26041517991666],[133.57514898823524,34.262660657563345],[133.5740468996447,34.26512165773835],[133.56837601763914,34.26501577515796],[133.56533987043872,34.26358427029788],[133.55777181641622,34.26253628761964],[133.560409105296,34.260233810941656],[133.56944748431397,34.25998208080841],[133.5756576519791,34.256513892102475],[133.57359211428468,34.25202706289866],[133.5793249676732,34.25070997338662],[133.57829644632398,34.24707815303441],[133.575107794789,34.24429470273839],[133.58346941598086,34.24353637820133],[133.58879675696483,34.240516288396066],[133.59065409890763,34.238064422635034],[133.60077683458326,34.23375784724692],[133.60379280189636,34.23443269401366],[133.60838596603958,34.2305961618834],[133.6102539946262,34.22569690089131],[133.60943778162834,34.223362513569214],[133.6142331646289,34.220012621685214],[133.6171462647884,34.22098936007097],[133.6208098051285,34.217971523067376],[133.62231137526976,34.21476515308939],[133.63208455256017,34.21180591860832],[133.63490893639835,34.209931063268016],[133.63501643326185,34.20622522511411],[133.63738988263708,34.20072631506741],[133.64351880734716,34.1914942157855],[133.6481631393175,34.191745441399064],[133.6490042536435,34.185646251873095],[133.64598852105348,34.183487045290974],[133.64510527888558,34.180605792823144],[133.64719792484436,34.178414856360575],[133.64757072620807,34.170977341631044],[133.64617470769667,34.167898802188006],[133.64581442309725,34.16016389155038],[133.64312641964864,34.15554527929123],[133.64004128367833,34.154081495064986],[133.64028655038408,34.15051297259566],[133.6426724769533,34.14891572088385],[133.63972613515307,34.13083808061299],[133.63807075216357,34.130430360372884],[133.6391559137145,34.124791081443334],[133.63521027223635,34.12269635984916],[133.63294089510634,34.119346946404505],[133.62797141414956,34.11895353168018],[133.62987555141558,34.11520149535278],[133.63451238663743,34.11328789182278],[133.63693044058743,34.11387799996976],[133.63576447495063,34.09501594582929],[133.63805513633554,34.09232946763086],[133.63520294366094,34.08409538739227],[133.63160766456213,34.080187387038336],[133.63247294367147,34.07639544059714],[133.6314959399857,34.07225389170378],[133.63378302206888,34.070197829266476],[133.63119625170566,34.06014835955921],[133.62770319134927,34.05317980170656],[133.6227541627744,34.049394801628864],[133.61356138814756,34.04633510837863],[133.61128791190765,34.04468253217317],[133.60125469474838,34.04322500003377],[133.59849518800263,34.0436309459115],[133.60417138769947,34.03590305358313],[133.61331027225128,34.03232055924644],[133.62113693891865,34.03459777486745],[133.62687778188422,34.03776722497753],[133.62955444937836,34.035882225284524],[133.63293972778627,34.031164999665066],[133.6362391704015,34.02953944089256],[133.63945999967927,34.02593222509216],[133.64443722379895,34.027735559148766],[133.6492458367261,34.027140829385814],[133.6559913878923,34.029075558889986],[133.6586149935871,34.0276838921979],[133.66542832665607,34.02710805359385],[133.6703719458087,34.02409082902858],[133.6718922182513,34.02074610824633],[133.67823221834226,34.018188054135464],[133.67746138783286,34.01579416227082],[133.67954861177907,34.01251999959834],[133.6854747213813,34.01315277518046],[133.68851165998524,34.01237861268288],[133.7002716600092,34.01780277467839],[133.70876250298716,34.01535166704588],[133.71065916958503,34.01697333265321],[133.7213197277233,34.02229249520252],[133.72298000032686,34.02544972082802],[133.7218100003313,34.02981055861045],[133.72307194611346,34.0364627754368],[133.72775472140336,34.04106389228485],[133.72899416255063,34.044159721194205],[133.73299055816778,34.044896667047624],[133.7404513878214,34.05019194630131],[133.74949749741165,34.0542702791501],[133.75099666726248,34.05658722502045],[133.75648389061917,34.059289721043854],[133.76030055762465,34.064550828757774],[133.76337972839178,34.066809720692106],[133.76340472055142,34.06983972102637],[133.76778360592868,34.0723238922339],[133.7750419460291,34.07426444125099],[133.77795555070816,34.07893416198203],[133.7852980538621,34.079810278821355],[133.79584888481827,34.07036249513311],[133.80005083038156,34.06954610766678],[133.8190638905861,34.075228892199675],[133.8185333328471,34.079702495074116],[133.8229877819606,34.08480666659443],[133.82177055766522,34.091708612562456],[133.82601888486374,34.09442916157661],[133.83413250271292,34.097740828676365],[133.83833666690373,34.09521194587467],[133.8421530614147,34.09496638688927],[133.84949027205846,34.099151387426616],[133.85483749705293,34.10416472112502],[133.86301693898065,34.105338332797885],[133.8670844493879,34.10015277533034],[133.87391527876719,34.10113805367831],[133.88012000013794,34.10408861329893],[133.88490499417026,34.10463055915301],[133.8928547213684,34.108196945732516],[133.90133927358863,34.10006533334848],[133.91156416325555,34.104409720732065],[133.92229610867855,34.11441194635427],[133.93196666702818,34.11601082943628],[133.93976722367847,34.114893613349636],[133.93763583672455,34.108176387230515],[133.93956555070963,34.10465749474764],[133.94443082991893,34.101753892328304],[133.94388749731024,34.094495000044276],[133.95647805361932,34.08809916194684],[133.95923082983904,34.085916386831855],[133.95912472062946,34.08249499974448],[133.96277805366435,34.08116638721907],[133.9690461088909,34.081252224810385],[133.97147722369493,34.07783361303086],[133.9730480290434,34.073021251729415],[133.97694306117342,34.07576044099159],[133.98402169874248,34.07443991876727],[133.98874552538575,34.07486749513885],[133.9939341630312,34.07261749480159],[134.0015041631866,34.07522527872368],[134.0021936059502,34.080868054217376],[134.0104291700702,34.0867683325925],[134.01612832676096,34.08637555908484],[134.02178166029546,34.08447166733362],[134.0262574970859,34.08508833335992],[134.0277897278138,34.087428053661824],[134.02561389096832,34.09189110838798],[134.02821832671452,34.093054162019996],[134.03125138834093,34.097394161611305],[134.03706610881397,34.09876694613769],[134.04004027204098,34.10086499971999],[134.04179527922884,34.10559777461765],[134.04223165996325,34.110324161630786],[134.04458138792074,34.113756107658276],[134.0497536057444,34.1173224951371],[134.05340472105115,34.11800499963107],[134.05833333321686,34.1151986130256],[134.06135221793056,34.11103082910955],[134.0668844487584,34.11279110812319],[134.07091749714482,34.112713332954],[134.07193165991828,34.115479440723675],[134.07955639371266,34.12113694621314],[134.08156805392264,34.12128638655753],[134.09448444899817,34.114590558907196],[134.10297693863492,34.115009161843375],[134.10597416317717,34.117127774827],[134.11612165988674,34.11814944064423],[134.11926221837678,34.120273892026546],[134.12233083020374,34.118786387282],[134.12705778199108,34.1231566670466],[134.13117306078823,34.125367775302664],[134.1326816600307,34.12956277540184],[134.1393138912232,34.13408222481485],[134.137709442237,34.13802555863265],[134.13851472127737,34.141499720635636],[134.1375125032995,34.147276387195575],[134.13534111540025,34.15194055910956],[134.13717861200337,34.15472749517784],[134.14069749729174,34.155162775142],[134.14379916999576,34.15865138655232],[134.14574333338817,34.16453000025933],[134.158143890828,34.16756361317027],[134.15931306074924,34.1696683334269],[134.16324333281364,34.16978444129899],[134.16850610876998,34.1744738922564],[134.17310027205997,34.17578944122977],[134.18270832662802,34.17396889235056],[134.18530583669508,34.1742613869535],[134.19506416258105,34.171874161763185],[134.19829194631632,34.17535194623537],[134.2042974966322,34.17269110770849],[134.20940194604304,34.1749083331531],[134.21600805372873,34.17637638736045],[134.2206472235905,34.179860000338806],[134.23702693934183,34.180451107632564],[134.2474277822664,34.17873000038924],[134.25084027236073,34.18050999973673],[134.25657527872625,34.18095416230477],[134.2602636061805,34.183557775171266],[134.27344055823528,34.181133891815705],[134.27715250278584,34.17648110801679],[134.2871563939525,34.18007055860943],[134.29223306060737,34.17914277481924],[134.29609138780734,34.17276082944875],[134.30024277618327,34.170281108086726],[134.30806722422312,34.17075972098439],[134.3106119458846,34.17470861261245],[134.3144463942857,34.1772172246952],[134.32831389077353,34.17316666740783],[134.33407333261823,34.175539441392175],[134.3441933325563,34.17237972104732],[134.34641472096268,34.17573861334637],[134.3480641630308,34.18387416206298],[134.34984221804405,34.18532166676158],[134.35799333312593,34.18465361257421],[134.36869306123583,34.17825500006825],[134.37014389072806,34.17596166679755],[134.37565832667053,34.1717858285532],[134.38311389079354,34.172136946363025],[134.38548722415612,34.16509666667787],[134.39365165999618,34.16354916186435],[134.39709499413868,34.164776945999336],[134.4000544489537,34.167764161986554],[134.4041780536743,34.167046108191414],[134.40741944235344,34.162549441303725],[134.41144221778416,34.16149555907282],[134.4127999998202,34.15711305392438],[134.4195986118865,34.1579405588098],[134.42519360639983,34.16570805368377],[134.43387166034893,34.16951416174919],[134.43292111471771,34.17340444096226],[134.43364000038582,34.178780559375355],[134.43063083014874,34.17896027899371],[134.42926389121567,34.18334777537956],[134.43161944228348,34.18622610774872],[134.43796360623548,34.189449721327605],[134.43886499402436,34.197801108234614],[134.4406961090383,34.1998063868553],[134.44020669258487,34.20785388295042]]],[[[134.09847016876336,34.4016144680333],[134.09830574571367,34.4012213060185],[134.09862924804145,34.40093889191638],[134.098879468213,34.4014021354003],[134.09847016876336,34.4016144680333]]],[[[134.10176111458384,34.404761134718626],[134.10166647173037,34.404819107715696],[134.10159082975304,34.40472202680013],[134.10175330666982,34.40467400030491],[134.10176111458384,34.404761134718626]]],[[[134.05383832737698,34.40922322537159],[134.0511314138837,34.40825664033173],[134.0503213882215,34.4047562253196],[134.0440871079337,34.39607030589997],[134.04274810644006,34.39265730589],[134.0372951355621,34.38692010787673],[134.03562822326398,34.38320869392612],[134.03816878106443,34.379336305825916],[134.04247416305225,34.38109244076361],[134.04874785972606,34.389550224663196],[134.0541730217676,34.390428134750664],[134.05694761284212,34.397473027058595],[134.05383832737698,34.40922322537159]]],[[[134.09924491582024,34.40954905424553],[134.0987845528649,34.40901289193147],[134.09978883298834,34.4090976944031],[134.09924491582024,34.40954905424553]]],[[[134.1337835543676,34.409981162300824],[134.133663021831,34.40996402661858],[134.1336992995831,34.40982989183607],[134.13378639442658,34.40982410829599],[134.1337835543676,34.409981162300824]]],[[[134.1031061999912,34.411069639652226],[134.10251024625097,34.4108809187195],[134.1025364201198,34.41070697274864],[134.10291963743134,34.410781081381856],[134.1031061999912,34.411069639652226]]],[[[134.13676766499577,34.41233897336497],[134.13589241240493,34.41068613455752],[134.13799413701986,34.409903027402834],[134.13762085631754,34.41174358619759],[134.13676766499577,34.41233897336497]]],[[[134.12102399476157,34.41262474823361],[134.11957756205493,34.41089853194177],[134.12237569378328,34.41016902707901],[134.12102399476157,34.41262474823361]]],[[[134.1053994676114,34.41460453197362],[134.10370732843057,34.41340435972347],[134.10602661523615,34.40736736011564],[134.1049735540863,34.404748440787955],[134.10083111486415,34.40378627861389],[134.1009522175708,34.400550748118576],[134.10779021994279,34.40134369385646],[134.11167761323134,34.40455516209113],[134.1074205059516,34.4097376402799],[134.1053994676114,34.41460453197362]]],[[[134.12776389099088,34.416765828580196],[134.12777055766514,34.41687861255798],[134.12759389124517,34.41686749513883],[134.12760055791944,34.41679972133011],[134.12776389099088,34.416765828580196]]],[[[133.92009827531524,34.41850149494809],[133.92336572005195,34.41665553212715],[133.92527775606368,34.41881955008222],[133.92009827531524,34.41850149494809]]],[[[134.12624016874884,34.421153973377216],[134.12287172475033,34.418976279431774],[134.12257165965445,34.4162708291355],[134.12684422807877,34.41650838685263],[134.12624016874884,34.421153973377216]]],[[[134.05346652426078,34.42324013522409],[134.05345216568492,34.42350289194496],[134.05326472089018,34.4234037749643],[134.05346652426078,34.42324013522409]]],[[[134.0626040598296,34.4332239463281],[134.0576564719687,34.431766558979575],[134.05423788626945,34.42416325243221],[134.05516011674604,34.417162720982844],[134.06473230904885,34.422270945747584],[134.06577472132642,34.42919061285653],[134.0626040598296,34.4332239463281]]],[[[133.76524457787502,34.30167369398583],[133.7652836057539,34.301822558764115],[133.76514486374458,34.30184430616987],[133.76507345037953,34.30166513513791],[133.76524457787502,34.30167369398583]]],[[[133.76507683542764,34.30180741418087],[133.76519610891341,34.30225758601881],[133.76456924817228,34.30273822508906],[133.7641621655515,34.30207761279166],[133.76507683542764,34.30180741418087]]],[[[133.790648885138,34.306429108416694],[133.79016822268534,34.306517973126006],[133.79016105059202,34.30648572073949],[133.79063910501077,34.30639613477388],[133.790648885138,34.306429108416694]]],[[[133.79233241241093,34.31723549522195],[133.79159944156106,34.31623758589592],[133.79271011687842,34.316010251671855],[133.79233241241093,34.31723549522195]]],[[[133.71342444907907,34.345141945744274],[133.71309861211137,34.345303892061],[133.7126436711685,34.34499744087924],[133.71317442316115,34.34473644143367],[133.71342444907907,34.345141945744274]]],[[[133.71779208843418,34.36081697342462],[133.7176324120063,34.36090938685879],[133.71690730213038,34.3619023867858],[133.7168507779411,34.36187066679787],[133.7175742276686,34.3608569725713],[133.71779208843418,34.36081697342462]]],[[[133.77966972777574,34.36550266701454],[133.77606749691756,34.36429072084013],[133.7750629182192,34.36195833271091],[133.77579466868906,34.35651364009249],[133.78007063565133,34.35620866739612],[133.78699535695023,34.35991816219348],[133.78542255510695,34.36408141442581],[133.78234111535028,34.36328138742613],[133.77966972777574,34.36550266701454]]],[[[133.68668654974454,34.36666666673335],[133.68642797666985,34.366231440728484],[133.68651228271574,34.36620753225185],[133.68668654974454,34.36666666673335]]],[[[133.73003722413864,34.367990000238365],[133.72982666676728,34.368029440906014],[133.72955472077376,34.36792249532692],[133.72972472141885,34.367758891559674],[133.73003722413864,34.367990000238365]]],[[[133.77561442296735,34.376454946338754],[133.77441374799616,34.37656886526099],[133.77440177712037,34.37649622522065],[133.77560247727263,34.376387251670394],[133.77561442296735,34.376454946338754]]],[[[133.77420250264345,34.377139666762275],[133.7741168611043,34.377139666762275],[133.77412483809087,34.37664272118468],[133.7742124383534,34.37663941437751],[133.77420250264345,34.377139666762275]]],[[[133.6524081057496,34.379115197608314],[133.65207924795902,34.37924197323855],[133.6517191702036,34.37932922456412],[133.6516961349687,34.37926380158325],[133.6524081057496,34.379115197608314]]],[[[133.64946241236055,34.38328405441564],[133.64290749678366,34.37694500041147],[133.64692277636505,34.377339161573104],[133.64798916996426,34.37414444141291],[133.65244749695444,34.373391946281345],[133.65283394283222,34.375880532260794],[133.64946241236055,34.38328405441564]]],[[[133.74941639385156,34.395566386979226],[133.7492152793617,34.3946816672252],[133.7504230607757,34.394641945969056],[133.74941639385156,34.395566386979226]]],[[[133.7880289109056,34.39600738663165],[133.78649204866917,34.39684091877342],[133.78644832722853,34.3967795859092],[133.7880289109056,34.39600738663165]]],[[[133.67446399511732,34.40042461280569],[133.67445082994186,34.40049002679336],[133.673467807993,34.40034694555516],[133.67347930042945,34.40028427899631],[133.67446399511732,34.40042461280569]]],[[[133.71049693908253,34.39909666667785],[133.70841832704423,34.39375444101472],[133.70914128394315,34.38725869363384],[133.7055349683642,34.38539027923804],[133.6994861093965,34.38674833286933],[133.69733769108166,34.37866025216897],[133.69044277601336,34.37772833329598],[133.69072832695076,34.37568833275043],[133.6882122441998,34.36954230563293],[133.6887668093408,34.36574969369349],[133.68507372177487,34.36361158610589],[133.684524694659,34.361246720759596],[133.6873369781191,34.358712225289025],[133.69539639382856,34.35506277462741],[133.6988491699533,34.3520141619241],[133.70885875472777,34.35324719809978],[133.70875189368496,34.35737072098203],[133.71192527922835,34.36334666741482],[133.71562111512242,34.36441749467167],[133.71880583662016,34.36236516172289],[133.72260189386236,34.3624609727957],[133.73051282700544,34.37028553235149],[133.73040810634905,34.37419605440442],[133.7268980542019,34.379407224563806],[133.72490055831418,34.38441666689573],[133.7178344492005,34.39243027923408],[133.7188929962149,34.396403865346144],[133.7124329959861,34.40056966715645],[133.71049693908253,34.39909666667785]]],[[[133.77766277641604,34.40100305404775],[133.7741668085514,34.39712135976299],[133.76767739329716,34.39225958611104],[133.76146185488074,34.389992612868866],[133.75841916960906,34.391140279100625],[133.75672055800737,34.39716555874361],[133.7527074970534,34.398607494840064],[133.75163805385318,34.39461805368029],[133.7545359141012,34.393130639767264],[133.7529052786557,34.388005828806],[133.75688280199972,34.38491177515834],[133.7601877817408,34.37901833342937],[133.75722693927185,34.37511305442399],[133.75763166027298,34.36980027885983],[133.76320778161391,34.36871749511636],[133.76995055837165,34.372210828866685],[133.77200491569442,34.37721638702669],[133.77749785963863,34.38066655871478],[133.78195044086021,34.380697694143294],[133.7883861351121,34.38672713494935],[133.79434444943684,34.39022389241876],[133.78997722376994,34.39194472087223],[133.79055221791054,34.395297495083355],[133.78268805401058,34.39741610806698],[133.77766277641604,34.40100305404775]]],[[[133.77484027216087,34.40419972124022],[133.7734702719356,34.403841387270234],[133.77409583675353,34.40330055927342],[133.77538639356726,34.403337224633276],[133.77484027216087,34.40419972124022]]],[[[133.7839652792743,34.40723416242673],[133.7802725028738,34.404597225181874],[133.78328555098744,34.402926945821946],[133.78934416310267,34.403495278684204],[133.7839652792743,34.40723416242673]]],[[[133.67174949404398,34.41082210755428],[133.66794561629717,34.4089891075613],[133.6588380542329,34.40646861273632],[133.65274097271777,34.409128801952704],[133.65118165980584,34.40672749517779],[133.65690194606805,34.403498613370346],[133.66201325640668,34.397786748359806],[133.66127255498452,34.391136585585],[133.66335610879742,34.390988612934166],[133.6654716344085,34.38301113535567],[133.66803693885367,34.386682774990106],[133.67207917021756,34.38869472118449],[133.67377749673415,34.39163082869982],[133.67695000004255,34.392825278563805],[133.67755761259377,34.39896761306494],[133.67377814514532,34.398498586040944],[133.67175907901833,34.40083372069972],[133.6754180292187,34.40715341409884],[133.67580044073782,34.40992386469463],[133.67174949404398,34.41082210755428]]],[[[133.7778653307205,34.41185074761398],[133.77794319132533,34.41200210801094],[133.77779044057638,34.412073532167824],[133.77774795120706,34.411920080847096],[133.7778653307205,34.41185074761398]]],[[[133.77262374818747,34.414466387114146],[133.77261428012503,34.41425446816925],[133.77290527915534,34.41425355895461],[133.77294511012883,34.414395721085725],[133.77262374818747,34.414466387114146]]],[[[133.77326216611618,34.41456622535105],[133.77318544675109,34.414651494570876],[133.77301736705795,34.41457410790878],[133.77300433228413,34.41448841420902],[133.77323544725812,34.414496224820994],[133.77326216611618,34.41456622535105]]],[[[133.78023649761633,34.41517458613828],[133.77737033667177,34.414720000427735],[133.77823208774078,34.412318973341996],[133.78122291810325,34.41405653188349],[133.78023649761633,34.41517458613828]]],[[[133.77125591442893,34.41524453180972],[133.7711417769715,34.415232747993],[133.77112369610177,34.41508841399917],[133.77133022001374,34.41511413460967],[133.77125591442893,34.41524453180972]]],[[[133.82091469535692,34.347122027159855],[133.82084612205097,34.34786915333882],[133.82081579781084,34.347866982375365],[133.8208712194313,34.34717938681928],[133.82091469535692,34.347122027159855]]],[[[133.82813783419374,34.35526491884099],[133.82855133617534,34.35534144125455],[133.82849784719792,34.35553731539483],[133.8279370425605,34.35543072055134],[133.82813783419374,34.35526491884099]]],[[[133.8276709466569,34.35658861297418],[133.82809116657415,34.35667700014352],[133.82783538319643,34.35745474823807],[133.82723116738453,34.35728941417517],[133.8276709466569,34.35658861297418]]],[[[133.82676355409478,34.35931338700328],[133.82716930032302,34.35942038744099],[133.8270491050322,34.35975497301365],[133.82649396882164,34.35962610825834],[133.82676355409478,34.35931338700328]]],[[[133.8240086635691,34.36910183837921],[133.82350223104322,34.3692192071008],[133.8234272239872,34.36885354995144],[133.8240086635691,34.36910183837921]]],[[[133.8227840864165,34.37132589237609],[133.82322306079573,34.371426999556434],[133.82300805357886,34.372058865024655],[133.8223855509525,34.37191713456815],[133.8227840864165,34.37132589237609]]],[[[133.8524805583312,34.373793134745426],[133.8500157198497,34.37287438734313],[133.8532981967544,34.37223038732259],[133.8524805583312,34.373793134745426]]],[[[133.82225591367956,34.374041333240996],[133.82194053222986,34.373717305709135],[133.8224978340079,34.37366716220981],[133.82225591367956,34.374041333240996]]],[[[133.82185907883354,34.374114801556914],[133.82225357993877,34.3742070540124],[133.8221867827939,34.37441436033453],[133.82165383915344,34.37429555899291],[133.82185907883354,34.374114801556914]]],[[[133.82946403383812,34.394957251875724],[133.82801752289038,34.39038316235309],[133.832789688993,34.38913938737289],[133.83134306113345,34.394156278789296],[133.82946403383812,34.394957251875724]]],[[[133.82047771657346,34.39536916205725],[133.81509002568419,34.39420386461671],[133.81233549938383,34.391920360036636],[133.81504819731651,34.38449633333914],[133.82236596641633,34.382840053725545],[133.82456116656465,34.390193414394616],[133.82047771657346,34.39536916205725]]],[[[133.81186705601988,34.39716055941233],[133.8105650580311,34.39722777474208],[133.8110001950031,34.39380358626653],[133.8122608169832,34.394460990682205],[133.81186705601988,34.39716055941233]]],[[[133.81024944185833,34.39805520678243],[133.81021291769207,34.398326035817945],[133.80997041460307,34.39830934170283],[133.8100447732478,34.398031927831255],[133.81024944185833,34.39805520678243]]],[[[133.8095518287539,34.39970944133768],[133.8098956944308,34.39978322531567],[133.80983337231237,34.39996125240992],[133.80941430622534,34.399875946317934],[133.8095518287539,34.39970944133768]]],[[[133.8085478597959,34.40342495529751],[133.8088998571427,34.4034898737587],[133.80886158199644,34.403640621717386],[133.80848833996492,34.40356691867839],[133.8085478597959,34.40342495529751]]],[[[133.812070726383,34.40868444063449],[133.80883372189885,34.40819099971492],[133.80750983081407,34.405331467673136],[133.81129177679418,34.404268441135684],[133.812070726383,34.40868444063449]]],[[[133.83681355440206,34.415813108388306],[133.83692228333678,34.41398330638452],[133.8381296105931,34.41399272138705],[133.83681355440206,34.415813108388306]]],[[[133.82064710837744,34.41866327938686],[133.82066571984717,34.418289225267586],[133.82111372162103,34.41841269409059],[133.82064710837744,34.41866327938686]]],[[[133.8232030607727,34.42055586486134],[133.82286581140818,34.420554441234515],[133.82264839220954,34.42008022512232],[133.82321024635587,34.420267386630655],[133.8232030607727,34.42055586486134]]],[[[133.79892418939994,34.4267267753205],[133.7988783266735,34.42686749493902],[133.79870022043883,34.42685905390226],[133.79871111482612,34.42667816156796],[133.79892418939994,34.4267267753205]]],[[[133.80460038909678,34.4273651078135],[133.79560802928722,34.4252660541851],[133.80015036284908,34.42183058641251],[133.79998795068343,34.41787200009276],[133.80442488999677,34.415082865182114],[133.80641841807562,34.418977134687054],[133.80914296997219,34.42081672131468],[133.80460038909678,34.4273651078135]]],[[[133.636030025865,34.10358072117339],[133.63588978018925,34.103582667306284],[133.6358674446269,34.103099531718044],[133.63600985676953,34.10309758558515],[133.636030025865,34.10358072117339]]],[[[133.6360480536748,34.10400274782859],[133.63590119258606,34.10400830563884],[133.63588771714444,34.10365094563468],[133.63603447481125,34.10364716218686],[133.6360480536748,34.10400274782859]]],[[[133.45361165985025,34.10481110794632],[133.4536161087965,34.10414610785665],[133.45417138799917,34.10371389188265],[133.45461832677438,34.10419110813319],[133.45361165985025,34.10481110794632]]],[[[133.4533563935828,34.104976108360745],[133.4533655513792,34.10527277491866],[133.45314416257315,34.10519389178472],[133.4533563935828,34.104976108360745]]],[[[133.44849944209568,34.110286387406916],[133.44656166029245,34.10749361293995],[133.4489974974366,34.10667527934072],[133.44991138760054,34.10824916216916],[133.44849944209568,34.110286387406916]]],[[[133.44838916992433,34.110529440881066],[133.44826583689894,34.110673333307716],[133.4482202718482,34.110515828742564],[133.44838916992433,34.110529440881066]]],[[[133.62932160770606,34.12322427897732],[133.62908819676295,34.12500102727563],[133.62902496812785,34.12499477518878],[133.62932160770606,34.12322427897732]]],[[[133.53683697784436,34.1248398291948],[133.53677791217092,34.12489008061277],[133.53601780787562,34.124842612596524],[133.53602243758553,34.12478182921808],[133.53683697784436,34.1248398291948]]],[[[133.6395540858524,34.13302655922837],[133.63902961112774,34.13300946761291],[133.63888105121964,34.13293146761322],[133.63882358004423,34.132731107654536],[133.63922481167583,34.13290053183414],[133.6394732170154,34.13290274776364],[133.6395540858524,34.13302655922837]]],[[[133.527165473408,34.13660610828532],[133.52592622561485,34.13334680241303],[133.52854391736798,34.13210482877486],[133.53083243836636,34.12756946765688],[133.53313566777695,34.125973775369516],[133.5384601426216,34.12583030562416],[133.54191311299985,34.12885549458548],[133.5396218292841,34.132900108253466],[133.53681805430983,34.13120319816909],[133.53330871622438,34.13267353215781],[133.53101464281156,34.13633272067858],[133.527165473408,34.13660610828532]]],[[[133.4633749940608,34.15235141438632],[133.46305639393745,34.15222391929848],[133.4631847208982,34.152083080969476],[133.4634088850121,34.15220308110736],[133.4633749940608,34.15235141438632]]],[[[133.45296722365856,34.15588502697244],[133.45415972828891,34.1529489185578],[133.45641389068862,34.15496753232583],[133.45296722365856,34.15588502697244]]],[[[134.27767070024265,34.28628519840322],[134.27770769115705,34.286503414401125],[134.2773988846509,34.28652916199127],[134.27750221765325,34.28624944135868],[134.27767070024265,34.28628519840322]]],[[[134.2774994423454,34.28823916170802],[134.27783525279472,34.288451999760014],[134.27797749676415,34.2887633333612],[134.27769082976806,34.28877222495828],[134.2774994423454,34.28823916170802]]],[[[134.27460766511172,34.2895739732603],[134.27461031091718,34.28968582913774],[134.27443944242634,34.28967389243621],[134.27444705608684,34.289566802066304],[134.27460766511172,34.2895739732603]]],[[[134.27432075170134,34.29265725213054],[134.2742966408773,34.29282355925989],[134.27418044127444,34.2927801076159],[134.27432075170134,34.29265725213054]]],[[[134.27447858631774,34.2928149185737],[134.27440014295235,34.29297458600837],[134.27430016891776,34.29291238709703],[134.27447858631774,34.2928149185737]]],[[[134.27366975405596,34.29317810798335],[134.27315654963513,34.29248327918003],[134.27416605661824,34.29244374768086],[134.27366975405596,34.29317810798335]]],[[[134.28136277607132,34.294271667403564],[134.28148000000203,34.294503332762645],[134.28132221844567,34.294555559091805],[134.28112527860878,34.294369440797084],[134.28136277607132,34.294271667403564]]],[[[134.27355722368702,34.32331400034087],[134.2723751619842,34.321652775355346],[134.27479350191868,34.32140219815295],[134.27355722368702,34.32331400034087]]],[[[134.26608338534004,34.32372691866243],[134.26595622569937,34.32351908084098],[134.26653144017394,34.32309653167965],[134.26654455318862,34.32361827876059],[134.26608338534004,34.32372691866243]]],[[[134.22947163410868,34.341262306410385],[134.2287756937434,34.34171389198258],[134.22873031125494,34.341668441145714],[134.22947163410868,34.341262306410385]]],[[[134.2281334761791,34.34200466708177],[134.22816461700359,34.34204622475352],[134.22747977966822,34.342514413609365],[134.22758693928586,34.34233941363311],[134.2281334761791,34.34200466708177]]],[[[134.22692883339903,34.34287866691699],[134.2265628273127,34.34355508120211],[134.22646875462942,34.34353427898384],[134.22692883339903,34.34287866691699]]],[[[134.2062358881758,34.34516382894759],[134.20621560306768,34.34523675677099],[134.20476490307783,34.34466175723435],[134.20481224428966,34.34460566741768],[134.2062358881758,34.34516382894759]]],[[[134.2079136193181,34.3463483152226],[134.20666128369135,34.345508261197324],[134.20670862490317,34.345454972768835],[134.2079136193181,34.3463483152226]]],[[[134.19509468197407,34.346383180139696],[134.19381408605125,34.34676716187505],[134.1937900390791,34.34670233334606],[134.19505108913654,34.34630963088483],[134.19509468197407,34.346383180139696]]],[[[134.20949160755174,34.34758008065626],[134.2094553046187,34.34764377514017],[134.20825457838612,34.34670436041796],[134.20832722382238,34.34666922480494],[134.20949160755174,34.34758008065626]]],[[[134.2109045782837,34.34896280179191],[134.21084800283313,34.349031640397925],[134.20981250274485,34.347968225353384],[134.2098872238164,34.347936161824464],[134.2109045782837,34.34896280179191]]],[[[134.2220089113822,34.34825736008912],[134.22105053175665,34.3491177477859],[134.22101955910546,34.34909549496115],[134.22197719768963,34.3482329192139],[134.2220089113822,34.34825736008912]]],[[[134.25057360628693,34.351905585874135],[134.2503353830715,34.351752495181586],[134.25052325594356,34.351635134553874],[134.2506863551912,34.35181264004137],[134.25057360628693,34.351905585874135]]],[[[134.18568741903925,34.35309727032279],[134.18434045404877,34.35295146773609],[134.1843475748807,34.35290812580939],[134.18568741903925,34.35309727032279]]],[[[134.18667732799634,34.35321049496844],[134.18670525284517,34.35296694596781],[134.18697666733942,34.35220602688668],[134.18703302155677,34.352213198080676],[134.18667732799634,34.35321049496844]]],[[[134.2097215300247,34.355512693755884],[134.20960099928675,34.35591791927658],[134.2095693386541,34.35591144056059],[134.20968983072112,34.35550622493241],[134.2097215300247,34.355512693755884]]],[[[134.21651817077702,34.36223577536077],[134.21646566835602,34.36208469375367],[134.21660260722456,34.3620534144336],[134.21660588795146,34.36217061318331],[134.21651817077702,34.36223577536077]]],[[[134.4313880539156,34.234367225167375],[134.43161861220926,34.23453082893468],[134.43138111474673,34.23472249514708],[134.43108306143415,34.23443499987542],[134.4313880539156,34.234367225167375]]],[[[134.43266972812546,34.23533694614321],[134.43312416275,34.235601945773226],[134.43288000041173,34.23572027856807],[134.43250027157035,34.23562444141487],[134.43266972812546,34.23533694614321]]],[[[134.43736888456647,34.23690416229732],[134.437267224303,34.23703944101743],[134.43711805375528,34.23689277508157],[134.43728083014628,34.23684194629885],[134.43736888456647,34.23690416229732]]],[[[134.43719250323147,34.2366166670256],[134.43662972817947,34.2370558293631],[134.4364333333317,34.23629527900397],[134.43719250323147,34.2366166670256]]],[[[134.40977924811386,34.23778816169437],[134.40952871587763,34.2377392520649],[134.409705031562,34.2374777750793],[134.40991917003373,34.237584440969215],[134.40977924811386,34.23778816169437]]],[[[134.44463832679742,34.239316386841836],[134.44425165968642,34.23929389209951],[134.44392610870307,34.23868527860276],[134.44462472095415,34.23871916235953],[134.44463832679742,34.239316386841836]]],[[[134.44585194571084,34.23913082882473],[134.44608250310512,34.239355829308124],[134.44570944183738,34.23934472088223],[134.44585194571084,34.23913082882473]]],[[[134.44735055798196,34.239739161732984],[134.4467402717462,34.23974500013168],[134.4465911146882,34.239373054023304],[134.44707944206266,34.239406945873895],[134.44735055798196,34.239739161732984]]],[[[134.36580466905025,34.25016877486911],[134.36495435825714,34.25031638689177],[134.36495855988971,34.25015461324483],[134.36580466905025,34.25016877486911]]],[[[134.36360461705954,34.25042119837963],[134.36270355392594,34.25062919807908],[134.36265399498598,34.25049694557765],[134.3635641367756,34.2502856939297],[134.36360461705954,34.25042119837963]]],[[[134.36237325632078,34.25074169427381],[134.36154994767196,34.251102612895295],[134.36146338522713,34.25097338661254],[134.36229433181802,34.25061638723656],[134.36237325632078,34.25074169427381]]],[[[134.36126499388445,34.25126797303858],[134.3606527759049,34.25185386516381],[134.36051992175703,34.25177202685762],[134.36113955914345,34.25117861280279],[134.36126499388445,34.25126797303858]]],[[[134.34384185501767,34.257298531701906],[134.3431223865889,34.25787153204561],[134.34305077807096,34.25777972115725],[134.34384185501767,34.257298531701906]]],[[[134.38392894906178,34.26602180176479],[134.38408128432388,34.26627730635266],[134.38395053189163,34.26646661274401],[134.38384165996467,34.2661936127451],[134.38392894906178,34.26602180176479]]],[[[134.3843288847703,34.26727472105159],[134.38385306067028,34.266955000373],[134.38410221784318,34.266705828810984],[134.38451583673657,34.2668138922474],[134.3843288847703,34.26727472105159]]],[[[134.3836491699733,34.268365279434136],[134.38317944237747,34.26782944087603],[134.3837908302827,34.26760833265848],[134.3836491699733,34.268365279434136]]],[[[134.37015944180484,34.27866277496713],[134.36972632920674,34.27842674789616],[134.36974674381725,34.278131198296194],[134.37018844404156,34.27814349472658],[134.37015944180484,34.27866277496713]]],[[[134.37030708170653,34.27877780185412],[134.37012413711932,34.27887022518081],[134.37006752299783,34.27876938689775],[134.37030708170653,34.27877780185412]]],[[[134.30983306104702,34.27891610769228],[134.30984166036444,34.27911082890171],[134.30972749682655,34.27913722490308],[134.30964194611897,34.27897749541512],[134.30983306104702,34.27891610769228]]],[[[134.29551097255342,34.27995299993103],[134.29522655026517,34.27942635963882],[134.2960650583558,34.27917777533412],[134.29644344990538,34.27976394624915],[134.29551097255342,34.27995299993103]]],[[[134.3078216598418,34.282415000152184],[134.30696403396303,34.28101777475058],[134.30842374785777,34.279929640040905],[134.3078216598418,34.282415000152184]]],[[[134.30908027183716,34.28457499993635],[134.30782306098558,34.283801386924495],[134.30845250278082,34.2831138920925],[134.309758327385,34.28322082867834],[134.30908027183716,34.28457499993635]]],[[[133.633070414568,34.19477173922445],[133.630905304836,34.192619261369884],[133.6353032936122,34.19246852330377],[133.633070414568,34.19477173922445]]],[[[133.62788517456124,34.20344154099439],[133.62783298330555,34.20336721562455],[133.62802312606652,34.20331626093673],[133.62800776924325,34.203421576944265],[133.62788517456124,34.20344154099439]]],[[[133.62529456499226,34.20352734171348],[133.62193793808547,34.201430468041735],[133.62770769065742,34.19807194626338],[133.6280703368766,34.20073955038998],[133.62529456499226,34.20352734171348]]],[[[133.62454565455835,34.203862233954965],[133.62466256822302,34.203742748229274],[133.62476415024537,34.203823153016174],[133.62454565455835,34.203862233954965]]],[[[133.63021791162737,34.20486864906894],[133.62831422761963,34.203792801796396],[133.6283546431523,34.203747684608004],[133.63021791162737,34.20486864906894]]],[[[133.60968357983336,34.22098607214957],[133.6075318160406,34.21984169383916],[133.60786994763998,34.216895639821985],[133.61037438417054,34.218217576679876],[133.60968357983336,34.22098607214957]]],[[[133.60985682163505,34.222427377821305],[133.60955706860386,34.22219341379508],[133.60983230881402,34.222103369175215],[133.60985682163505,34.222427377821305]]],[[[133.60417762629652,34.23222437815258],[133.60432241175,34.23195306258384],[133.60646429289284,34.2293459009926],[133.6064883398651,34.22956226078975],[133.6044060963643,34.23211301780157],[133.60417762629652,34.23222437815258]]],[[[133.6539143316811,34.23586322490797],[133.65232653724001,34.236182837667855],[133.65231810609578,34.23614498160566],[133.65390155591217,34.23582500911692],[133.6539143316811,34.23586322490797]]],[[[133.67513398194774,34.240035595366464],[133.67507223089876,34.239988441213654],[133.6757507001348,34.23914214409473],[133.67587578503947,34.23910130588064],[133.67513398194774,34.240035595366464]]],[[[133.7029548116153,34.24183581057423],[133.70264194556944,34.24170559503722],[133.70279007829959,34.24145417067348],[133.70317049332368,34.24137239621916],[133.7029548116153,34.24183581057423]]],[[[133.6766470822971,34.2431531977619],[133.67654169884042,34.24302097313944],[133.67665744518501,34.242892333214684],[133.67679252875223,34.24306353175666],[133.6766470822971,34.2431531977619]]],[[[133.6331397666869,34.26823301793945],[133.63309689960226,34.268257675551354],[133.63279389102536,34.26789394564912],[133.63283621312075,34.267869558733196],[133.6331397666869,34.26823301793945]]],[[[133.6746490396215,34.274550377597905],[133.67019373525272,34.272166288343556],[133.673691855195,34.2697690447057],[133.6809418675732,34.267337541394454],[133.68173850772598,34.272890089705925],[133.6746490396215,34.274550377597905]]],[[[133.65665916958505,34.281265000179644],[133.65663221780267,34.28137638661099],[133.65649610900834,34.28140666678428],[133.65651055841556,34.28124082910102],[133.65665916958505,34.281265000179644]]],[[[133.62643592697657,34.287114242928],[133.6236765371425,34.28674308102842],[133.62145363157993,34.28093047666022],[133.62474159524845,34.27817077476152],[133.627589702303,34.27799032399429],[133.62693347599918,34.271407577098046],[133.62069648515478,34.26854144133449],[133.61767123234154,34.265834685222615],[133.61941941637303,34.2632522163168],[133.61719200970356,34.25909463970589],[133.62283616115997,34.25613940540927],[133.6246836843046,34.260714783660376],[133.6285838776439,34.261278395981265],[133.63232661498137,34.268798467575266],[133.63916889812617,34.2697420632457],[133.6420946427536,34.27167962201702],[133.65074897528507,34.26788075709129],[133.65498638111671,34.27066477485954],[133.6524190918676,34.274812377988894],[133.65632889806022,34.28122787436695],[133.64965012964979,34.279362369277976],[133.64742125798477,34.2810554410558],[133.64432121934885,34.27748869384817],[133.6444597536148,34.274919396413054],[133.6392197152178,34.27230726966479],[133.63247915708746,34.27411113522078],[133.62875955930633,34.2779337476444],[133.6319520491478,34.28199592776991],[133.6309344095954,34.28562190972343],[133.62643592697657,34.287114242928]]],[[[134.1619487155608,34.46267553195031],[134.16194466861168,34.46274274817932],[134.16148608271658,34.46274274817932],[134.16148608271658,34.46267553195031],[134.1619487155608,34.46267553195031]]],[[[134.11038444928295,34.464500829249914],[134.10958194555042,34.463509162118214],[134.11137000012548,34.46346138743314],[134.11038444928295,34.464500829249914]]],[[[134.06931391690375,34.467363161780554],[134.0685068347227,34.46794638741591],[134.06844897504027,34.46789044059142],[134.06925603114098,34.46731522521753],[134.06931391690375,34.467363161780554]]],[[[134.18946778221243,34.472822224666004],[134.18458639434664,34.47012777487697],[134.18553499384495,34.467666945573114],[134.19039444904467,34.470781667440065],[134.18946778221243,34.472822224666004]]],[[[134.17496367093668,34.47471127940207],[134.1740304147719,34.47432149524087],[134.174073696444,34.4742654683767],[134.17496367093668,34.47471127940207]]],[[[134.17554411227104,34.47499999955039],[134.1760824770248,34.475256080603685],[134.17604192029842,34.47531433328987],[134.17554411227104,34.47499999955039]]],[[[134.19479749740663,34.48158833303518],[134.19490977956275,34.48174666677528],[134.1948157716306,34.48190849528089],[134.19457306079823,34.481774161748206],[134.19479749740663,34.48158833303518]]],[[[134.1270749941158,34.48222055913158],[134.122497223668,34.479778054413714],[134.1200744491765,34.48099833280685],[134.1104354992989,34.47955827899142],[134.10813166014805,34.47505610825283],[134.11349917025052,34.47302722512637],[134.11781194556488,34.472955559051854],[134.12548972766888,34.4761369458634],[134.12790583728463,34.479426666807285],[134.1270749941158,34.48222055913158]]],[[[134.0575091441318,34.48789074775988],[134.0574913357566,34.48795602684919],[134.05695732821823,34.487878107788504],[134.05696241208568,34.48780863965703],[134.0575091441318,34.48789074775988]]],[[[134.05647418903266,34.48826972117075],[134.0557698570933,34.48821919815754],[134.05578510959515,34.48814972103287],[134.05647418903266,34.48826972117075]]],[[[134.05833333321686,34.48955730572516],[134.05795169871203,34.48933544117773],[134.05801780787556,34.48928280205973],[134.05833333321686,34.48955730572516]]],[[[134.05951649838778,34.48948282926921],[134.05946819669998,34.48954600034767],[134.058629078869,34.489396495252095],[134.0586367186097,34.48933125213563],[134.05951649838778,34.48948282926921]]],[[[134.09738708194834,34.490762586124504],[134.09780461738922,34.49044294638492],[134.09821066129302,34.49048555896144],[134.0989198567661,34.49048555896144],[134.09891700411652,34.49055422489761],[134.09819922191662,34.49055894633835],[134.09782747096108,34.490518693582885],[134.09738708194834,34.490762586124504]]],[[[134.0616350843917,34.492218801656406],[134.06161980491015,34.49228830576078],[134.05942666690726,34.491953532229786],[134.05943810628366,34.49188722521535],[134.0616350843917,34.492218801656406]]],[[[134.06666666713306,34.49580233291141],[134.0674737223345,34.496528135265294],[134.0674152529117,34.49657653228121],[134.06666666713306,34.49580233291141]]],[[[134.06845749701597,34.49720727899279],[134.06840496761527,34.49726058630705],[134.06777447541174,34.496817162082436],[134.067820220327,34.496762441033866],[134.06845749701597,34.49720727899279]]],[[[134.08554027216587,34.499444721196994],[134.08019444921456,34.499219162234624],[134.0769263938381,34.49682249506213],[134.06946749682754,34.497024441424855],[134.06308972790873,34.49092472129888],[134.05879374833285,34.48808516230048],[134.0546283269358,34.48734610843621],[134.05232138782185,34.48735305390039],[134.04185111543666,34.48839000009849],[134.04130277630213,34.4832727749187],[134.03612610863308,34.48144527877662],[134.03824722442994,34.47898777516576],[134.04368722438596,34.47866138691353],[134.0450680542474,34.47652027918758],[134.05179247674153,34.47225749538717],[134.0623405575708,34.47006027895878],[134.06556277630114,34.4705349995906],[134.07052000039778,34.46745305441499],[134.07574055768066,34.462183612683646],[134.08131972772333,34.45916638721906],[134.08435610874744,34.46041472086273],[134.0893293389779,34.46574674821392],[134.09001111502096,34.4693966674223],[134.09354944185327,34.47295389170881],[134.10270082967963,34.47909000020337],[134.10294639406095,34.48455638716757],[134.10457722375997,34.487013054408976],[134.1026030221118,34.489741360075755],[134.09352505763536,34.49045189194129],[134.08705938987896,34.49472427870256],[134.08554027216587,34.499444721196994]]],[[[134.1640591698948,34.517392774556924],[134.16416138773786,34.51768027882184],[134.16385791241282,34.517631495097476],[134.1640591698948,34.517392774556924]]],[[[134.15118527857783,34.52070666657943],[134.14479360614007,34.5203133327941],[134.14482805377168,34.517450000217366],[134.14957194608849,34.51612444089028],[134.15262861222072,34.51823249493373],[134.15118527857783,34.52070666657943]]],[[[134.19313917003672,34.52175389202853],[134.19322221793107,34.52205416216992],[134.19303165968336,34.52208082886722],[134.19298416288882,34.521824720834275],[134.19313917003672,34.52175389202853]]],[[[134.1646922179715,34.522104440567546],[134.1598927763306,34.51989499965458],[134.16244917029303,34.518876387035675],[134.1646922179715,34.522104440567546]]],[[[134.16015749717087,34.52630277535286],[134.16006778170288,34.526589161760455],[134.15990165983385,34.52648889184894],[134.16015749717087,34.52630277535286]]],[[[134.15812916982543,34.5274755587501],[134.15808832711468,34.52761638718658],[134.15795888499463,34.52753194624239],[134.15812916982543,34.5274755587501]]],[[[134.16238610893186,34.530667224812646],[134.15892111461778,34.53048694581594],[134.15865555111282,34.5287113873207],[134.16238610893186,34.530667224812646]]],[[[134.23804722380044,34.5362722251831],[134.23712778212155,34.53555666700663],[134.2379858369768,34.53503222465747],[134.23876861228166,34.53599610813393],[134.23804722380044,34.5362722251831]]],[[[134.29764277589345,34.55169916228658],[134.29703194556794,34.55152444110013],[134.2982400003758,34.550495559122794],[134.29835416301432,34.55166277481726],[134.29764277589345,34.55169916228658]]],[[[134.27743693856394,34.552277224914064],[134.27765472108854,34.55241472136237],[134.27739027184361,34.55267222514311],[134.2771569391415,34.55235027864251],[134.27743693856394,34.552277224914064]]],[[[134.27890277594247,34.55325805431579],[134.2789052787557,34.55341472071285],[134.2787730613278,34.553425559342145],[134.27876805390258,34.553270829185465],[134.27890277594247,34.55325805431579]]],[[[134.27963472066585,34.55412082881327],[134.27971499415173,34.554258053666274],[134.27948221812994,34.55424527879666],[134.27947944192272,34.554095000284065],[134.27963472066585,34.55412082881327]]],[[[134.28286832661206,34.55732666729193],[134.2830725032935,34.557453612893994],[134.28282749739117,34.557681946264836],[134.28269111520285,34.55735222512516],[134.28286832661206,34.55732666729193]]],[[[134.28083610879946,34.55780277467835],[134.2803288848702,34.55693222464248],[134.28160888544176,34.55617972141704],[134.28207861213832,34.55679694592237],[134.28083610879946,34.55780277467835]]],[[[134.28380111512945,34.557879162193615],[134.28331082993088,34.55788777500089],[134.283171388249,34.55752972072008],[134.28356972766085,34.557431108259095],[134.28416194561737,34.557538053838186],[134.28380111512945,34.557879162193615]]],[[[134.1997980292557,34.482708774990044],[134.20415533090386,34.48090049466214],[134.20732428009148,34.48318216192729],[134.2120770298311,34.48151586476541],[134.21812367107066,34.47428091872945],[134.2218178342257,34.478618559399024],[134.2283864203971,34.480649748387236],[134.23345622612396,34.47645141360192],[134.22947522690026,34.47242091929007],[134.22957574592397,34.46888697305542],[134.23612277624522,34.47054780233924],[134.2407866666714,34.46326774810814],[134.24199483839118,34.458358027101326],[134.23813294358058,34.456147945871066],[134.23890138818854,34.45060855913772],[134.23582383889914,34.44743310785168],[134.23449272356038,34.44395525233307],[134.22773744532685,34.4426287478185],[134.22348477260425,34.43835810844001],[134.22685313926104,34.43659133272388],[134.2361945007757,34.438360720970536],[134.23865072555066,34.432514667218186],[134.23782483764626,34.4306767479336],[134.23287007769204,34.428260972865644],[134.22633788618452,34.426941054086456],[134.22455868993165,34.42504866736215],[134.22897547274,34.42108882918615],[134.2310741117809,34.4155959733755],[134.23291383870276,34.41469749489352],[134.2392870039921,34.4154475591576],[134.24566469467004,34.41877758591693],[134.25126758792885,34.4244102251518],[134.24673635469912,34.42725797337681],[134.24864121861742,34.43345786538822],[134.2516704671184,34.43627397276566],[134.25130671922977,34.43901133280684],[134.2555145265742,34.44171758619768],[134.26005652378956,34.448048801710854],[134.26263861228222,34.44968830627039],[134.25955077834578,34.454439000159766],[134.26500422766298,34.46035955914641],[134.26762569387074,34.467877892350884],[134.27603847029923,34.46898844086388],[134.27877588789693,34.4709360000964],[134.28305194569077,34.4713579997719],[134.29267092072644,34.47582577503954],[134.29634435810567,34.47974946766385],[134.30097494214,34.476601559014796],[134.3019522830715,34.478271162084525],[134.30391250295975,34.47685516243587],[134.31021158209887,34.477462667068494],[134.31299625187557,34.47295966715495],[134.31600299574177,34.471014531595415],[134.3174707522735,34.46479144067251],[134.31666108903812,34.459642494605475],[134.3121555773181,34.4602424683153],[134.3073635541847,34.46295425163743],[134.30077416309723,34.459777721164926],[134.29720085623455,34.46242325233129],[134.2949908946141,34.4608719460835],[134.28986530483996,34.46239305399632],[134.2842323607349,34.460789360440685],[134.28296160789193,34.45912058564659],[134.28461005171255,34.45235500028309],[134.28716732790997,34.44983827901342],[134.28435566767996,34.44564566661427],[134.29225641959817,34.44679663965326],[134.29984230897549,34.45265827865671],[134.3001565500848,34.45630361312129],[134.3043964461391,34.45777841404265],[134.30786572032684,34.45589861333042],[134.31203655024672,34.45555958600613],[134.3196319967193,34.458011135205766],[134.32530147937985,34.45094430573516],[134.32482680911005,34.44952030571761],[134.3299551364205,34.44584553194579],[134.3297679119596,34.44070289192496],[134.33326827481108,34.43506972119076],[134.33779413728962,34.43290146832817],[134.34037791201115,34.437823197982254],[134.33671114130618,34.44342749508286],[134.33538380042216,34.44729030630265],[134.33721406018083,34.45094769438066],[134.3401461090558,34.450994720829726],[134.34942163390133,34.46120553161006],[134.34934097280768,34.46418974835825],[134.35274683489854,34.470128559085765],[134.3512460309796,34.472751531657934],[134.35359641993887,34.47766335977627],[134.34792483826072,34.47912127862418],[134.34302155639978,34.48449874781903],[134.34280341144836,34.48793333335669],[134.35125763942858,34.49273422470475],[134.35059586340844,34.498246198303434],[134.34730321696998,34.50039366693426],[134.35000688660864,34.5060996665664],[134.3541751102931,34.50784872114161],[134.35637907883154,34.51168174771453],[134.35538555100243,34.52413044136682],[134.36005374828187,34.52901982870219],[134.35836308668718,34.53367400015503],[134.35499058404832,34.53876961282742],[134.35162841821705,34.5383343328632],[134.34519997429948,34.540835693712324],[134.3442727238072,34.54399782873685],[134.34760483789307,34.54653925168515],[134.34790938970662,34.551064134802004],[134.35519619964498,34.55775116168684],[134.3573300516406,34.556855972924836],[134.36314824889268,34.55773116166381],[134.36349741877098,34.56051758601785],[134.35642080377716,34.560849053640936],[134.35397505790263,34.557470252150495],[134.34609036337963,34.55775489207468],[134.34742739266005,34.56099527890905],[134.3511238652742,34.563946999554446],[134.34475778214596,34.564568612751316],[134.33683488981842,34.56236905358901],[134.32909333319083,34.56392500033854],[134.3194427757636,34.55980472131091],[134.31477306132774,34.55909389176975],[134.30840083043404,34.55456694560809],[134.30471444911257,34.54917277510356],[134.29522111476274,34.5467155592757],[134.28024194560942,34.547334720920674],[134.27765610874246,34.548839441387145],[134.27293111477923,34.54758833333494],[134.26879194639127,34.549476108335796],[134.2680125030746,34.553522224770916],[134.26265749714582,34.55209110841798],[134.25698555124222,34.54799916163205],[134.256428611891,34.54318027934647],[134.24868389144854,34.53973972141108],[134.24197771709805,34.53513105385508],[134.23960972840632,34.530079305615516],[134.22994639431067,34.526987225080404],[134.22407830087297,34.52947036026899],[134.21751744527398,34.52592149518091],[134.21377083005984,34.52294027857107],[134.20298693889617,34.52003722473819],[134.19184433155067,34.520681080867234],[134.18546121886027,34.515763080701674],[134.17864897487038,34.51765622465507],[134.17048360643332,34.52628833314009],[134.16514355443155,34.51879353159626],[134.16682394307054,34.51664430569019],[134.1644877822854,34.51169110785838],[134.16084527888654,34.5098505589562],[134.1665488854228,34.50539055922695],[134.16546499371452,34.50001138671615],[134.1681855508226,34.498901107999814],[134.1713622827432,34.494412919021045],[134.17645352830777,34.49154469413236],[134.17284863815416,34.48902574793999],[134.16703518842326,34.493449891699186],[134.1625544494284,34.49224499980693],[134.1564367185798,34.49204302736388],[134.1506219459461,34.485010559190016],[134.14802472096414,34.483500558803826],[134.14469277595094,34.47879861266591],[134.14371389088342,34.47281166662515],[134.14132250273133,34.470208333447886],[134.144526939167,34.4679780543438],[134.14747055782004,34.4683597212242],[134.15172639435764,34.461300278784904],[134.156059728174,34.46140166655374],[134.15940333289757,34.46356527891453],[134.16111610882137,34.46362055934139],[134.162813606163,34.46233500006025],[134.16826805372773,34.46475305401026],[134.17106469527948,34.4736132521499],[134.1757785862128,34.47663089220197],[134.18146683502653,34.47561253229259],[134.1847783006781,34.479397467619094],[134.19219856011557,34.481385532316494],[134.19444321668118,34.48475730560523],[134.1997980292557,34.482708774990044]]],[[[134.29111596592918,34.42476866704038],[134.29119669267334,34.424988829171184],[134.29094924780964,34.42509969399572],[134.2908834111406,34.42487727906325],[134.29111596592918,34.42476866704038]]],[[[134.28952185464993,34.426372053927196],[134.28733924770813,34.426356386837824],[134.28781907918722,34.42514172111362],[134.28952185464993,34.426372053927196]]],[[[134.251362606699,34.43404736019755],[134.25114192026342,34.434016532337125],[134.25097914387243,34.433749973282715],[134.2511006359856,34.43360091874746],[134.25142518782218,34.43390282925225],[134.251362606699,34.43404736019755]]],[[[134.34712581130725,34.440528972933805],[134.3450010253771,34.43991477464721],[134.34760272358687,34.43738080168271],[134.34976499415927,34.438907224588775],[134.34712581130725,34.440528972933805]]],[[[134.32534719821467,34.447317802174894],[134.32182975364026,34.44770002663495],[134.32165046659577,34.44543897273047],[134.32534719821467,34.447317802174894]]],[[[134.34902338532106,34.460053359774804],[134.34883160759273,34.46015049464967],[134.3487616987934,34.46006046801625],[134.34893311317273,34.459996558594355],[134.34902338532106,34.460053359774804]]],[[[134.22914936385212,34.464903774989295],[134.22937422763857,34.46541574823823],[134.22916513616212,34.46543044136183],[134.22896936364532,34.46510794627477],[134.22914936385212,34.464903774989295]]],[[[134.22959878115887,34.46541738680298],[134.22999586331855,34.46595466697437],[134.2292858368719,34.46597946757839],[134.22959878115887,34.46541738680298]]],[[[134.31042243804518,34.469906720618724],[134.30973391708665,34.46982627895966],[134.30991075167992,34.46961846811786],[134.31042243804518,34.469906720618724]]],[[[134.31218311276052,34.47055586476142],[134.31206938989044,34.47020013522808],[134.3125831905619,34.46976489213614],[134.31276425376734,34.47039602735481],[134.31218311276052,34.47055586476142]]],[[[134.2220083268229,34.47730491878701],[134.2224410886854,34.47758469427828],[134.22237988262555,34.477621748145225],[134.22197941631703,34.477359162295556],[134.2220083268229,34.47730491878701]]],[[[134.23098433156167,34.47716825241298],[134.23043099939116,34.47776819824378],[134.23036861162223,34.477728720703965],[134.23092204901343,34.47712877487311],[134.23098433156167,34.47716825241298]]],[[[134.3010332559801,34.474170973012065],[134.30258069963963,34.47587766682091],[134.30090452702234,34.47652413458121],[134.29899407291816,34.47786755894077],[134.29758357981837,34.475356828954546],[134.3010332559801,34.474170973012065]]],[[[134.35300914375705,34.490104197850485],[134.35269705562473,34.489983694092246],[134.35285252862138,34.489684468063786],[134.35304481176877,34.48971686524118],[134.35300914375705,34.490104197850485]]],[[[134.3536084438747,34.491798305647364],[134.3524846168716,34.491457162218296],[134.35288830095442,34.49022630599927],[134.35442000018293,34.491397386979884],[134.3536084438747,34.491798305647364]]],[[[134.34878938981853,34.50058627923346],[134.34875664100628,34.501266135224],[134.34897221839321,34.502189333371064],[134.3488109987287,34.50214969395324],[134.3486215556403,34.50126230591076],[134.34878938981853,34.50058627923346]]],[[[134.3742644494448,34.541176107791216],[134.37416722373848,34.54136277467239],[134.37396999971577,34.54132361279454],[134.3740602718641,34.54113082872482],[134.3742644494448,34.541176107791216]]],[[[134.38638722429107,34.5567844408493],[134.38626666657342,34.55670833302321],[134.38641138817513,34.556486667225954],[134.3865444491671,34.556746386936254],[134.38638722429107,34.5567844408493]]],[[[134.01363360560651,34.44229082935834],[134.00780861217777,34.44211916226959],[134.00376666679824,34.44013610769525],[134.0071194419088,34.435561386848576],[134.01035083012675,34.43609416231578],[134.0142719461934,34.43990110765003],[134.01363360560651,34.44229082935834]]],[[[133.9654649941142,34.44480110788487],[133.9652319455979,34.44478889239355],[133.96525555100288,34.44462166705637],[133.9655083270477,34.44459889172555],[133.9654649941142,34.44480110788487]]],[[[133.96919522727796,34.447266747662354],[133.96907321715526,34.447226747616355],[133.96909749705196,34.44714330581894],[133.9692188848437,34.44714280219864],[133.96919522727796,34.447266747662354]]],[[[134.01681027187658,34.45091999975824],[134.0143697276809,34.45086916198227],[134.01492513638595,34.449491441077214],[134.01681027187658,34.45091999975824]]],[[[134.0046857199701,34.452904945606804],[134.0032866932264,34.454279467623394],[134.00322160839062,34.45423158591899],[134.0046857199701,34.452904945606804]]],[[[134.00362289218276,34.454810721437696],[134.00255280237002,34.45588580158852],[134.00248411215216,34.4558288915901],[134.00355058399236,34.454756828664756],[134.00362289218276,34.454810721437696]]],[[[133.9721974448563,34.45370661296988],[133.97143197070898,34.454087054074364],[133.97054588758272,34.456803387066714],[133.97046005179004,34.45678794570716],[133.97135797718897,34.454051135151815],[133.9721974448563,34.45370661296988]]],[[[134.000656277865,34.4595775320775],[134.00060333297745,34.45971666709056],[134.0004383271671,34.45969653216929],[134.0004699743099,34.45956416185663],[134.000656277865,34.4595775320775]]],[[[133.96547111490008,34.46183638713961],[133.96090749708344,34.45874194588413],[133.95638333342413,34.460558613289436],[133.95593639374965,34.45774999996257],[133.95867277622767,34.454482225174615],[133.9649502716378,34.45399861294567],[133.96695360592423,34.45565416230977],[133.96547111490008,34.46183638713961]]],[[[133.99809000035327,34.464099999615314],[133.9979752792358,34.46443638742937],[133.99783861196238,34.464376107671285],[133.99785350203751,34.46417877483066],[133.99809000035327,34.464099999615314]]],[[[133.99445422838005,34.465150531871586],[133.99441165987025,34.46521394576706],[133.99384503212264,34.464934892431415],[133.99388247719457,34.46487430600445],[133.99445422838005,34.465150531871586]]],[[[134.00435194558588,34.47318000015696],[133.99877389070252,34.4700655588785],[133.99984508398347,34.46246680200136],[134.00435916983986,34.46202916221614],[134.00676888527585,34.466528054026526],[134.00935472124343,34.46809027894329],[134.00873610908423,34.471293333120855],[134.0041572243765,34.46918249477636],[134.00435194558588,34.47318000015696]]],[[[133.94796944183634,34.473550000132434],[133.9479302718646,34.47379000040826],[133.94774749724922,34.473695279313745],[133.94796944183634,34.473550000132434]]],[[[134.00139666722248,34.47711138738066],[134.0009199995584,34.4769836126037],[134.00108630398984,34.476486134627464],[134.00142822263444,34.47687805377922],[134.00139666722248,34.47711138738066]]],[[[134.00151499372203,34.47730249511409],[134.00153321668472,34.4776143602146],[134.0011577560257,34.47754908112523],[134.00151499372203,34.47730249511409]]],[[[133.9537025029682,34.477819440714654],[133.9507333327772,34.47345527903792],[133.95486832741142,34.471094440855836],[133.95488610880693,34.4682519455709],[133.95884055824524,34.468567774882956],[133.95839111485816,34.47166361278556],[133.9537025029682,34.477819440714654]]],[[[133.9959380539981,34.47776249474339],[133.9926261090078,34.47572777501688],[133.99652277610528,34.4726452785568],[133.9959380539981,34.47776249474339]]],[[[133.96981499416665,34.47798527929723],[133.96576944160654,34.477013333398645],[133.96689666714758,34.466475000321054],[133.96992194604104,34.46036194594711],[133.97454236144085,34.457388801651916],[133.9732863943517,34.453104161627834],[133.97628194615493,34.44901722496502],[133.97956749694254,34.44941000027137],[133.98430027184008,34.4462780536893],[133.98767527909092,34.44655389194861],[133.99111639370665,34.443104999995796],[133.9931297275549,34.44622138740715],[134.002551660231,34.44517777543405],[134.00896138835742,34.447566107689795],[134.0117352788601,34.454225278973524],[134.0050516604059,34.45280222504272],[134.00304111535524,34.450672494639946],[133.99973527856037,34.45489389163981],[134.00094749722928,34.456523053995795],[133.99940527863077,34.46100749460027],[133.98864066083786,34.46768625221881],[133.98312555130326,34.471974440967756],[133.98232861167617,34.47562110822764],[133.97784805434435,34.4753497207131],[133.97191805427485,34.47311805395509],[133.96981499416665,34.47798527929723]]],[[[133.97234389135758,34.48051194616943],[133.97162639424278,34.474774999966314],[133.97595722434653,34.47516389200007],[133.97234389135758,34.48051194616943]]],[[[133.99528666694619,34.484317225059954],[133.9955286115562,34.48469722459731],[133.99512832691084,34.484790279248045],[133.99528666694619,34.484317225059954]]],[[[133.99607389119717,34.48503194596759],[133.996260272094,34.48538444063945],[133.99561138785532,34.485837775393065],[133.99546861238662,34.485183891823226],[133.99607389119717,34.48503194596759]]],[[[133.97202666719704,34.4866555586072],[133.97163194575774,34.486642774744325],[133.97184472085723,34.48642444093525],[133.97202666719704,34.4866555586072]]],[[[133.99408306108444,34.486820279332505],[133.9896805577116,34.48437166731867],[133.99404055822527,34.482822495162054],[133.99408306108444,34.486820279332505]]],[[[133.96417194617845,34.48710416202749],[133.96367805379919,34.48701916170501],[133.96344333344314,34.48632082914298],[133.96472306062083,34.48653805408799],[133.96417194617845,34.48710416202749]]],[[[133.96486555100444,34.487440000355775],[133.96505722441145,34.48762833278141],[133.96486555100444,34.487718053645324],[133.96468832700475,34.48759527909891],[133.96486555100444,34.487440000355775]]],[[[133.97004639422573,34.48889277508158],[133.9697752792058,34.48837110804027],[133.97061194638434,34.488401107625066],[133.97004639422573,34.48889277508158]]],[[[133.98393111542873,34.494271667003886],[133.98393639444907,34.49446222525154],[133.98379111526776,34.49434610838625],[133.98393111542873,34.494271667003886]]],[[[133.98421306098408,34.49462861331989],[133.98429055826273,34.494725559337155],[133.98418527912736,34.49482722499647],[133.98411805390515,34.494769440857056],[133.98421306098408,34.49462861331989]]],[[[133.97328055775165,34.49493305361756],[133.97233916991684,34.493422494752394],[133.97329306102597,34.49295722509589],[133.97328055775165,34.49493305361756]]],[[[133.9790552790779,34.49509749465369],[133.9771880535859,34.49324777536458],[133.9799833326647,34.488189441389636],[133.98354055785057,34.488912224719456],[133.9790552790779,34.49509749465369]]],[[[133.97614455312873,34.49757397306047],[133.9735799996173,34.49678389166331],[133.97618194604001,34.49571555912581],[133.97614455312873,34.49757397306047]]],[[[133.9733945782972,34.501818441268085],[133.97337975387256,34.501882865102175],[133.97313486398286,34.50184897325158],[133.97314841766536,34.50177922543094],[133.9733945782972,34.501818441268085]]],[[[133.9718366674283,34.502109162407976],[133.97037138762948,34.498414161984044],[133.97297555088107,34.497555000063244],[133.9718366674283,34.502109162407976]]],[[[133.97795360597422,34.50420472127092],[133.97667805434878,34.50211222459956],[133.97405277591497,34.50047249520952],[133.97725111494708,34.49944055913454],[133.97922416276492,34.50128027886183],[133.97795360597422,34.50420472127092]]],[[[133.97510693873426,34.50383861266192],[133.97460472133093,34.50458166671058],[133.97432138812167,34.50428222484487],[133.97446138828252,34.50379972058067],[133.97510693873426,34.50383861266192]]],[[[133.97891221762484,34.50559749502844],[133.97822027204802,34.50541610806698],[133.97781027202655,34.504541666664636],[133.97854749666965,34.50442722523633],[133.97922917019014,34.504958333360435],[133.97891221762484,34.50559749502844]]],[[[134.0075580538612,34.498035828890465],[134.01054749656976,34.494180278796875],[134.0110627757266,34.487158613279405],[134.01373083041358,34.48667749487055],[134.01536861187196,34.481283333359215],[134.01911194635932,34.48007638741541],[134.0207094417874,34.48636972078606],[134.02027722401476,34.48921638712659],[134.02415666729644,34.50423416237675],[134.0238825026754,34.50683861341133],[134.01944499409126,34.50336582916975],[134.01898917001427,34.49821027938094],[134.016848326689,34.496512774844746],[134.0119555507082,34.49617277535333],[134.0075580538612,34.498035828890465]]],[[[133.97201111522088,34.51233305382743],[133.97184832713867,34.51222889165007],[133.97203444903062,34.51206666744281],[133.9722433327637,34.51213972117125],[133.97201111522088,34.51233305382743]]],[[[133.97362693883224,34.51251610813193],[133.9704341630063,34.50912333297549],[133.9706316604229,34.50573610843469],[133.97560138779386,34.50527389197657],[133.97362693883224,34.51251610813193]]],[[[133.97644527922637,34.512362774622375],[133.97646805365787,34.51250944055829],[133.9762427761832,34.5125727753134],[133.9762680543273,34.5123983329168],[133.97644527922637,34.512362774622375]]],[[[133.97689805370226,34.51280305391788],[133.9768422183937,34.512628332731424],[133.9770497279626,34.512580279256554],[133.97711360590824,34.512793891624824],[133.97689805370226,34.51280305391788]]],[[[133.97592472104907,34.51311305382444],[133.9758102724262,34.513000278839854],[133.97603778201812,34.5127852788176],[133.97618194604001,34.5129927748967],[133.97592472104907,34.51311305382444]]],[[[133.9749691697914,34.513436666768825],[133.97492444920408,34.51373666711356],[133.9747538909794,34.513716387401416],[133.97475555112783,34.513467224832596],[133.9749691697914,34.513436666768825]]],[[[133.97714111527034,34.51340555921922],[133.97719416268058,34.514088613198965],[133.97681999974327,34.513998054166905],[133.97714111527034,34.51340555921922]]],[[[133.69472916971552,34.254691945676825],[133.69472083030212,34.25490582874107],[133.69448221768027,34.25478305419466],[133.69472916971552,34.254691945676825]]],[[[133.72641306061428,34.25727025162087],[133.72685094681378,34.257823694408046],[133.7267023086647,34.25802802667215],[133.72641306061428,34.25727025162087]]],[[[133.70164505787318,34.25943225239661],[133.69953997429047,34.25830430559927],[133.7002873279979,34.25685322519621],[133.7029702457803,34.258093026971665],[133.70164505787318,34.25943225239661]]],[[[133.72854771660388,34.25868400026644],[133.7279063291138,34.259526225255115],[133.72773060967995,34.25888846832822],[133.72854771660388,34.25868400026644]]],[[[133.6228738913171,34.30168222495479],[133.62187250341333,34.301691387247786],[133.62128194560535,34.30097027935494],[133.62021639377167,34.300423612959435],[133.62052194563137,34.30002333281061],[133.62145166026596,34.30044055888476],[133.62194027182613,34.301184441209045],[133.6228738913171,34.30168222495479]]],[[[133.6218861092566,34.3019674953037],[133.6217366671135,34.30200138715435],[133.62164861179406,34.301837775293166],[133.6218655507546,34.30186610843418],[133.6218861092566,34.3019674953037]]],[[[133.6843040603842,34.31133300001801],[133.68394321730568,34.311623694178195],[133.68368530523276,34.31268116200607],[133.68360411174046,34.312683775435914],[133.6838643323731,34.31159605441445],[133.6843040603842,34.31133300001801]]],[[[133.66432999992958,34.32553916230256],[133.66167389093744,34.32402889211971],[133.6644469387753,34.31675555942161],[133.67052307418055,34.30792405415184],[133.6732345013712,34.30629021622053],[133.68013444904568,34.30581749478159],[133.68266639403896,34.310227225106416],[133.6801255511533,34.31711138698097],[133.67333194561286,34.32046138678362],[133.6680966673274,34.32442333297047],[133.66432999992958,34.32553916230256]]],[[[133.6465849937025,34.334281387376166],[133.64522583660312,34.33679972113026],[133.6401161090712,34.33751333317383],[133.64097861197342,34.333480828877214],[133.6465849937025,34.334281387376166]]],[[[133.62132499435302,34.35439194603151],[133.61736639364426,34.35108722529526],[133.6207749941707,34.34200082877527],[133.61995610928705,34.33354277507908],[133.62259499356412,34.33091666657094],[133.6274066668842,34.33137333331274],[133.62998686140463,34.337552108343175],[133.6317217507583,34.338978360263184],[133.62960472058148,34.342645559045366],[133.6232847214128,34.349661387063406],[133.62132499435302,34.35439194603151]]]]}},{"type":"Feature","id":"JP-37-capital","properties":{"Kind":"capital","PrefectureCode":"37","PrefectureName":"Kagawa","CapitalName":"Takamatsu","CapitalNameJapanese":"高松市","PointKind":"prefecture-representative-point"},"geometry":{"type":"Point","coordinates":[134.043289,34.340111]}}]}
