{"type":"FeatureCollection","bbox":[138.9157679118597,35.12850383788185,139.83566286614837,35.672412081052755],"displayBbox":[138.9157679118597,35.13723563981296,139.79611180311724,35.672412081052755],"DataVersion":"2019-boundaries-v1","Attribution":{"BoundarySource":"MLIT National Land Numerical Information, via Fabio Crisci / piuccio","BoundarySourceURL":"https://github.com/piuccio/open-data-jp-prefectures-geojson/tree/513fb852832c99470e16b95a30ddd68bf3469dc0","BoundaryDate":"2019-01-01","CapitalSource":"Geospatial Information Authority of Japan (GSI), prefecture representative points","CapitalSourceURL":"https://maps.gsi.go.jp/","CapitalSourceRetrieved":"2026-10-04","Notice":"Simplified and enriched by Ashiato Kai. Modern geographic context, not historical immigration-era boundaries. See GEOLOCATION.md and THIRD_PARTY_NOTICES.md."},"features":[{"type":"Feature","id":"JP-14","bbox":[138.9157679118597,35.12850383788185,139.83566286614837,35.672412081052755],"properties":{"Kind":"prefecture","PrefectureCode":"14","PrefectureName":"Kanagawa","PrefectureNameJapanese":"神奈川県"},"geometry":{"type":"MultiPolygon","coordinates":[[[[139.6770320880605,35.45813502740964],[139.676983021949,35.458148027109814],[139.67671308683953,35.457643171095526],[139.67676444892027,35.4576259194007],[139.6770320880605,35.45813502740964]]],[[[139.69474936369227,35.465281332667416],[139.6944475233346,35.4691665316102],[139.69239697823798,35.472012054013135],[139.6780301952374,35.46741380240513],[139.6725857202548,35.465226386788345],[139.6731092740738,35.4606169997748],[139.67719817125862,35.45816002676389],[139.69548822330296,35.44982519817438],[139.70224785965104,35.45512069416475],[139.6980736707634,35.46091697313983],[139.68842697772288,35.45700117116718],[139.68469286578318,35.45886046823608],[139.69486786016364,35.46376691930794],[139.69474936369227,35.465281332667416]]],[[[139.7070636446715,35.47232258631834],[139.70702169939193,35.47230350540252],[139.707326640612,35.47184108120098],[139.70731080355085,35.47203177524631],[139.7070636446715,35.47232258631834]]],[[[139.71107852135674,35.48560191899344],[139.7109050322415,35.485527359799846],[139.7109656942115,35.48543386538063],[139.7111351876389,35.48551066658405],[139.71107852135674,35.48560191899344]]],[[[139.72532834033075,35.46979643205975],[139.7418435803171,35.47702513500201],[139.73506620034493,35.487359694294526],[139.73895678262943,35.48906372071417],[139.73411713409848,35.49459786529928],[139.7021870043269,35.480537251992644],[139.70026632942768,35.47868505417199],[139.70594557692687,35.47453533313916],[139.71270739323165,35.464253865323656],[139.72532834033075,35.46979643205975]]],[[[139.131341387695,35.671994586081325],[139.1300024770328,35.66761319789083],[139.12749247729607,35.667248747631675],[139.12389827468564,35.662918467913016],[139.11981022016562,35.660408198379685],[139.12006741907624,35.657497919393506],[139.11726377360435,35.65489653234914],[139.1269687553039,35.64190044115247],[139.1236209471491,35.63407989167371],[139.12438953295066,35.63075099985883],[139.12346505776623,35.62405961306075],[139.12603810627365,35.6230051984312],[139.12979450071566,35.617932414149664],[139.13371477321823,35.615810747967714],[139.1277853046481,35.61264491942757],[139.1324075231887,35.60891963972966],[139.13301613488682,35.606481585756626],[139.12933328070642,35.5945963326547],[139.12459688693684,35.592647413647285],[139.12143766481643,35.58691825197582],[139.12401211356826,35.582154107825886],[139.1277709991324,35.58100022458075],[139.12810902730985,35.57523161324838],[139.12701788616653,35.571711612800755],[139.12964177694653,35.567038278593714],[139.12841092072745,35.56264772091566],[139.12128586285235,35.55617327937341],[139.11521944192373,35.55371105432175],[139.1119607781675,35.54979355892567],[139.1133857719359,35.547864387231755],[139.11171383872272,35.5445352247209],[139.11392185510954,35.5384874413424],[139.10663569358246,35.532174359758926],[139.10411455304427,35.52689102709928],[139.0943045008521,35.52187130641573],[139.08578997422796,35.51208630573848],[139.08076053187312,35.51273602724592],[139.074466303677,35.50993961322263],[139.06855405982208,35.51089072093009],[139.06008124465382,35.50749936040722],[139.0533384436144,35.50882910787709],[139.05140233544944,35.510578026654684],[139.04601922210952,35.509663053707015],[139.04393338491786,35.49943972076653],[139.03938197090133,35.49492558634677],[139.0369350316265,35.49094864036749],[139.0306202719081,35.488701999897444],[139.0278744492465,35.48452783798939],[139.0275494423529,35.480967802422185],[139.02368555104738,35.48097310842229],[139.02095027203745,35.478793080736125],[139.0148583013696,35.47991089217396],[139.0081413621342,35.47455891875916],[138.9977966153216,35.47497364022138],[138.98882158185063,35.47364058594434],[138.98503518782377,35.46854669367502],[138.97876933863415,35.46374169422387],[138.9734634761586,35.46654502673164],[138.96923014335653,35.4635152791069],[138.9592523091468,35.4622291712393],[138.95448255502595,35.45983666702864],[138.93210961057014,35.44284889176299],[138.92740374788468,35.437644721027084],[138.92672758810772,35.43048722460577],[138.93064452682347,35.42632917135421],[138.93016978011133,35.42087055902914],[138.92672586320805,35.42002555873262],[138.925663605591,35.41531083772503],[138.9180663038169,35.411339170766155],[138.9157679118597,35.40431527942667],[138.91640291776048,35.40061361322773],[138.92322905267872,35.40122135977799],[138.92579822330947,35.400265251839926],[138.93132050583677,35.40110802721375],[138.93773413702093,35.39914858613838],[138.94573391688687,35.39971941371999],[138.94803669303906,35.40127025232033],[138.96254097338726,35.40141077498731],[138.96640878124037,35.40190133268044],[138.96945992193787,35.40490272108377],[138.98006191982176,35.40464605367248],[138.98407083040456,35.40177189235902],[138.99359535684027,35.40346966669182],[138.99817732802137,35.40257074844135],[139.00179705608934,35.39893519770129],[139.00095783393692,35.391909918707825],[138.99861749670015,35.38404046769347],[138.99929693900265,35.38209353169117],[139.00591586292683,35.37538461260982],[139.00526583744852,35.37403655943973],[139.00683910514067,35.36138572067455],[139.01229219203105,35.358091000399384],[139.01181411243135,35.35542599981011],[139.00811488969043,35.35030350460312],[139.0109171079382,35.343884332695836],[139.0108209731095,35.33816294566344],[139.01901099915835,35.32930655885065],[139.01679596626093,35.323176865220205],[139.00963286616388,35.31364853195424],[139.01069591428507,35.31059827888754],[139.00604141368035,35.29799105364424],[139.0066578081114,35.2955710814403],[139.003040000096,35.28941246831084],[138.99720830132208,35.288701639669],[138.9942652267589,35.28538389225287],[138.9859520880185,35.278279441443146],[138.98224119297674,35.27332391886381],[138.98152785972297,35.269619748053],[138.97547111460028,35.26375280215018],[138.97437413685702,35.25616391892976],[138.97557997393676,35.251914505350214],[138.9744558105873,35.247828387070456],[138.97601136163507,35.241878386978044],[138.97873968888564,35.239393386595566],[138.97604994794676,35.235693108050555],[138.97951442335204,35.23321727895433],[138.98061105125907,35.22821508066147],[138.9836455248212,35.221675639719024],[138.98228160761016,35.217584801797216],[138.98780775632292,35.212662585609905],[138.98809800262075,35.20904480187613],[138.98643435755957,35.20555897296828],[138.9877446428011,35.20082425193772],[138.9930543840527,35.19881286512168],[139.00113691323804,35.190709504939775],[139.00302355419376,35.18775561333092],[139.0106758108401,35.18264033338471],[139.02162783385756,35.18191144096028],[139.02166335887694,35.17951533316614],[139.0264089113423,35.17561699962488],[139.02613586277994,35.173258918764134],[139.0291241894298,35.17029864017019],[139.02778666732092,35.16701697265523],[139.02944775560945,35.16477725156898],[139.0263732811021,35.160554748402944],[139.03052577204676,35.15874919841684],[139.0284113103338,35.15487419778606],[139.02843461716395,35.15072474834852],[139.03042795098918,35.14975280155062],[139.03961577215023,35.150668054187406],[139.04860055786946,35.149626667137056],[139.05141442323713,35.14716361291045],[139.0603383662227,35.146124171093675],[139.06613197061404,35.14412583793711],[139.07282533142393,35.14518444070944],[139.08358644635746,35.14111194625934],[139.0900989750877,35.14018527942716],[139.10124372192024,35.14036944079709],[139.10851150490214,35.141872225023235],[139.11159666695266,35.14136693733434],[139.120052724154,35.14917033314441],[139.12303780784862,35.15043030581404],[139.12641345002078,35.14942272068208],[139.13182744518053,35.15083986516771],[139.13843097271126,35.14914135968604],[139.14256345014314,35.14501755891325],[139.14765066134896,35.14453230632091],[139.15071978039362,35.14064813530325],[139.15538228316586,35.141850694354105],[139.1618125032445,35.141605333219616],[139.1575731386895,35.147332278961585],[139.14923577221316,35.14762169428582],[139.1488736323123,35.14824668533629],[139.14843933890438,35.14947089196812],[139.1436097277068,35.151876054136665],[139.14423133640707,35.15974630644695],[139.14065708165901,35.16132883805551],[139.1404921918612,35.1632580268365],[139.1449053054356,35.16720086512788],[139.14339344974792,35.17283466718618],[139.1387905315579,35.17606189244242],[139.1362436452281,35.180632053726356],[139.1369189488505,35.1848356936124],[139.1400623087286,35.18788930564699],[139.13773900105411,35.192600693767076],[139.13830403430381,35.19959517098039],[139.14131569386427,35.20335127943804],[139.14220189390232,35.20846177499095],[139.14165046739527,35.21553744120001],[139.14282936438372,35.21920202655235],[139.14191007828754,35.22563697256828],[139.14326944223103,35.23121997282357],[139.1485396627753,35.23893536007887],[139.1577473931278,35.243415332851384],[139.1712905581128,35.25395308136967],[139.18390111534427,35.259392747677225],[139.19425741934447,35.266511108301074],[139.20659680939525,35.27651186533035],[139.21642097284973,35.280082360012955],[139.22149089458912,35.28107102700636],[139.2338043320044,35.286444333239444],[139.2497897795747,35.29280074775636],[139.2598509467639,35.29551510763616],[139.29036644565497,35.30144174783845],[139.31754992219123,35.30722074813906],[139.32143661490795,35.30974563974951],[139.33077549879033,35.31233841398665],[139.33833894918325,35.3135892792219],[139.35856144015838,35.31508525198285],[139.36786855998616,35.31417260378271],[139.37450325622035,35.31535566733021],[139.38292900087276,35.31517969428751],[139.38431849480276,35.31620119822679],[139.3971127502533,35.316101306030475],[139.40332610871303,35.318209171216324],[139.4088118032222,35.31779722506195],[139.41474033739667,35.31612172064092],[139.42347530494146,35.3183589461085],[139.43267830126263,35.31926077456512],[139.44453247739193,35.31885230608913],[139.45446121940984,35.3178012252464],[139.46872866419653,35.31499699971181],[139.4766163552606,35.31139574821526],[139.48288852128826,35.304745386690286],[139.48660702999052,35.30722383820961],[139.4901716080334,35.307634504628766],[139.49388583686198,35.30557238705609],[139.49687975369773,35.30649199960612],[139.5096431651001,35.305010720868154],[139.5161170823376,35.303318441393],[139.52583177671522,35.30181869417743],[139.53166671934366,35.30374858622832],[139.53440844379475,35.30860925191547],[139.5395117771469,35.309384721128026],[139.54692749680657,35.30681402704579],[139.5521076646371,35.302883081389155],[139.55122639378317,35.29866492824391],[139.55217016931795,35.29452023442133],[139.5610594155596,35.29286617073723],[139.57104652357827,35.293220892130535],[139.57330518798415,35.290075864909284],[139.5686156677789,35.284158531790865],[139.5710560312109,35.27531333344365],[139.56891099884353,35.27227164012413],[139.5709869129157,35.27033380166364],[139.57037635508482,35.26888486524439],[139.56925335905532,35.26918655901255],[139.56738089501232,35.26729494570526],[139.57236260674892,35.266144505064915],[139.57696447543026,35.26272538696708],[139.57950788588028,35.25444233324714],[139.58591461656636,35.25149361274009],[139.59983505794162,35.238887386643626],[139.59967861187852,35.235011558636586],[139.60406914437556,35.23159980238904],[139.6026588329388,35.22541335973881],[139.60856374821844,35.222128279296726],[139.61293250273286,35.2231245590512],[139.62146302200097,35.220038747690126],[139.62670038941155,35.21674989189404],[139.6270060833641,35.21319213520894],[139.62305513588592,35.20760977527095],[139.617119169714,35.20818902680219],[139.61409494212796,35.209934558732925],[139.60900713377225,35.20890497258648],[139.60808566771948,35.20595105399798],[139.60501608282607,35.203694774594226],[139.60621505807853,35.19927997299243],[139.5991824118389,35.19638972100887],[139.60292383886417,35.19348658623704],[139.60506411201925,35.19489653164965],[139.6090717248802,35.193088504930586],[139.61027705564163,35.19013789224999],[139.61621605702544,35.18968622483948],[139.61809411215359,35.1858448021959],[139.6161670556652,35.18089922521909],[139.61846046717687,35.17902135984792],[139.62016880674514,35.17347889203728],[139.616769442256,35.171590467725935],[139.6168605579685,35.16694217064469],[139.62257788636043,35.16557305355366],[139.61643744493222,35.16161089242877],[139.61071172496622,35.16347235956181],[139.6120283917969,35.15975733303452],[139.6160382232854,35.16020791856067],[139.61388871589156,35.15571789226698],[139.610595862609,35.152848080974195],[139.61608031065782,35.14733927928438],[139.6113329703404,35.14642713470454],[139.60762097272982,35.14273269365896],[139.61497338461402,35.139099386727366],[139.62304594031798,35.13902541389177],[139.6274986375521,35.13723563981296],[139.63013472134037,35.139892801911344],[139.63993050578824,35.141068170859455],[139.64606055824822,35.13774044096863],[139.65189102495094,35.14220969382234],[139.652806200246,35.13952466712976],[139.65699542220102,35.13906113496347],[139.66428455328958,35.140233946239675],[139.6633486639098,35.14309122458042],[139.66539069962118,35.14648364000806],[139.66634333257878,35.14658833278537],[139.66893055799892,35.14466474768],[139.6690991700907,35.141972252117796],[139.67417988279544,35.14112564023617],[139.67702007761454,35.139374467757534],[139.67982678258,35.14664689214044],[139.67933902717448,35.148983278655464],[139.68099138844184,35.151041225172435],[139.6805661997704,35.15274044111851],[139.67952466882844,35.15316255860523],[139.67998727559234,35.15407586510912],[139.6786740342793,35.154810387289615],[139.67937033707142,35.15673227897156],[139.67694530528172,35.15789744061442],[139.66839208802446,35.15761125205768],[139.66336542187673,35.15940386529621],[139.6604341122445,35.16432244102788],[139.65999055761824,35.171205504830255],[139.6557964721295,35.17343363995059],[139.65498691321557,35.18079094594543],[139.65601795086775,35.184051802248916],[139.65945367134987,35.18867072117689],[139.66711841778078,35.19555622483995],[139.68546391662653,35.207088279100844],[139.69270405984457,35.20941280175947],[139.70337710776732,35.21025466701934],[139.71476175055443,35.21181261296175],[139.71681241166357,35.21066569406656],[139.72497741857308,35.21191197275937],[139.72506121919992,35.2149714411791],[139.72237046742316,35.21847180223193],[139.71597891099805,35.21833335969683],[139.71340849480623,35.22393077518518],[139.71766085636352,35.228347000413805],[139.7213319204318,35.227238532032686],[139.72260308696298,35.22418210781808],[139.72673807979857,35.22453277506759],[139.7292728270794,35.22914044077879],[139.72771569412407,35.233172413576085],[139.72015980523088,35.240312892126326],[139.72718011726863,35.239646972929506],[139.73321972760846,35.24083994610669],[139.7341782097567,35.24596325160286],[139.73781105083935,35.24952925237312],[139.74641778225487,35.25333646840335],[139.7462158107112,35.25631277471484],[139.73955219227992,35.261406747923104],[139.7355188588084,35.262649171222336],[139.7331603894405,35.26155550478279],[139.72735919567037,35.264145531591055],[139.72108092144742,35.26317155862057],[139.71629022031743,35.2637606937011],[139.70319625230525,35.26395608130815],[139.69458927357618,35.265082694410864],[139.69099486412176,35.266484224867156],[139.69015992184302,35.271090081142404],[139.68458975401404,35.2735914141125],[139.6857701168974,35.275584586059836],[139.6801916078565,35.27929569424094],[139.67732014271053,35.280051197604735],[139.67413457764872,35.286909720707115],[139.68001569416901,35.28934613521602],[139.67742566826007,35.292211081176504],[139.6798041367516,35.295822000385044],[139.67420722398424,35.30046083839704],[139.66871713358887,35.301832837815255],[139.66179094729443,35.300666053795396],[139.66541771705408,35.29260833330801],[139.6575140342453,35.29095810793041],[139.6607354993439,35.28719180206008],[139.66083121868587,35.28290438672809],[139.6552070816416,35.28477022456627],[139.65435613502768,35.28594622483848],[139.65229610927804,35.28802022515333],[139.65117530489647,35.28761444115361],[139.6496523093067,35.28805033265678],[139.64893233455962,35.29148519788362],[139.64683594022654,35.295535170611686],[139.6424442799796,35.29918946771983],[139.63894380021623,35.29497197287827],[139.6353646954244,35.296159468284884],[139.63244386469262,35.301439081348576],[139.6389560049157,35.300677306112846],[139.64495975388957,35.30867480170082],[139.64490097330133,35.31268244064216],[139.64822527857382,35.31262113475759],[139.65310619969148,35.31740850479872],[139.65606581098848,35.31759541359753],[139.65569241157561,35.32157050517475],[139.6612245776522,35.32225953155216],[139.66066856010605,35.328174414018065],[139.6489920882144,35.327420441300376],[139.64073238718993,35.330373467761376],[139.6387627630911,35.32668516189074],[139.63570778228836,35.32359294555806],[139.63588156907917,35.32337187421268],[139.63517073863875,35.32258399975183],[139.63440932582978,35.321936081385104],[139.6317342933031,35.32498733269932],[139.62346900119348,35.33011010759543],[139.62979360579038,35.32959658571389],[139.63495005220318,35.3326704405884],[139.6338030613623,35.33596608086998],[139.63901688721967,35.340642387336345],[139.6457894935903,35.33968046797929],[139.65695333302995,35.34193486510202],[139.65692741906525,35.35349394578901],[139.65483525334434,35.35366908066362],[139.65097797655244,35.35983810794238],[139.6509360573532,35.36641650481789],[139.65651364458904,35.36653997274158],[139.6565051361032,35.37268472102312],[139.65415702962332,35.374768837811644],[139.6504750576778,35.37323561333295],[139.64589321689846,35.378093332841104],[139.6510691444255,35.38276810776199],[139.64942247676595,35.38409908100783],[139.65320557657617,35.38738727939949],[139.64568069990446,35.390539225105215],[139.63968330733883,35.38537441409801],[139.63381280191936,35.38284569407358],[139.62859289214828,35.3841601350822],[139.62742933939262,35.38620708109198],[139.6365300261399,35.39029480196359],[139.63391525268685,35.39381341385803],[139.6313023354345,35.39455861278981],[139.6246195326654,35.39166517091098],[139.62217910538152,35.396085505142025],[139.62602330693016,35.40163680159719],[139.63210033716086,35.40039619762649],[139.6453640342229,35.4028274680133],[139.64176136179742,35.40692289157823],[139.6312990007483,35.404807440610966],[139.6277168607446,35.40914066740794],[139.63104658892905,35.411027359624995],[139.63381250334442,35.40838505432686],[139.64290866380384,35.41179897344392],[139.65257868975482,35.41301919787776],[139.66319844385316,35.40661927865682],[139.66588846987702,35.40853202693154],[139.6688684697042,35.40644891918231],[139.66955455260063,35.40287694601432],[139.6794462776237,35.41085517092944],[139.68126219229646,35.41495661275752],[139.67800581101937,35.4161909997149],[139.67978155567437,35.42193746793987],[139.68151907914228,35.42280538655939],[139.68138469524752,35.424421891856866],[139.67992802915523,35.425555640180676],[139.6788585598747,35.42683291940375],[139.68121763898296,35.42642191933618],[139.68539383875475,35.42665713521865],[139.69061389061858,35.43922397280812],[139.68534869009,35.44200413518274],[139.67830619987126,35.43037953169011],[139.67534610923565,35.43158835991494],[139.6812932171083,35.44124202719786],[139.67628583692192,35.44329280162157],[139.67115099941918,35.43884280235352],[139.6685458882822,35.440225278873584],[139.67431577215518,35.449712441176246],[139.67035758783243,35.45130227887711],[139.66406686069718,35.44284138692052],[139.66028077783574,35.44125880225198],[139.65697714707778,35.444339784253714],[139.66362705624374,35.44675753243422],[139.66160396924784,35.44934269391024],[139.6571441116115,35.45133413466266],[139.65185577242607,35.44512519816942],[139.64668464278213,35.44811736042789],[139.64413433183404,35.453850559156024],[139.63850238687576,35.456801531565475],[139.63790596638728,35.46738005444598],[139.63988243792426,35.46844272125463],[139.64197124467728,35.473437946204285],[139.64465655015977,35.47597861282276],[139.65156525273426,35.47639755929998],[139.64832352770873,35.48038446796886],[139.6514518293385,35.481516198214024],[139.65388452694947,35.47665180213903],[139.66914955910488,35.477486559157455],[139.6731400515722,35.47513213494011],[139.66790469504565,35.47356286473445],[139.6684178598964,35.46782941419616],[139.67459364468107,35.469574586398096],[139.67566678319554,35.47124769412585],[139.68177438408065,35.47289041376166],[139.6817719837901,35.478356360058],[139.68646972829538,35.47980013526808],[139.68948905277762,35.47891461331881],[139.69280077833332,35.48140638739494],[139.68833019538226,35.48976186531786],[139.69321373532568,35.492413036132746],[139.69630099909193,35.48404435975942],[139.71796625174125,35.49366933327315],[139.71120639415983,35.50396017112507],[139.71410761337575,35.503026612788005],[139.71978075178038,35.49434991861392],[139.73136810625317,35.499063612595705],[139.73006069974156,35.511222279384754],[139.73240783405436,35.50992417096376],[139.73381208765784,35.50060380232367],[139.7487711407756,35.506844198001374],[139.74905372215164,35.509275459394985],[139.74646102525617,35.51555705391496],[139.74605438420258,35.518980891654905],[139.75587610869547,35.527786467671376],[139.75637311272908,35.53034394621619],[139.76095819736304,35.53027402662508],[139.7701113361693,35.51386735999074],[139.7762376393556,35.50955605416863],[139.78018992232717,35.51331144136998],[139.79074566807822,35.50787810808828],[139.79419785964353,35.511779332949914],[139.7915601948472,35.513378440862425],[139.79611180311724,35.518582027038974],[139.79017345014472,35.52001546813938],[139.78761124476318,35.52446525157018],[139.77446404677835,35.53222429731352],[139.7764963806036,35.5344699997907],[139.76807910486684,35.53933922522509],[139.75648691294077,35.54455313471942],[139.74677719810927,35.54382844122961],[139.739406640604,35.545124558551606],[139.7346380034412,35.54098346831245],[139.72611189444842,35.5434704139285],[139.71730238659597,35.53800405394401],[139.7057423607214,35.536245748042916],[139.69993236078983,35.53836217117731],[139.69794267191685,35.541451613101515],[139.69844603055992,35.54540161269432],[139.70353355383054,35.54941102689742],[139.70307581060024,35.55332213530835],[139.69778358004828,35.55612908129211],[139.68961775565492,35.55728689187663],[139.67878972756398,35.56298774828599],[139.6764066932144,35.56603830622288],[139.6712589486416,35.578521639961764],[139.669309222043,35.58471883760433],[139.66332977994546,35.589866081254684],[139.6568370039247,35.58968608104783],[139.6504325287383,35.59258413465017],[139.64892308683102,35.594875531680486],[139.6398880802708,35.60013025240926],[139.63116641999432,35.60723802711334],[139.62487472069188,35.609761918677634],[139.61794055831024,35.6138774681707],[139.6155813883704,35.61332774767749],[139.61219167270758,35.61585302689571],[139.604737223744,35.615824666774984],[139.60006805429737,35.61839855884648],[139.59188972842833,35.617709107989015],[139.58638639371713,35.620455224728914],[139.57734557663707,35.62182130570875],[139.5711175232551,35.62441074795771],[139.5625106362569,35.632384026601585],[139.55742508430023,35.63399486527089],[139.54942817057372,35.634374586018396],[139.54772094706414,35.636693468129124],[139.5359509726593,35.63948233324311],[139.53088763935318,35.64195844112919],[139.52538875538687,35.64264761319686],[139.5211831387909,35.63677041412336],[139.5232597804146,35.63217013544346],[139.517455862598,35.63066069443556],[139.51615055780212,35.6257035054125],[139.5143702715709,35.62466017132988],[139.50341910470797,35.62286158569367],[139.4948813099246,35.6173907479847],[139.49578099889402,35.612358532120595],[139.50002347600264,35.60728046791934],[139.49757483790847,35.6048688018538],[139.49403927379353,35.60578410755056],[139.489068975353,35.60466689236324],[139.48655121896365,35.60843410834747],[139.48126844388366,35.61005661302232],[139.476711776927,35.615327999987244],[139.47623652389655,35.61888744110257],[139.46786208826484,35.620521639662],[139.4653381967005,35.624062468408226],[139.46073594041138,35.62216108126893],[139.452414228434,35.61578300028526],[139.4492805839319,35.61177605382187],[139.45287197076493,35.607447999925284],[139.45737724956052,35.60721217070517],[139.46379810589792,35.60916105373968],[139.47027505834728,35.603486053738436],[139.47119224362723,35.6010602251493],[139.47688364456462,35.59954466695285],[139.47929447515992,35.595743559118034],[139.48188586264246,35.59536827922278],[139.4863130865798,35.59165327877582],[139.4944594424494,35.58630717073942],[139.4939266409018,35.5827816133808],[139.49921635515068,35.580969946206096],[139.5054574451051,35.57478689220136],[139.50657494178017,35.57171577486315],[139.50060185519158,35.57044272065508],[139.49626710764096,35.564640224666675],[139.49103097320096,35.56142577517943],[139.4890790270755,35.5632041080832],[139.48641350218145,35.56894605361754],[139.48374880736162,35.57195772127187],[139.48629744467144,35.57853522512062],[139.4883013356382,35.578419108255275],[139.48986941604073,35.583578559303135],[139.4849830216492,35.58460883792759],[139.48220299597153,35.58172050509728],[139.47600632892897,35.58073161327337],[139.47324046667427,35.57667353225776],[139.47325182870895,35.573851027103274],[139.4696670815706,35.56949825174297],[139.46829177714392,35.56329602689016],[139.4704098307492,35.56040519844123],[139.4797276129391,35.55938855893493],[139.4819903629649,35.555629387386375],[139.48239338514668,35.54741633329718],[139.48033252932282,35.543146333336665],[139.48163722437846,35.53994577477772],[139.4867133073733,35.53560605397627],[139.4857730221073,35.53135244056273],[139.48779771709098,35.52788246760184],[139.4864709994372,35.520301081130015],[139.48328321664724,35.51915302729043],[139.47698678331346,35.511214135124305],[139.48113089527465,35.50531138721078],[139.4803519969472,35.502970558944185],[139.47638308730973,35.5013536129789],[139.46780085612465,35.50226719827265],[139.4682678335937,35.50620553185985],[139.46484814532573,35.510901612619364],[139.46328486370555,35.51783827871367],[139.45612763887948,35.52032213515844],[139.45482308681608,35.522741360025805],[139.45824985724516,35.52804994564855],[139.44865050631586,35.535247639966656],[139.44509747107145,35.541130720606304],[139.44069500636954,35.54296930628851],[139.43600693856945,35.54682955893702],[139.42871897480086,35.550377306167775],[139.42391167308529,35.55589263963367],[139.42244119340637,35.55943541361347],[139.41799802898595,35.56191761260777],[139.4134270556142,35.566247135097285],[139.4089768611933,35.575329999979544],[139.40324756192547,35.57556525183497],[139.40124348929567,35.577533676238204],[139.39914758779105,35.58465033264679],[139.39482508361084,35.58411699959993],[139.39108452712924,35.58525950462251],[139.3886181454111,35.588533080937],[139.38532958459268,35.58819265786491],[139.37704542200868,35.591713522561065],[139.3727821660642,35.5949777747046],[139.37047439687603,35.594394360211595],[139.36237616103108,35.59921682899352],[139.3592470949775,35.59860179343809],[139.35488544690588,35.60030130616042],[139.33789106432118,35.60434692796838],[139.3294851101498,35.60368164908891],[139.3205636322059,35.606515973133696],[139.31403478617653,35.60435256761696],[139.3047719579596,35.604688081289964],[139.2991999222387,35.60622864873318],[139.2968447335976,35.6094427483842],[139.2926051226284,35.61180827922874],[139.28287370895453,35.6132664408936],[139.2798794944432,35.61148089182973],[139.274273671193,35.611047306188254],[139.26827144027482,35.609235081433894],[139.26584199731042,35.60735146759623],[139.2647750578227,35.60245869431333],[139.25770533073648,35.604230667211596],[139.25222367058598,35.601667333180956],[139.24687000015047,35.60522053210195],[139.2386375620739,35.60697674797859],[139.23797977994298,35.60935008134123],[139.2298814397767,35.61456755934546],[139.22887450125734,35.62022589221118],[139.22544980466478,35.62375310791964],[139.22023228259388,35.62557169357882],[139.22143396930232,35.62946641364414],[139.21545924774614,35.636943360048065],[139.21446341135743,35.641396667022605],[139.21573483779264,35.645559721404084],[139.21146121896015,35.64911666690068],[139.20526538289118,35.65157805378419],[139.1980300780258,35.65294858640817],[139.19255894893638,35.65037386516178],[139.19153394303714,35.64739802739712],[139.18405642016774,35.64508858636924],[139.1791628024215,35.645567747853306],[139.175246135301,35.649731613423285],[139.16933749682812,35.65147522530145],[139.16716894898786,35.661831585958964],[139.16160367077282,35.66790658641986],[139.15359780789254,35.66602155884789],[139.14716031139926,35.6668171081231],[139.13673141412357,35.672412081052755],[139.131341387695,35.671994586081325]],[[139.51831031117194,35.62957069363267],[139.51808919575979,35.629230170735866],[139.51747447496712,35.62952822494765],[139.51740308678313,35.62988402732606],[139.51831031117194,35.62957069363267]]],[[[139.65826461741824,35.460094505357176],[139.65829839235698,35.46015405396645],[139.65789822282477,35.460890107692364],[139.65722369621665,35.46197000011546],[139.65649335858166,35.46300553167998],[139.65644185530743,35.462978414422366],[139.656690584403,35.4626537213922],[139.65725350244725,35.46184094560323],[139.6575840338761,35.46133277468783],[139.65804900136038,35.46055472082378],[139.65826461741824,35.460094505357176]]],[[[139.65593169868896,35.46370446768708],[139.65559082955326,35.46408705367463],[139.65555880739316,35.46407089195816],[139.65589702982413,35.46368538677126],[139.65593169868896,35.46370446768708]]],[[[139.64570038876195,35.47471097343271],[139.6420458884071,35.47169061293147],[139.65291552543124,35.463611467894964],[139.6522790005755,35.46697302668389],[139.65596116677455,35.4702240812764],[139.6503922184262,35.47444605384237],[139.64570038876195,35.47471097343271]]],[[[139.69213811917894,35.41008125214813],[139.68887761271174,35.41279391860451],[139.68417275007243,35.40897677495826],[139.68018891078964,35.410188441443495],[139.6711553827148,35.40291335956397],[139.67638191958997,35.399762252026335],[139.682250441105,35.40450202724679],[139.68537310038835,35.40190943197473],[139.68160840520375,35.39887717074487],[139.68538164664574,35.39574126984377],[139.68921206158745,35.39883242317785],[139.68641111498107,35.401290648944325],[139.68543644593535,35.4046824861079],[139.69213811917894,35.41008125214813]]],[[[139.68139138800223,35.42473072084613],[139.68131330706353,35.42479119755575],[139.6811987550186,35.42469244120326],[139.68127639439012,35.42462953182746],[139.68139138800223,35.42473072084613]]],[[[139.68085791196313,35.42526774830799],[139.68077994793634,35.42532722497151],[139.68059172522806,35.425163559150974],[139.68067002560122,35.42510163992881],[139.68085791196313,35.42526774830799]]],[[[139.68027364491286,35.42599408126188],[139.68021111505095,35.426041864940146],[139.68006102539607,35.425910332795695],[139.68012358043893,35.42586255900994],[139.68027364491286,35.42599408126188]]],[[[139.68909763904492,35.443315333236114],[139.68900027214488,35.44331530625641],[139.68830094673137,35.44261497270287],[139.68835783424674,35.44257772098507],[139.68909763904492,35.443315333236114]]],[[[139.66211644611712,35.444837108445824],[139.66181927414027,35.4450908917313],[139.6616929175941,35.44499191864219],[139.66199007787986,35.44473805441771],[139.66211644611712,35.444837108445824]]],[[[139.67409700397366,35.452631531719874],[139.67384616057188,35.45234880195568],[139.6734044747368,35.45153072106598],[139.67345177727782,35.45150772090466],[139.67389894897735,35.452339027224355],[139.67409700397366,35.452631531719874]]],[[[139.64337425361896,35.402064467900914],[139.64157569406314,35.40203550523444],[139.64172160816577,35.40150661303983],[139.64337425361896,35.402064467900914]]],[[[139.6344554466616,35.322060640186464],[139.63452975404493,35.32204417090179],[139.63483124456639,35.32229791911374],[139.63467102494792,35.32227577510696],[139.6344637743838,35.32214119785806],[139.6344554466616,35.322060640186464]]],[[[139.63430175072529,35.330393108055546],[139.62954238737132,35.328801864714364],[139.63357632878456,35.323093775057714],[139.63810050593372,35.32701953162615],[139.63430175072529,35.330393108055546]]],[[[139.6488065886532,35.3353933871951],[139.64633422824215,35.335060387127214],[139.6471914143524,35.33384261334601],[139.6488065886532,35.3353933871951]]],[[[139.64579286604794,35.33869350520115],[139.64219169908768,35.3382751082097],[139.6416777167533,35.33566163967299],[139.6458139173784,35.33433941413273],[139.64579286604794,35.33869350520115]]],[[[139.65259888493063,35.37900008058932],[139.6484436708388,35.37559410788185],[139.6484758629707,35.37556694565808],[139.65259888493063,35.37900008058932]]],[[[139.6538188593529,35.3799903870468],[139.65334367107357,35.37966222533146],[139.65338160807482,35.379631332719896],[139.6538188593529,35.3799903870468]]],[[[139.6549906606905,35.38022208118417],[139.65449328074033,35.38027380209434],[139.6544865502142,35.38022441402552],[139.65498306141922,35.38017286488588],[139.6549906606905,35.38022208118417]]],[[[139.65638036326322,35.38006097303554],[139.6557998310974,35.379624026627596],[139.65396805418243,35.379203332767645],[139.65398243793925,35.379175666923516],[139.6558274447808,35.37958627938332],[139.65638036326322,35.38006097303554]]],[[[139.6544396370797,35.384878865167536],[139.6526865886152,35.386297945893546],[139.65265133609034,35.38626869364532],[139.6544396370797,35.384878865167536]]],[[[139.83493282708832,35.490443531643734],[139.83566286614837,35.49183461287714],[139.83410092092083,35.492070198380986],[139.83369450110035,35.49102186496714],[139.83493282708832,35.490443531643734]]],[[[139.78313544664366,35.49486244134863],[139.78199508380612,35.49488638669743],[139.7784621663959,35.4932294137065],[139.7506151358799,35.480892693742874],[139.75065272394409,35.48083163966851],[139.78203871621383,35.49473725212255],[139.78313544664366,35.49486244134863]]],[[[139.71957841780977,35.49463925209983],[139.71907461670025,35.495410640188936],[139.7189631394374,35.49536194639677],[139.71946693874827,35.49459055920698],[139.71957841780977,35.49463925209983]]],[[[139.71355289175267,35.50064341386252],[139.7133879767738,35.50087813511789],[139.7132969779732,35.500835413723394],[139.71346191993177,35.50060066728702],[139.71355289175267,35.50064341386252]]],[[[139.71369019484666,35.50068066737896],[139.71349024587823,35.50096136017868],[139.71337635483496,35.50090705371758],[139.71357616081127,35.50062638699819],[139.71369019484666,35.50068066737896]]],[[[139.7712031131332,35.506218251870905],[139.76118858568475,35.505732251941936],[139.73628328074892,35.49445366710313],[139.74044525324587,35.48816455874743],[139.7456105840613,35.48501325156036],[139.75827258071513,35.490820639860715],[139.75611311332955,35.494077225283775],[139.7589136714289,35.495320892345376],[139.76156114063417,35.491890414011436],[139.77867639390047,35.49955291933179],[139.77609121893465,35.50345622522468],[139.7712031131332,35.506218251870905]]],[[[139.80138451388427,35.512153648771914],[139.80015255509636,35.512882089736706],[139.80009811913294,35.512820603987734],[139.80125599177063,35.51209772982645],[139.80138451388427,35.512153648771914]]],[[[139.7539409466175,35.52415680209481],[139.75384992173656,35.524227252285925],[139.7536213095758,35.52402980163407],[139.75371236143644,35.523959278597886],[139.7539409466175,35.52415680209481]]],[[[139.75659697826802,35.526458440604586],[139.75653717335194,35.52650086522283],[139.7563693904351,35.526342559361694],[139.7564292996725,35.52630013474345],[139.75659697826802,35.526458440604586]]],[[[139.7569597800699,35.52665889229411],[139.7489675617037,35.519949721402554],[139.74851561640264,35.51834608090695],[139.7517724122671,35.50946786485014],[139.75382827505496,35.5085754136245],[139.76495924787105,35.51160746801031],[139.7660327497117,35.5135635860907],[139.758900803929,35.526395613067166],[139.7569597800699,35.52665889229411]]],[[[139.38109534437467,35.590560179808506],[139.38081717327395,35.59050278417618],[139.38093075225243,35.59029208111468],[139.38109534437467,35.590560179808506]]],[[[139.6149068347827,35.17125044125493],[139.61514128444276,35.17134405438463],[139.6150448897099,35.171541558995784],[139.6148401689387,35.17135377515666],[139.6149068347827,35.17125044125493]]],[[[139.60823416287633,35.19113605428555],[139.6084737737457,35.19101841396866],[139.60844302232772,35.19114005357068],[139.60823416287633,35.19113605428555]]],[[[139.604596835076,35.19371935956087],[139.60425649833883,35.19376972069608],[139.6041921401552,35.193461306294296],[139.60441985659122,35.19339691933243],[139.604596835076,35.19371935956087]]],[[[139.59942727564828,35.19386886465645],[139.59938408570702,35.19400127903583],[139.59927533069197,35.19396861296116],[139.59927916989784,35.19382358559005],[139.59942727564828,35.19386886465645]]],[[[139.6048439948545,35.19416710772589],[139.60501561607794,35.194327440658924],[139.60492577200682,35.1946465587917],[139.60463819669553,35.19435980186341],[139.6048439948545,35.19416710772589]]],[[[139.6905649683987,35.19676335964141],[139.6905994160303,35.19691502670719],[139.69045525290767,35.196943359848206],[139.6904210885624,35.19683641426917],[139.6905649683987,35.19676335964141]]],[[[139.60214055814026,35.19836044138134],[139.601778832827,35.19820397283513],[139.60196333324132,35.19796483770716],[139.60214055814026,35.19836044138134]]],[[[139.58486941639057,35.19895502725274],[139.5845741365872,35.19919725155199],[139.58445080356182,35.198870586308544],[139.58486941639057,35.19895502725274]]],[[[139.60487946771332,35.19937608084149],[139.60498588808832,35.19957072111197],[139.60482608305733,35.199577973244914],[139.60487946771332,35.19937608084149]]],[[[139.6047093393646,35.200916305643034],[139.60480194615297,35.201263080626745],[139.60455105059054,35.201473108297364],[139.6047093393646,35.200916305643034]]],[[[139.60470197121901,35.20361808130946],[139.60458131007942,35.2037258650567],[139.60442180272412,35.203309999656824],[139.60475933897237,35.203529694140116],[139.60470197121901,35.20361808130946]]],[[[139.60542588769465,35.204472946269505],[139.60529522699323,35.204262945578535],[139.60544834016878,35.20413755940092],[139.60542588769465,35.204472946269505]]],[[[139.60844680937282,35.20977202695752],[139.6084140596612,35.20965513487664],[139.6085594944252,35.209645504936134],[139.60854050613955,35.20976227920585],[139.60844680937282,35.20977202695752]]],[[[139.6094034757898,35.21024930616062],[139.6094931912578,35.210332414309505],[139.60933311283293,35.210392414378475],[139.60928077768585,35.21024800034502],[139.6094034757898,35.21024930616062]]],[[[139.6092951362616,35.21062474793382],[139.60912347636736,35.21049686523821],[139.60943744498218,35.210437332816696],[139.60951255456087,35.21059646785278],[139.6092951362616,35.21062474793382]]],[[[139.60887625183761,35.210606586125095],[139.6088516337959,35.21073661280451],[139.6087375880693,35.2107930002968],[139.60863856012156,35.21073683763501],[139.60887625183761,35.210606586125095]]],[[[139.72266917004617,35.210863467574995],[139.72135016857544,35.2108334140309],[139.7213508295772,35.21075769381258],[139.72266708182042,35.21077666680975],[139.72266917004617,35.210863467574995]]],[[[139.72412666711205,35.21096630595031],[139.72401888516345,35.210911946429235],[139.72268241166398,35.21088538675127],[139.7231680293811,35.210795612827326],[139.72401503156857,35.210829081097245],[139.72412666711205,35.21096630595031]]],[[[139.7274986904123,35.21092694622166],[139.72732761327882,35.210978532233526],[139.72432608278257,35.21091727940899],[139.7251613883874,35.21084013466452],[139.72732849461443,35.21089666694769],[139.7274986904123,35.21092694622166]]],[[[139.7355534503315,35.21232174795034],[139.73544072570894,35.21234399987577],[139.7353994423305,35.212226532228726],[139.73554933863113,35.21218119830371],[139.7355534503315,35.21232174795034]]],[[[139.60591241192833,35.22011213506704],[139.60739814500846,35.21903569424194],[139.60884891064882,35.218425414301464],[139.60923588802586,35.21843408106804],[139.60726871637826,35.219233973169366],[139.60591241192833,35.22011213506704]]],[[[139.60261442261753,35.22061455931453],[139.60236871614336,35.220757054194735],[139.60233505811652,35.22069625193052],[139.60261442261753,35.22061455931453]]],[[[139.6130178600862,35.221089720614145],[139.61266252895257,35.220264170854875],[139.61329678302013,35.22031417136196],[139.6130178600862,35.221089720614145]]],[[[139.60388408638153,35.22314469397253],[139.60236613508914,35.22112835998587],[139.60575500628852,35.22077861274283],[139.60388408638153,35.22314469397253]]],[[[139.597939883319,35.224263973103916],[139.59922702990355,35.223468693625364],[139.5991839685654,35.22415172062546],[139.59841158222878,35.22457994630753],[139.597939883319,35.224263973103916]]],[[[139.59745435823208,35.22490338658207],[139.59726841800318,35.224806667194],[139.5974818936745,35.224692973102265],[139.59745435823208,35.22490338658207]]],[[[139.7286625813132,35.22517097266228],[139.72858272421342,35.22535066709963],[139.72850199657,35.22531838683415],[139.7286625813132,35.22517097266228]]],[[[139.6021781057351,35.22897764010605],[139.6020127240081,35.228950639760285],[139.6024718548922,35.227197585899944],[139.6026230866862,35.22721725227444],[139.6021781057351,35.22897764010605]]],[[[139.6013773673717,35.231558892229145],[139.60115861178053,35.23167350542798],[139.60133325562526,35.23103308111183],[139.60142438392825,35.23104833271441],[139.6013773673717,35.231558892229145]]],[[[139.6022748377137,35.23178930573192],[139.6022126981576,35.23201094634817],[139.60200405993953,35.23216180222545],[139.60214791189674,35.2317576127237],[139.6022748377137,35.23178930573192]]],[[[139.7346707000928,35.2430666935731],[139.73476418911605,35.243165919371734],[139.73469944242538,35.24327666728442],[139.73454033706696,35.2431817753187],[139.7346707000928,35.2430666935731]]],[[[139.58886664118256,35.24716372062926],[139.58897866433392,35.247255440686104],[139.58895036266915,35.24738825166651],[139.58879766498035,35.24733919814554],[139.58886664118256,35.24716372062926]]],[[[139.57682841789722,35.248134000084065],[139.57644228318486,35.24798874788246],[139.57672686105582,35.247824225008],[139.57682841789722,35.248134000084065]]],[[[139.73858630421466,35.24832889216469],[139.73826863758757,35.2485053058752],[139.73824686140358,35.24832572115514],[139.73858630421466,35.24832889216469]]],[[[139.73987308657377,35.250148891558126],[139.73967778170436,35.25028080231721],[139.73967243793277,35.25012294611713],[139.73987308657377,35.250148891558126]]],[[[139.74615005228316,35.25253174784194],[139.74615775587574,35.252423865169305],[139.74659756212782,35.25220258608056],[139.74639610859356,35.25242953179753],[139.74615005228316,35.25253174784194]]],[[[139.7393150842238,35.261934999800474],[139.73913503185634,35.261850468024704],[139.73938457843565,35.26170230561695],[139.7393150842238,35.261934999800474]]],[[[139.73795061033252,35.26220905380484],[139.7378707784137,35.262143081338195],[139.73810330712195,35.26207494600203],[139.73812678302465,35.26212525227862],[139.73795061033252,35.26220905380484]]],[[[139.73590005174606,35.264079774961715],[139.73540983129874,35.26447113473512],[139.73529639441313,35.26438902663233],[139.73590005174606,35.264079774961715]]],[[[139.69826450060623,35.26489289159372],[139.69822972831935,35.264975586054504],[139.69792163407624,35.264888413869244],[139.69795641985297,35.2648057212071],[139.69826450060623,35.26489289159372]]],[[[139.7339506605946,35.26537372132026],[139.73357333294302,35.26522369371855],[139.73360702964078,35.26516658586928],[139.7339376132303,35.265278802374894],[139.7339506605946,35.26537372132026]]],[[[139.72588910539798,35.2657032518037],[139.72450108905412,35.265422306294454],[139.72458800313393,35.265350532301284],[139.7258065890029,35.265593837585584],[139.72588910539798,35.2657032518037]]],[[[139.689838585982,35.272605721177115],[139.68821352813188,35.274211865385325],[139.68813138765347,35.27415335998961],[139.689838585982,35.272605721177115]]],[[[139.68581594005366,35.27498210773814],[139.68555708189388,35.27515325232076],[139.68551900100113,35.27511453201009],[139.68577786006028,35.27494338742741],[139.68581594005366,35.27498210773814]]],[[[139.67991866361547,35.28010808062345],[139.67950213991185,35.280405468437664],[139.6794640859988,35.28036261304419],[139.67991866361547,35.28010808062345]]],[[[139.67790258143907,35.28067358601726],[139.67763693879374,35.280760054033294],[139.6776126067365,35.280709360148876],[139.67788102468955,35.28062244067314],[139.67790258143907,35.28067358601726]]],[[[139.69057455337304,35.284288251801456],[139.69067060996076,35.28417035967442],[139.69073869043825,35.2842776398013],[139.69057455337304,35.284288251801456]]],[[[139.68981180327216,35.284914107999725],[139.6896108299759,35.28491477529667],[139.68968036285855,35.28477613491077],[139.6898236707259,35.284732026761674],[139.68981180327216,35.284914107999725]]],[[[139.69253455292733,35.28545789206811],[139.69225358043843,35.285432693963685],[139.69222425444582,35.285366666638424],[139.69254311267457,35.28540283827044],[139.69253455292733,35.28545789206811]]],[[[139.6949348380724,35.28790272063412],[139.69303425402768,35.28574558609],[139.69639138815205,35.286755531942276],[139.6949348380724,35.28790272063412]]],[[[139.65138897482143,35.28798505356741],[139.65123549921896,35.28817413512826],[139.65117406023478,35.28812438733064],[139.65138897482143,35.28798505356741]]],[[[139.6505521403691,35.288602802377454],[139.65047060963104,35.288631999767006],[139.65035992197284,35.28842394610825],[139.6504414401204,35.28839477479909],[139.6505521403691,35.288602802377454]]],[[[139.6519979768252,35.288603000228306],[139.65171092132198,35.28878922464304],[139.65162472130396,35.28869991926592],[139.65191177680708,35.28851366697222],[139.6519979768252,35.288603000228306]]],[[[139.65166116722912,35.28882344114896],[139.65146041516607,35.28897089219299],[139.65140063633032,35.28891617114442],[139.65160150530528,35.28876872099971],[139.65166116722912,35.28882344114896]]],[[[139.65107761334127,35.289257053770086],[139.65054955931475,35.28960780195854],[139.65052311295142,35.28958108130189],[139.65103686056273,35.28923977509561],[139.65107761334127,35.289257053770086]]],[[[139.63478372169152,35.298135080969246],[139.63471674378275,35.29817708110744],[139.63455325602797,35.298001748382035],[139.63462019526582,35.29795974824384],[139.63478372169152,35.298135080969246]]],[[[139.65184241209772,35.307418440708545],[139.64370328138136,35.30032536002739],[139.64853282692843,35.29470430585906],[139.6527738003707,35.296785359556736],[139.65184533129707,35.29911802737513],[139.65643461666434,35.3018695859127],[139.65184241209772,35.307418440708545]]],[[[139.67523044113204,35.31936822466389],[139.6750216077611,35.319633891590854],[139.67348719797587,35.32043117116166],[139.67344394328347,35.320388197957016],[139.6749687806847,35.319600468287035],[139.67523044113204,35.31936822466389]]],[[[139.66404438394125,35.32433383763657],[139.6640288589448,35.32428080191755],[139.66565236096778,35.323725531707964],[139.66827686058866,35.32289461299604],[139.66404438394125,35.32433383763657]]],[[[139.66419819678947,35.32615527864323],[139.6641301693719,35.32634908074556],[139.66405914361462,35.32632861307508],[139.664347886246,35.32568555914128],[139.6644176907239,35.32549419779906],[139.66448858607941,35.32551466726812],[139.66419819678947,35.32615527864323]]],[[[139.6639406363513,35.32666422477422],[139.66386669319343,35.32693966733183],[139.66381294431199,35.32692444091026],[139.6639406363513,35.32666422477422]]],[[[139.66322958467765,35.32832813513539],[139.66315469543292,35.328626505009254],[139.66308489005564,35.32860702659303],[139.66322958467765,35.32832813513539]]],[[[139.36881613515652,35.31329086528126],[139.36882413732417,35.31365750538964],[139.36875713423444,35.31366008104794],[139.36870766522668,35.313011945944595],[139.36879403431726,35.31300553197974],[139.36881613515652,35.31329086528126]]],[[[139.5515507783458,35.300362775421775],[139.55051021957104,35.30097233320669],[139.54995868964193,35.30036419814928],[139.5510783662736,35.30005889180444],[139.5515507783458,35.300362775421775]]],[[[139.4851295850624,35.29675130582814],[139.48507622558736,35.29655302690071],[139.48526457779815,35.29649813498099],[139.48526949439167,35.296724613050515],[139.4851295850624,35.29675130582814]]],[[[139.48346844371372,35.296925640306085],[139.48336841841785,35.29712383829457],[139.48328494244618,35.297053108414275],[139.48330846961028,35.29687397335522],[139.48346844371372,35.296925640306085]]],[[[139.47958160800488,35.297512504598444],[139.47949919593123,35.29752841360545],[139.4793349419541,35.297442918655804],[139.47949574613187,35.297386613001834],[139.47958160800488,35.297512504598444]]],[[[139.48408785986692,35.29678219843976],[139.48410338486337,35.29736953217821],[139.48385255495157,35.297474892252524],[139.48382061013308,35.29680197273291],[139.48408785986692,35.29678219843976]]],[[[139.48374155612794,35.2972367751571],[139.48382627766068,35.297578747761065],[139.48362924789149,35.297548532338965],[139.48374155612794,35.2972367751571]]],[[[139.47572632860727,35.29768766735202],[139.47560199733437,35.29765502735768],[139.4757528019503,35.29746764011952],[139.475799805017,35.297507251658374],[139.47572632860727,35.29768766735202]]],[[[139.47779752303734,35.29773327916757],[139.47769791232884,35.29763444097671],[139.47775669291707,35.29746858620632],[139.47785710761946,35.297513585583545],[139.47779752303734,35.29773327916757]]],[[[139.48266654972156,35.30279253224961],[139.4742401170878,35.29858510801637],[139.47673530499037,35.29742617058133],[139.47817036307185,35.298419720893435],[139.48026747056736,35.29736389163037],[139.48347258059516,35.29752030621722],[139.48717383940118,35.29859155885339],[139.48266654972156,35.30279253224961]]],[[[139.13866605729277,35.192290135381484],[139.1380395850589,35.19268341430819],[139.13795250280577,35.192581666810554],[139.13858494204146,35.19218425190178],[139.13866605729277,35.192290135381484]]],[[[139.1427115558937,35.20620880239437],[139.14252927410678,35.20604850543424],[139.14272822302917,35.205799639641725],[139.14291627756427,35.205865468216814],[139.1427115558937,35.20620880239437]]],[[[139.14315355379358,35.218560774859895],[139.14321661515476,35.21876494614543],[139.14298133631974,35.21882938706659],[139.14292744534544,35.218701613188955],[139.14315355379358,35.218560774859895]]],[[[139.41465708175895,35.302124505041945],[139.4145364197201,35.3020890267872],[139.4147135798679,35.30193617081767],[139.41476544736759,35.30207269419952],[139.41465708175895,35.302124505041945]]],[[[139.41583841770887,35.302458505155926],[139.415472775848,35.302312838366845],[139.41566791164485,35.301657198421026],[139.41630972811151,35.302026198350404],[139.41583841770887,35.302458505155926]]],[[[139.41318819657806,35.302403080837564],[139.41313591359165,35.302627504855536],[139.41298108900617,35.302509837559],[139.41318819657806,35.302403080837564]]],[[[139.4133688074246,35.30285055920598],[139.41350167326368,35.30288372080713],[139.41344680922293,35.303013973216366],[139.41328372166652,35.30297058632357],[139.4133688074246,35.30285055920598]]],[[[139.41466652374118,35.30259705381104],[139.4149046687155,35.30178944102994],[139.41537691261453,35.302268865116105],[139.41466652374118,35.30259705381104]]],[[[139.41829155601056,35.302705639753526],[139.41836795072038,35.302886279378356],[139.41815632855173,35.303131278985404],[139.41806605730278,35.30308950457703],[139.41829155601056,35.302705639753526]]],[[[139.415115162235,35.30340700033287],[139.41503236075494,35.3035828645576],[139.41492425415106,35.30354091927808],[139.415115162235,35.30340700033287]]],[[[139.41468927389099,35.30362430621682],[139.41452693906706,35.30333438727223],[139.41472688713623,35.303045387434736],[139.41506847033372,35.30327550506058],[139.41468927389099,35.30362430621682]]],[[[139.41532377437272,35.30349227944521],[139.41533824896112,35.30360536019924],[139.4151596885688,35.30360141397415],[139.41522749655178,35.30348138685656],[139.41532377437272,35.30349227944521]]],[[[139.4179735017758,35.3031277752267],[139.41799364479095,35.303228892299614],[139.41787197101473,35.303323667353425],[139.41777561585207,35.30331125221255],[139.4178568354247,35.30314919797718],[139.4179735017758,35.3031277752267]]],[[[139.41767175135033,35.30399172064142],[139.41777907914127,35.30374899991648],[139.41787741910764,35.30380935971425],[139.41767175135033,35.30399172064142]]],[[[139.4181560569565,35.30386833275742],[139.4178868871702,35.30406666744278],[139.41786557683497,35.303906586319954],[139.41798749702548,35.30380577501654],[139.4181560569565,35.30386833275742]]],[[[139.41830474726635,35.30404394607132],[139.41822075238588,35.3041682251835],[139.41814511040855,35.30403869403057],[139.41830474726635,35.30404394607132]]],[[[139.41844267179192,35.304472134881166],[139.4181719974398,35.304524837851034],[139.41838822323803,35.30406427884344],[139.41860433212435,35.30422538699207],[139.41844267179192,35.304472134881166]]],[[[139.4187432557967,35.30447041357877],[139.41900472109103,35.30476327870241],[139.41869007798482,35.30490241371547],[139.4187432557967,35.30447041357877]]],[[[139.39666341118755,35.31154002735042],[139.39683644614513,35.31128710831342],[139.39697756236467,35.31140736026151],[139.39666341118755,35.31154002735042]]],[[[139.39780557716574,35.312287306414134],[139.39767949401346,35.31222263976309],[139.39767905334566,35.31209474807423],[139.39780605740373,35.31203680205681],[139.39780557716574,35.312287306414134]]],[[[139.39771058357667,35.31246958640236],[139.39753075244232,35.31253519824088],[139.39755299627382,35.31238483789002],[139.39771058357667,35.31246958640236]]],[[[139.39863066107625,35.312581864961146],[139.39854447544724,35.3127238921939],[139.3984431389398,35.31264338668302],[139.39863066107625,35.312581864961146]]],[[[139.56254505780828,35.291808008632756],[139.5625216466567,35.29189307190779],[139.5623814531416,35.291879766438115],[139.5623894292288,35.29179689211293],[139.56254505780828,35.291808008632756]]],[[[139.5652250186198,35.292673377674305],[139.5649085993524,35.292580793368984],[139.5650350836023,35.29238221586661],[139.5653959266807,35.29244339584608],[139.5652250186198,35.292673377674305]]],[[[139.63159697761853,35.12850383788185],[139.63157169857504,35.12870161318892],[139.63139391699576,35.12858272101579],[139.63159697761853,35.12850383788185]]],[[[139.63075169943147,35.12885633255377],[139.6308861345875,35.129121333083106],[139.63056418898623,35.12915661258768],[139.63050752270408,35.1289513333374],[139.63075169943147,35.12885633255377]]],[[[139.61940697844932,35.13115633339811],[139.6195553054331,35.13124327895423],[139.6194683661722,35.13145244057773],[139.61925836638056,35.13124522508713],[139.61940697844932,35.13115633339811]]],[[[139.61508031130734,35.131058837895125],[139.61539197136244,35.13127827876963],[139.61517114103538,35.13160272088891],[139.6147611410139,35.131254387380125],[139.61508031130734,35.131058837895125]]],[[[139.61696752333262,35.1318610538446],[139.61673752261868,35.131652171010955],[139.6170341891766,35.131545225431864],[139.6171553053731,35.131694386986396],[139.61696752333262,35.1318610538446]]],[[[139.61338863797528,35.132195224829786],[139.6130069782895,35.13222966706553],[139.61283002588505,35.13195299963127],[139.61299002606893,35.13178855859513],[139.61322613497816,35.132037721163954],[139.6135636451462,35.1318246672746],[139.61366669306346,35.132063558686355],[139.61338863797528,35.132195224829786]]],[[[139.6096719710847,35.13276161335784],[139.60967836616373,35.13307938700416],[139.60930391724207,35.13307435979391],[139.60940418895223,35.13282217100647],[139.6096719710847,35.13276161335784]]],[[[139.60773085639403,35.133890467571064],[139.60757252894916,35.133590198329046],[139.60790697782488,35.133614080725295],[139.60773085639403,35.133890467571064]]],[[[139.62794377408602,35.13449427868807],[139.6275227762552,35.13430244070514],[139.62761085585635,35.13423102734009],[139.62794377408602,35.13449427868807]]],[[[139.66310144027932,35.13614908071554],[139.66314644595184,35.13632769416779],[139.66283422831702,35.13640325160884],[139.66285172462744,35.136208532198054],[139.66310144027932,35.13614908071554]]],[[[139.6687708950608,35.13636853238194],[139.66882116716317,35.13647769389053],[139.6686439431635,35.136569919366366],[139.66858477316885,35.13638546841469],[139.6687708950608,35.13636853238194]]],[[[139.62276894912782,35.13683855855271],[139.62271477306842,35.13696966711649],[139.62251116655716,35.136887171405874],[139.62257311275903,35.136806891624815],[139.62276894912782,35.13683855855271]]],[[[139.62744587522707,35.13699002686832],[139.6273895066205,35.137019910440586],[139.6271003628915,35.136695748010425],[139.62709854716024,35.13658072112344],[139.62744587522707,35.13699002686832]]],[[[139.65765727556288,35.13727300034873],[139.6570353314155,35.13723272061361],[139.65677172483527,35.13692050477755],[139.65731727607147,35.13670410810818],[139.65765727556288,35.13727300034873]]],[[[139.62775832668547,35.13691214378048],[139.62840256772438,35.13702090958736],[139.62816402075305,35.1372993064179],[139.62775832668547,35.13691214378048]]],[[[139.6687414395658,35.13742269430196],[139.66879450136526,35.137211585646185],[139.66901033685758,35.13734991936332],[139.6687414395658,35.13742269430196]]],[[[139.60977124544672,35.137860864687184],[139.60846321660426,35.13483646802865],[139.61015994772345,35.13282508121256],[139.6162825286159,35.13286197320156],[139.61825136221069,35.130975054355304],[139.62001403432032,35.13211777521519],[139.62189894857772,35.132344837844016],[139.62541185517307,35.130365278934505],[139.62716005179504,35.13380280165802],[139.62115997385376,35.13643350480248],[139.60977124544672,35.137860864687184]]],[[[139.65540311316317,35.13782799986234],[139.65465116661812,35.13781855877954],[139.654953384691,35.13726938687273],[139.65540311316317,35.13782799986234]]],[[[139.64139922189668,35.137969386777854],[139.64142505762038,35.13770022508538],[139.64168143994652,35.1377107750323],[139.64168477283408,35.13791383835303],[139.64139922189668,35.137969386777854]]],[[[139.62985228295656,35.13802327865142],[139.6295828271858,35.137963559171],[139.62966143962376,35.13781689233576],[139.6299097802123,35.137891613407305],[139.62985228295656,35.13802327865142]]],[[[139.66343588825566,35.13769546767173],[139.6634506101576,35.137024360286034],[139.66441199711608,35.136781027122765],[139.66442866425155,35.13728602702855],[139.66343588825566,35.13769546767173]]],[[[139.64273228336822,35.138070225060915],[139.64273894914322,35.13824966678874],[139.64258144008147,35.13822327888124],[139.64273228336822,35.138070225060915]]],[[[139.64753810569903,35.13847827894949],[139.64733783387396,35.138356053888856],[139.6474825545763,35.13819161285272],[139.64771671915128,35.13837883821287],[139.64753810569903,35.13847827894949]]],[[[139.64335866387125,35.13836689161883],[139.64338756178665,35.138554946153874],[139.64325199708207,35.138586891871626],[139.64322282667217,35.138419946223564],[139.64335866387125,35.13836689161883]]],[[[139.60683505789166,35.138368801778824],[139.60679922170675,35.138588251646524],[139.60662089513824,35.13854297258018],[139.60665282736613,35.138405468037945],[139.60683505789166,35.138368801778824]]],[[[139.648308948799,35.138667170753365],[139.6480381062737,35.13848189242543],[139.64844561607242,35.138427720862694],[139.648308948799,35.138667170753365]]],[[[139.6594792219886,35.138594359841875],[139.65961616085724,35.138832973363094],[139.65945839189135,35.13884630581242],[139.6594792219886,35.138594359841875]]],[[[139.6622564462781,35.13870964033771],[139.66231533118764,35.13878825187635],[139.66220977955777,35.138885197893615],[139.66212616059386,35.13875991873533],[139.6622564462781,35.13870964033771]]],[[[139.65297338511368,35.13869244080354],[139.65264839170993,35.13892661257319],[139.65244866397472,35.13865522505864],[139.65297338511368,35.13869244080354]]],[[[139.61259656278116,35.13821249511062],[139.61253154269662,35.13820108990842],[139.61238033698305,35.137642422959516],[139.6124402327306,35.13762802661216],[139.61259656278116,35.13821249511062]]],[[[139.6547764457764,35.13885661294239],[139.65467450132724,35.13900772062988],[139.65438505812403,35.139013279339395],[139.65451338508467,35.138829386866746],[139.6547764457764,35.13885661294239]]],[[[139.65020505781717,35.139168837771706],[139.65008505767935,35.1389635594208],[139.65036561558077,35.13885883786514],[139.65041644616213,35.13908494631329],[139.65020505781717,35.139168837771706]]],[[[139.6633592219506,35.139006305996304],[139.66351839206015,35.13904853186432],[139.66354255504496,35.1392160269981],[139.66333199677433,35.13915186486673],[139.6633592219506,35.139006305996304]]],[[[139.65415144033682,35.13909161298761],[139.65395756179214,35.139245504976145],[139.65371394264446,35.13915105367823],[139.65399367137093,35.13899966720095],[139.65415144033682,35.13909161298761]]],[[[139.65342089495834,35.139014107615026],[139.65329561580006,35.13921744073235],[139.65295199743684,35.139215224802854],[139.65313060998972,35.138954945714204],[139.65342089495834,35.139014107615026]]],[[[139.6605258880594,35.13939353158628],[139.66036561628027,35.13892130567376],[139.66064727585115,35.138859360371214],[139.66099228276767,35.13921853160997],[139.6605258880594,35.13939353158628]]],[[[139.6511526977389,35.1394444952673],[139.6509297153342,35.1394011533406],[139.6504000776016,35.13941863076525],[139.6504000776016,35.13936782896218],[139.65114247694385,35.139327044707386],[139.6511526977389,35.1394444952673]]],[[[139.60724208835177,35.13946063989664],[139.60727286585018,35.138474485609095],[139.60934182906226,35.13776208135505],[139.60941905294703,35.137921134552755],[139.60744833976912,35.138606532165795],[139.60724208835177,35.13946063989664]]],[[[139.67384533139705,35.13944546833375],[139.67390394291272,35.13964269415504],[139.6736636710416,35.13975686488743],[139.67365089527266,35.139579639988426],[139.67384533139705,35.13944546833375]]],[[[139.6383301694019,35.13913720681671],[139.6375422832498,35.139947081392734],[139.637460337025,35.1398993957406],[139.6382550454341,35.13907971225899],[139.6383301694019,35.13913720681671]]],[[[139.638284500929,35.14002272067205],[139.63803839155855,35.13986217100245],[139.63833533061108,35.13965661296237],[139.63862172511256,35.13993022539961],[139.638284500929,35.14002272067205]]],[[[139.63894272372784,35.14018773007973],[139.6389256420049,35.14011340470989],[139.6395778078696,35.139507577312884],[139.6395129307772,35.139703910107414],[139.63894272372784,35.14018773007973]]],[[[139.67198255485107,35.140448251985276],[139.67197810590494,35.14053158586404],[139.67182367072587,35.14053546823732],[139.67181922177974,35.140452135257874],[139.67198255485107,35.140448251985276]]],[[[139.6739392224173,35.140745198232366],[139.6738436712485,35.14062825219213],[139.67420839220358,35.1404774143013],[139.67411255505044,35.140698251822926],[139.6739392224173,35.140745198232366]]],[[[139.6671797803226,35.14076325212244],[139.6670953312846,35.14084019811668],[139.66693810640857,35.14076713539504],[139.66712588844905,35.140714918958395],[139.6671797803226,35.14076325212244]]],[[[139.673250894813,35.140846864791],[139.6732945011404,35.14094353201841],[139.67324422813863,35.141045468373704],[139.67314199680573,35.14101158641563],[139.6731767187307,35.14086491868113],[139.673250894813,35.140846864791]]],[[[139.67191228272577,35.14110019841547],[139.67184477331773,35.141232693733855],[139.67174783359576,35.141203532317206],[139.67181894928513,35.14109213509403],[139.67191228272577,35.14110019841547]]],[[[139.6796548124197,35.1446309997209],[139.67966702970966,35.14478877498203],[139.67957119255652,35.14478100034296],[139.67957119255652,35.14466405430272],[139.6796548124197,35.1446309997209]]],[[[139.66824230863574,35.1448654682668],[139.66835147913753,35.14497241384589],[139.66819897480286,35.14505630620363],[139.6680606356898,35.144940747817316],[139.66824230863574,35.1448654682668]]],[[[139.68062980522143,35.14533655923486],[139.68064369614967,35.145443504813954],[139.6804584178218,35.14549433269735],[139.68049953302705,35.14534210805192],[139.68062980522143,35.14533655923486]]],[[[139.66702841812707,35.14560713466159],[139.6670464720171,35.14537074786176],[139.66725674430336,35.145508801889775],[139.66702841812707,35.14560713466159]]],[[[139.61504647161746,35.14719438681158],[139.61506703011946,35.147312721405],[139.61489564182045,35.14735799957208],[139.61485230888707,35.147251332782844],[139.61504647161746,35.14719438681158]]],[[[139.6101070298156,35.14741133296667],[139.60993396877768,35.147596333404124],[139.60985007821864,35.147463559295886],[139.6101070298156,35.14741133296667]]],[[[139.60717037641177,35.1481658830491],[139.60581096030762,35.146869441071885],[139.60584841797015,35.14683333329174],[139.60717037641177,35.1481658830491]]],[[[139.6143989750327,35.148042171409145],[139.61439674381472,35.14821855903932],[139.6142006358507,35.14813550484973],[139.6143989750327,35.148042171409145]]],[[[139.61379230856824,35.14873910822331],[139.61345758809728,35.14881717117555],[139.61351341081536,35.14858105417238],[139.61379230856824,35.14873910822331]]],[[[139.61322953261686,35.14896661331858],[139.61331897469097,35.14913022517982],[139.61316258078853,35.14917410759904],[139.61303286617385,35.14904189196977],[139.61322953261686,35.14896661331858]]],[[[139.6807550843797,35.14979127904434],[139.6806539691055,35.14987710764245],[139.68051147872188,35.14971766683692],[139.68061092125708,35.149685999909025],[139.6807550843797,35.14979127904434]]],[[[139.68203841783873,35.149995170640636],[139.68210286595456,35.15009377500775],[139.68200535696167,35.15015099976887],[139.68191980535482,35.150069333233205],[139.68203841783873,35.149995170640636]]],[[[139.68253175083964,35.15011405382057],[139.68218313944044,35.14994350458909],[139.68222841760746,35.14984044138333],[139.68268175056244,35.14990072114142],[139.68253175083964,35.15011405382057]]],[[[139.61121425443434,35.15070661262013],[139.6110206357938,35.1504785589384],[139.61133007812066,35.150313559423296],[139.61155036255923,35.150471612574904],[139.61121425443434,35.15070661262013]]],[[[139.61178786002176,35.1509163327226],[139.6114673020744,35.15093272106827],[139.61160758821973,35.15072105393352],[139.61178786002176,35.1509163327226]]],[[[139.6106814789672,35.15093966743177],[139.6105092480035,35.15068994638398],[139.61078535695867,35.15065689180216],[139.6106814789672,35.15093966743177]]],[[[139.6105903632547,35.151161612918145],[139.6106314793593,35.151279945712986],[139.61050119277593,35.151291332928736],[139.61046007757056,35.15119550476879],[139.6105903632547,35.151161612918145]]],[[[139.60748483785505,35.15334769394099],[139.60726538259144,35.15358464011911],[139.60698427970078,35.15331408088019],[139.60736147874934,35.15319574808535],[139.60748483785505,35.15334769394099]]],[[[139.68058372216115,35.153792387109036],[139.68007150519588,35.15374933296539],[139.68001593968393,35.15350822472482],[139.6804839954401,35.15360822483973],[139.68058372216115,35.153792387109036]]],[[[139.6051953833603,35.15372546765627],[139.6053667833504,35.153826865317626],[139.60531871638568,35.154052134698304],[139.60504455266403,35.15392825218714],[139.6051953833603,35.15372546765627]]],[[[139.60316344973353,35.15401991918395],[139.60322900131746,35.15369825237252],[139.60366510955726,35.15390519806647],[139.60316344973353,35.15401991918395]]],[[[139.60267372211467,35.15400630614619],[139.60248344985143,35.15438935978119],[139.6023364979311,35.15411241355707],[139.60267372211467,35.15400630614619]]],[[[139.60562705614382,35.154638251654035],[139.60511983131528,35.15440158606441],[139.60520900089477,35.15419880243286],[139.60584622632234,35.15424935962028],[139.60562705614382,35.154638251654035]]],[[[139.60618399459577,35.15544546783411],[139.6058942797972,35.15537074766195],[139.60598345027609,35.15522991922546],[139.60620955872423,35.15524130644121],[139.60618399459577,35.15544546783411]]],[[[139.60663038928112,35.15600046824704],[139.606476783277,35.15573991936185],[139.60681177714184,35.15578574791397],[139.60663038928112,35.15600046824704]]],[[[139.6068337223984,35.15645435968099],[139.60655983117135,35.15630353168268],[139.60670428027834,35.15618046755458],[139.60694593980338,35.15629269395271],[139.6068337223984,35.15645435968099]]],[[[139.6031698313227,35.15657797329487],[139.60328233471205,35.15586602679576],[139.60403011739606,35.156159640155295],[139.6031698313227,35.15657797329487]]],[[[139.61052983078707,35.15886244104888],[139.61031678319307,35.15864827919478],[139.61044316492018,35.15856189211769],[139.61066649806048,35.1588255049931],[139.61052983078707,35.15886244104888]]],[[[139.60916761329474,35.16058297272605],[139.60920427955398,35.16027491895238],[139.60957593967794,35.1601251980195],[139.60957593967794,35.160422693752366],[139.60916761329474,35.16058297272605]]],[[[139.6600601687419,35.176970107884244],[139.66013571988765,35.177075387019556],[139.6599240860278,35.177144278685546],[139.65990238718553,35.17701344081769],[139.6600601687419,35.176970107884244]]],[[[139.61604444929196,35.18539341357524],[139.61608169921112,35.18565038675598],[139.61586555075462,35.18555250544381],[139.61604444929196,35.18539341357524]]],[[[139.6156009729067,35.18577277459394],[139.6155711666761,35.18597163987931],[139.61533639415927,35.185867612600305],[139.6156009729067,35.18577277459394]]],[[[139.61642085603773,35.18646725176234],[139.6165885598142,35.18658350532456],[139.61651403389567,35.18667836041806],[139.6163649415888,35.186586586401916],[139.61642085603773,35.18646725176234]]],[[[139.57484766468804,35.25963258607504],[139.5745384948557,35.25962702736547],[139.57442155601007,35.25943536025375],[139.57486822319004,35.25946925210434],[139.57484766468804,35.25963258607504]]],[[[139.57389961107822,35.25980730636218],[139.57363849472085,35.259812865071694],[139.57368654999436,35.259582027088925],[139.57398211398345,35.259570639873175],[139.57389961107822,35.25980730636218]]],[[[139.57530099944165,35.259953973197355],[139.57533516198816,35.260049531560696],[139.57506739334553,35.26005536006687],[139.57508795094827,35.25996508072393],[139.57530099944165,35.259953973197355]]],[[[139.57607267171647,35.26056591868223],[139.57577466876603,35.26099964012133],[139.5756572236021,35.26103817067508],[139.57600435831455,35.26052363975424],[139.57607267171647,35.26056591868223]]],[[[139.56555919590028,35.26442105418835],[139.56561988305123,35.264281640385434],[139.56574678278787,35.264194666950345],[139.56580007841092,35.264329801778956],[139.56555919590028,35.26442105418835]]],[[[139.56441228330027,35.26429964031621],[139.56453807956882,35.2643727210243],[139.5643956161648,35.264507801893615],[139.564291310096,35.26437946773831],[139.56441228330027,35.26429964031621]]],[[[139.5644308560992,35.2645865321428],[139.56426724963387,35.26467353165822],[139.56423564206125,35.26456569395168],[139.5644308560992,35.2645865321428]]],[[[139.5674776908428,35.26537946798811],[139.56683185530596,35.26514863989786],[139.56725102481505,35.264782251599684],[139.5674776908428,35.26537946798811]]],[[[139.57086481196154,35.265275640358595],[139.57088466899233,35.26542450513688],[139.5707387162189,35.26541435988486],[139.57072988307766,35.26529535979307],[139.57086481196154,35.265275640358595]]],[[[139.5670860306958,35.265464197614676],[139.56718907861318,35.265531694432184],[139.56706547309318,35.265599198444306],[139.56696241168606,35.265520306317114],[139.5670860306958,35.265464197614676]]],[[[139.5717199736979,35.26562805409145],[139.57168544692593,35.265770504904935],[139.5714964723844,35.26561530620148],[139.5717101171283,35.265521387302215],[139.5717199736979,35.26562805409145]]],[[[139.5647026977714,35.26594308120826],[139.5641121399633,35.26577391873144],[139.56541686109938,35.265159748323754],[139.56520408599988,35.265847252149],[139.5647026977714,35.26594308120826]]],[[[139.56774547297528,35.26598808058549],[139.56774547297528,35.26660808129799],[139.56674963658656,35.266157252055564],[139.56774547297528,35.26598808058549]]],[[[139.55663855972182,35.26904750493844],[139.55674856029793,35.26906999968077],[139.55676910531008,35.269227774941896],[139.55665910473397,35.269227774941896],[139.55656994774495,35.26910944124779],[139.55663855972182,35.26904750493844]]],[[[139.55683771728684,35.26931805428484],[139.55690661524818,35.26942499986393],[139.55679661467207,35.26947027893027],[139.5567280026952,35.26934610773674],[139.55683771728684,35.26931805428484]]],[[[139.55782022032702,35.26955472077378],[139.55765522710715,35.26980250468188],[139.55751771716893,35.26963917071123],[139.55782022032702,35.26955472077378]]],[[[139.57043130995703,35.26979113455326],[139.5704174190288,35.269875586289345],[139.57025269830342,35.26985864036402],[139.57028686085005,35.26977419762119],[139.57043130995703,35.26979113455326]]],[[[139.55856189391636,35.27010083768357],[139.55848632928075,35.27026444055156],[139.558390219633,35.27010666708907],[139.55856189391636,35.27010083768357]]],[[[139.55891243795872,35.27008972116374],[139.55880939004135,35.27026444055156],[139.55868549943636,35.270134721440286],[139.55891243795872,35.27008972116374]]],[[[139.55915272421896,35.270580000067014],[139.55896717339635,35.270546108216365],[139.55929021976795,35.27019110803326],[139.55934494171572,35.27038277514498],[139.55915272421896,35.270580000067014]]],[[[139.55956494196857,35.27066999972078],[139.55956494196857,35.270788333414885],[139.55942050635133,35.27082777498185],[139.5593863294156,35.27066999972078],[139.55956494196857,35.27066999972078]]],[[[139.56816438437886,35.27112641375305],[139.56811632910535,35.271290027412874],[139.5679788326571,35.271239197730836],[139.56802022035697,35.27110974841622],[139.56816438437886,35.27112641375305]]],[[[139.56614299620242,35.27112861259542],[139.5661990527442,35.27121958621501],[139.56598717336942,35.27135750534467],[139.56589297028438,35.27123053186358],[139.56614299620242,35.27112861259542]]],[[[139.56151936392757,35.271086386727404],[139.56144894881004,35.27137450522929],[139.561111310039,35.271466945643056],[139.56111352776713,35.27109322517225],[139.56151936392757,35.271086386727404]]],[[[139.5622145776407,35.27145130643271],[139.56164124544716,35.27135644144664],[139.56198814543666,35.271060387327054],[139.5622145776407,35.27145130643271]]],[[[139.56684557716176,35.27129355905055],[139.56679089478405,35.27145891919383],[139.56666719843247,35.271458892214184],[139.56670966262095,35.27131750529867],[139.56684557716176,35.27129355905055]]],[[[139.56086644622962,35.27178253213822],[139.5599145273336,35.27149166710683],[139.56004102507336,35.270650198447925],[139.56097693873483,35.270690333392224],[139.56086644622962,35.27178253213822]]],[[[139.57036603086772,35.27663519835579],[139.56965625173473,35.276940666578525],[139.56960089486552,35.27689527869421],[139.57034085614566,35.27657741421632],[139.57036603086772,35.27663519835579]]],[[[139.56936108884327,35.27922553183288],[139.5691671977081,35.279217197815456],[139.569174136877,35.27909886502067],[139.56933914358672,35.27910441383767],[139.56936108884327,35.27922553183288]]],[[[139.56929383933925,35.279517306078844],[139.56903208806045,35.279723694193194],[139.5689817251266,35.27967417122608],[139.56923846987956,35.27945538685668],[139.56929383933925,35.279517306078844]]],[[[139.5689063547445,35.28003413476756],[139.5689613617775,35.28009608096943],[139.56883080359876,35.28020302744778],[139.5687827501239,35.28006219811198],[139.5689063547445,35.28003413476756]]],[[[139.56808108917096,35.28138386517327],[139.56787080429422,35.28152219799108],[139.5678830215843,35.28134691922497],[139.56808108917096,35.28138386517327]]],[[[139.56729164719184,35.281652495366416],[139.5672863942517,35.28174727941348],[139.56677670618012,35.281736513629255],[139.56677932590526,35.28164387356594],[139.56729164719184,35.281652495366416]]],[[[139.5665505581618,35.28497550471582],[139.5664680543573,35.28511077534205],[139.5663786122832,35.285014946282786],[139.5665505581618,35.28497550471582]]],[[[139.31605562936386,35.3052703956123],[139.31585514889605,35.30555597263009],[139.31574011661314,35.30540240529683],[139.31588801641885,35.3052219005703],[139.31605562936386,35.3052703956123]]],[[[139.16342461715237,35.13849122469031],[139.16307007832154,35.13799230600017],[139.1633833589549,35.1371132249954],[139.1639597542394,35.13750474844545],[139.16342461715237,35.13849122469031]]],[[[139.15045561623378,35.14056786541471],[139.1504831130053,35.14065258604808],[139.1503458881523,35.14070313514162],[139.15029116710377,35.14061869419743],[139.15045561623378,35.14056786541471]]],[[[139.1489058882962,35.14900694611373],[139.14876177733424,35.1490610358382],[139.14857461672523,35.14954963121056],[139.1484874841102,35.149496676430545],[139.1486683269818,35.14892267604074],[139.1489058882962,35.14900694611373]]],[[[139.1494844752284,35.148878603864546],[139.14901439689697,35.14975935131304],[139.14884029804136,35.14946207231685],[139.14911601759025,35.14903977496567],[139.1494844752284,35.148878603864546]]],[[[139.14910025876998,35.15143208132554],[139.1495683010363,35.15266039606047],[139.14947622574732,35.152684396267944],[139.14910025876998,35.15143208132554]]],[[[139.14585328080432,35.15277805436375],[139.14582005175407,35.15273755879133],[139.14705880671863,35.152030305854],[139.1471057720138,35.15206297282799],[139.14585328080432,35.15277805436375]]],[[[139.14532332021508,35.153816152593436],[139.14539455281647,35.153593189074456],[139.14554837915443,35.15371719839004],[139.14532332021508,35.153816152593436]]],[[[139.1443109336028,35.15641670326829],[139.14431391665403,35.15670102663114],[139.144225446747,35.15666275688079],[139.14421728899674,35.15648404540241],[139.1443109336028,35.15641670326829]]],[[[139.14088000021195,35.16297433299911],[139.1406927235904,35.162869359633305],[139.14086894934258,35.16279189203226],[139.14088000021195,35.16297433299911]]],[[[139.14251450094355,35.162957955445336],[139.1425973932552,35.1630725497584],[139.14240527918037,35.16316619796174],[139.14233309959297,35.16301722526481],[139.14251450094355,35.162957955445336]]],[[[139.14761800336828,35.16600427937402],[139.14767299601203,35.16613927930433],[139.1475288328894,35.16619010808705],[139.14748771678478,35.16609983773736],[139.14761800336828,35.16600427937402]]],[[[139.14648717334444,35.1670520543089],[139.14627827522224,35.16732705440012],[139.1461580025898,35.16730538703405],[139.1463018941172,35.16708038655065],[139.14648717334444,35.1670520543089]]]]}},{"type":"Feature","id":"JP-14-capital","properties":{"Kind":"capital","PrefectureCode":"14","PrefectureName":"Kanagawa","CapitalName":"Yokohama","CapitalNameJapanese":"横浜市","PointKind":"prefecture-representative-point"},"geometry":{"type":"Point","coordinates":[139.642532,35.447735]}}]}
