{"type":"FeatureCollection","bbox":[141.90444461483503,45.966755276058834,144.6541475770856,50],"displayBbox":[141.90444461483503,45.966755276058834,144.6541475770856,50],"DataVersion":"historical-regions-v1","Attribution":{"BoundarySource":"Natural Earth public-domain geometry, curated by Ashiato Kai","BoundarySourceURL":"https://www.naturalearthdata.com/","BoundaryTermsURL":"https://www.naturalearthdata.com/about/terms-of-use/","HistoricalBoundaryNotice":"Southern Sakhalin clipped at 50° N in accordance with Article IX of the 1905 Treaty of Portsmouth; small adjacent islands may be omitted by the source map scale.","Notice":"Historical reference geography for immigration-era records. It must not be interpreted as a statement about present-day sovereignty or borders. See GEOLOCATION.md and THIRD_PARTY_NOTICES.md."},"features":[{"type":"Feature","id":"HIST-KARAFUTO","properties":{"Kind":"historical-region","PrefectureName":"Karafuto","PrefectureNameJapanese":"樺太","RegionName":"Karafuto","RegionNameJapanese":"樺太","GeographyType":"historical-territory","HistoricalContext":"Karafuto under Japanese administration","ValidFrom":"1905-09-05","ValidTo":"1945-08-25","BoundaryBasis":"Southern Sakhalin clipped at 50° N in accordance with Article IX of the 1905 Treaty of Portsmouth; small adjacent islands may be omitted by the source map scale."},"geometry":{"type":"Polygon","coordinates":[[[144.07268373427306,50],[144.6541475770856,48.97639069273754],[143.1739278505172,49.306551418650315],[142.55866824765013,47.86157501890495],[143.53349246640403,46.83672801369252],[143.50527713437265,46.137907619809525],[142.74770063697383,46.74076487892651],[142.09203006405454,45.966755276058834],[141.906925083585,46.80592886004656],[142.01844282447087,47.78013296161296],[141.90444461483503,48.85918854429957],[142.1358000022057,49.61516307229739],[142.14851586142606,50],[144.07268373427306,50]]]}},{"type":"Feature","id":"HIST-KARAFUTO-capital","properties":{"Kind":"capital","PrefectureName":"Karafuto","PrefectureNameJapanese":"樺太","RegionName":"Karafuto","CapitalName":"Toyohara","CapitalNameJapanese":"豊原","ModernName":"Yuzhno-Sakhalinsk","PointKind":"historical-administrative-capital-reference-point"},"geometry":{"type":"Point","coordinates":[142.733,46.959]}}]}
