{"type":"FeatureCollection","bbox":[124.26562462778531,34.39004588473648,130.78000735893113,42.985386867843786],"displayBbox":[124.26562462778531,34.39004588473648,130.78000735893113,42.985386867843786],"DataVersion":"historical-regions-v1","Attribution":{"BoundarySource":"Natural Earth public-domain geometry, curated by Ashiato Kai","BoundarySourceURL":"https://www.naturalearthdata.com/","BoundaryTermsURL":"https://www.naturalearthdata.com/about/terms-of-use/","HistoricalBoundaryNotice":"Outer peninsula geometry derived by dissolving modern North Korea and South Korea Natural Earth country geometries; the modern inter-Korean boundary is intentionally absent. This is reference geography, not a reconstruction of internal 1910–1945 administrative divisions.","Notice":"Historical reference geography for immigration-era records. It must not be interpreted as a statement about present-day sovereignty or borders. See GEOLOCATION.md and THIRD_PARTY_NOTICES.md."},"features":[{"type":"Feature","id":"HIST-KOREA","properties":{"Kind":"historical-region","PrefectureName":"Korea","PrefectureNameJapanese":"朝鮮","RegionName":"Korea","RegionNameJapanese":"朝鮮","RegionNameKorean":"조선","GeographyType":"historical-territory","HistoricalContext":"Korea under Japanese rule","ValidFrom":"1910-08-29","ValidTo":"1945-08-15","BoundaryBasis":"Outer peninsula geometry derived by dissolving modern North Korea and South Korea Natural Earth country geometries; the modern inter-Korean boundary is intentionally absent. This is reference geography, not a reconstruction of internal 1910–1945 administrative divisions."},"geometry":{"type":"MultiPolygon","coordinates":[[[[130.78000735893113,42.22000722916885],[130.78000366004676,42.220007813203225],[130.78000485358513,42.22001036108258],[130.78000735893113,42.22000722916885]]],[[[129.21291954968007,37.43239248305595],[129.46044966035817,36.78418915460283],[129.4683044780665,35.63214061130395],[129.0913765809296,35.082484239231434],[128.1858504578791,34.89037710218639],[127.3865194031884,34.47567373304412],[126.48574751190876,34.39004588473648],[126.37391971242914,34.934560451795946],[126.55923139862779,35.6845405136479],[126.11739790253229,36.72548472751926],[126.86014326386339,36.893924058574626],[126.17475874237624,37.74968577732804],[125.68910363169721,37.94001007745902],[125.5684391622957,37.75208873142962],[125.2753304383362,37.669070542952724],[125.24008711151316,37.85722443292744],[124.98103315643397,37.94882090916478],[124.71216067921938,38.10834605564979],[124.98599409393398,38.54847422947968],[125.2219486837787,38.66585724543067],[125.13285851450752,38.84855927179859],[125.3865897970606,39.387957872061165],[125.32111575734682,39.55138458918421],[124.7374821310424,39.66034434667162],[124.26562462778531,39.928493353834156],[125.07994184784064,40.56982371679245],[126.18204511932943,41.10733612727637],[126.86908328664987,41.81656932226619],[127.34378299368302,41.50315176041597],[128.20843305879066,41.46677155208249],[128.0522152039723,41.99428457291795],[129.59666873587952,42.42498179785456],[129.99426720593323,42.985386867843786],[130.63999970690955,42.39502427522179],[130.6400000000001,42.39500000000004],[130.77999231657833,42.22000960427719],[130.40003055228902,42.28000356705971],[129.96594852103726,41.94136790625106],[129.66736209525482,41.60110443782523],[129.70518924369247,40.88282786718433],[129.18811486218,40.66180776627199],[129.01039961152821,40.485436102859815],[128.63336836152672,40.18984691015031],[127.96741417858135,40.02541250259756],[127.53343550019417,39.7568500839767],[127.5021195822253,39.32393077245153],[127.38543419811027,39.213472398427655],[127.78334272675772,39.05089834243742],[128.34971642467661,38.61224294692785],[129.21291954968007,37.43239248305595]]]]}},{"type":"Feature","id":"HIST-KOREA-capital","properties":{"Kind":"capital","PrefectureName":"Korea","PrefectureNameJapanese":"朝鮮","RegionName":"Korea","CapitalName":"Keijo","CapitalNameJapanese":"京城","CapitalNameKorean":"경성","ModernName":"Seoul","PointKind":"historical-administrative-capital-reference-point"},"geometry":{"type":"Point","coordinates":[126.978,37.5665]}}]}
