{"type":"FeatureCollection","bbox":[134.8540352791049,34.70597222503818,136.0554763944201,35.778841801807744],"displayBbox":[134.8540352791049,34.70597222503818,136.0554763944201,35.778841801807744],"DataVersion":"2019-boundaries-v1","Attribution":{"BoundarySource":"MLIT National Land Numerical Information, via Fabio Crisci / piuccio","BoundarySourceURL":"https://github.com/piuccio/open-data-jp-prefectures-geojson/tree/513fb852832c99470e16b95a30ddd68bf3469dc0","BoundaryDate":"2019-01-01","CapitalSource":"Geospatial Information Authority of Japan (GSI), prefecture representative points","CapitalSourceURL":"https://maps.gsi.go.jp/","CapitalSourceRetrieved":"2026-10-04","Notice":"Simplified and enriched by Ashiato Kai. Modern geographic context, not historical immigration-era boundaries. See GEOLOCATION.md and THIRD_PARTY_NOTICES.md."},"features":[{"type":"Feature","id":"JP-26","bbox":[134.8540352791049,34.70597222503818,136.0554763944201,35.778841801807744],"properties":{"Kind":"prefecture","PrefectureCode":"26","PrefectureName":"Kyoto","PrefectureNameJapanese":"京都府"},"geometry":{"type":"MultiPolygon","coordinates":[[[[135.48659963656405,35.55793633279558],[135.48123500609074,35.55902350523064],[135.47431357990786,35.55687889194735],[135.47105044112504,35.56082166728618],[135.46656102457166,35.56177086483359],[135.46504924802446,35.56376855857218],[135.46857486383897,35.56627294563998],[135.46506066132054,35.57120253177146],[135.4574574707857,35.57041913503508],[135.45352914395494,35.56738838736425],[135.44950435764008,35.572241837790614],[135.44955347591224,35.58045730566016],[135.45376111508347,35.58432138672265],[135.4561058374145,35.58477944111837],[135.45254027191606,35.59142610822835],[135.45371306070922,35.59177555869513],[135.45476704276484,35.59159731486426],[135.45708167288092,35.59194222465402],[135.46145360559944,35.59864694570001],[135.46421416275348,35.600220279042674],[135.46273221761783,35.60372305387591],[135.45659027162378,35.600207505072376],[135.44974416276295,35.59795277520044],[135.45012639441768,35.594851386682194],[135.4443380537582,35.59072166657171],[135.44355500595884,35.590958333060655],[135.44239583739807,35.5917019455884],[135.43524444917205,35.58836138686854],[135.43458277567458,35.580972225088146],[135.43215138837593,35.58059389199457],[135.4322927761907,35.57978444099922],[135.4314747213814,35.58010777515375],[135.43113138810315,35.5791152788471],[135.4306266669871,35.578961386858566],[135.42899555130373,35.58010222543743],[135.42673082996384,35.58012389190412],[135.4288686119969,35.57728083814021],[135.4270362784016,35.57509477510382],[135.42515389123912,35.570270864708675],[135.42674988300075,35.56650089230237],[135.4180712193114,35.56862458555622],[135.41580433240404,35.56868663967674],[135.41334730183655,35.570090946340144],[135.40386072589183,35.56178402731109],[135.39986335900687,35.56195908124664],[135.396129947639,35.558507279087735],[135.39013296966084,35.55654717071542],[135.38503856028137,35.55986989228177],[135.37938108896617,35.56203836008228],[135.37757474667728,35.55894050500035],[135.36649136238657,35.551348467857565],[135.35736461688361,35.54945622502481],[135.35190747135277,35.544301999937375],[135.3482000521907,35.54293761328029],[135.34395077800605,35.54452317110753],[135.34411000027637,35.551351467995914],[135.34038302175907,35.54994355864835],[135.3387247474492,35.54726930583382],[135.3389486381692,35.54337174840754],[135.33651077755042,35.53769386517979],[135.3363287808486,35.5321168652012],[135.3391003106309,35.52363383823109],[135.344695357305,35.521031053640286],[135.34878160778499,35.52144322462516],[135.34951530528713,35.517870531999506],[135.34395664068643,35.515340999887314],[135.34740066101176,35.509877134622116],[135.342111893749,35.507353108159464],[135.35149796415976,35.50457265800179],[135.35502335874105,35.50237538671479],[135.35991555106193,35.50549038737154],[135.36356863768253,35.50410344122088],[135.37250547334895,35.506259946239595],[135.37791866361545,35.50467417077641],[135.37979489042186,35.50244666698018],[135.38359080377268,35.50397153226044],[135.38467914442708,35.5116421710494],[135.38786160772713,35.513357892253],[135.3888946427736,35.51642422519791],[135.3940957720023,35.51720066657754],[135.3966322828536,35.51576008126278],[135.39586236065952,35.51261708111343],[135.39104955869027,35.508749865014295],[135.39083885922605,35.50628558591109],[135.3940770040506,35.49975625244912],[135.40086411198922,35.50048130566779],[135.39793405960927,35.49638725177033],[135.4004518285891,35.49465508106721],[135.39614180340152,35.48964586536442],[135.39491024571134,35.4844624141092],[135.39822072570598,35.478885441110265],[135.39407405967017,35.477580279306494],[135.3918628273077,35.482838585632294],[135.38541496792652,35.47865233323864],[135.37350330713195,35.47690117065258],[135.3726648116318,35.48137164028901],[135.37717061023557,35.48095772102204],[135.38110192011754,35.483098171343556],[135.382058054136,35.48586230600068],[135.37866846977408,35.48784264012579],[135.3796360566588,35.49034653166717],[135.37493635522867,35.49170625174219],[135.36855489009622,35.48896183831823],[135.36397522657546,35.48812836013576],[135.35455619960896,35.488470694267164],[135.35100455291786,35.491566837939274],[135.348076614844,35.48931238685719],[135.34955282680153,35.48639419833364],[135.34669878062425,35.48247289161071],[135.34595708185395,35.47777017115652],[135.34385997435834,35.47484866683254],[135.33646308740163,35.47251961338952],[135.3353794160273,35.47023683815962],[135.33178182926804,35.46905355877476],[135.32966241229053,35.465179026690805],[135.3269862780943,35.46389705390595],[135.32751060982685,35.459953891858675],[135.32452282726672,35.45710910779911],[135.32046144034325,35.4564093866839],[135.3217282748401,35.452441666849495],[135.31671282683556,35.4511549186646],[135.31337350198555,35.45243266733377],[135.31091415026788,35.458070793332524],[135.31479902725334,35.45992538694708],[135.31789077773726,35.463408999925434],[135.31735538344424,35.46680310787718],[135.3193641118644,35.4691695047689],[135.3158299219134,35.47282725167639],[135.31950727584012,35.473726775170576],[135.321143645363,35.47757777469462],[135.3190068606781,35.48075041380059],[135.32432752329657,35.481869198304935],[135.32292844439223,35.48662163957704],[135.3243147727087,35.49014613483632],[135.3279996629542,35.49060713541104],[135.33208674440777,35.49517205364742],[135.3347001688777,35.50567736002222],[135.33157664084933,35.50989991894613],[135.3325271729907,35.51242505427291],[135.33123936360585,35.516833252152935],[135.3268419971605,35.51804338709269],[135.3270137478862,35.521187170551514],[135.32553396921742,35.522076775422875],[135.32498099857423,35.52437146756921],[135.3234480798651,35.52565444129948],[135.317199001233,35.52269005370306],[135.31718866442543,35.52029205373532],[135.31057552494053,35.512283504580125],[135.3023947727006,35.513754558925825],[135.2959336060511,35.51570346804067],[135.28965783374213,35.51590969427701],[135.28633778226288,35.517036197662435],[135.28311968872276,35.52037227865776],[135.27175116718263,35.52502583767233],[135.2732136959554,35.52865538723637],[135.26950516163402,35.530293198372476],[135.2692982492149,35.53334030561069],[135.25494822328199,35.534099170640275],[135.24855192023495,35.5359512524484],[135.2455721659228,35.53532666699215],[135.24039958477306,35.539721532422845],[135.23710085621963,35.54636055889273],[135.23652719757217,35.5500084411367],[135.23833221785765,35.55542272138155],[135.24246583742854,35.56021066698872],[135.24924124518736,35.56158817115721],[135.25198966329242,35.559542468010534],[135.24912649798955,35.55706250473088],[135.25066158226628,35.55405174808976],[135.25420547320414,35.555712865156636],[135.26109555081905,35.5536987210192],[135.2651291441947,35.55678858562476],[135.2748301688772,35.56016172138641],[135.26951635459613,35.56433677542191],[135.26245092087333,35.56805055908609],[135.2581154727509,35.56714350466905],[135.25408891117434,35.567969441136825],[135.25098011673902,35.570427468153184],[135.2498333849029,35.578122946217036],[135.24701620013764,35.58168774819109],[135.24765830079002,35.58753446834112],[135.25031286564626,35.58927683825556],[135.25485891071025,35.588115135405246],[135.256152360643,35.59849789206413],[135.25139808025722,35.59813494637075],[135.25095703024283,35.59399569434589],[135.24587072555357,35.59133163984336],[135.24490700395518,35.58833930581437],[135.2407868868055,35.58347438723325],[135.23775916984982,35.58156566702195],[135.23396263326902,35.58192872063398],[135.22781372202576,35.58527283797116],[135.2300287810035,35.57642672141611],[135.2279889108596,35.57510227904697],[135.2269008040289,35.56970958612857],[135.21607674374684,35.56615736027402],[135.21230839191878,35.56248930623656],[135.20762616071886,35.56276527939417],[135.2041709986927,35.55954033301998],[135.2039937477133,35.55526725198217],[135.20834814455134,35.553727198051774],[135.2108688327305,35.54827641432513],[135.20922505819,35.543298945589925],[135.20671330657387,35.540410973387736],[135.20183888485667,35.53757338660256],[135.19248744463994,35.54019180230989],[135.19094185538233,35.54450761283613],[135.18737089485103,35.547404748230576],[135.18840355398095,35.553280108190506],[135.18672321660324,35.55717150526078],[135.18896297006506,35.56485346831295],[135.191557782166,35.56938905426148],[135.1982158373911,35.5769744678974],[135.20555377378764,35.583558802097116],[135.20899350164882,35.59123297342302],[135.21212319093263,35.59315208080392],[135.2146244753393,35.59826863958608],[135.22537788578086,35.6033388023439],[135.22799719811223,35.60791430560079],[135.23370958472958,35.61174655875675],[135.23549930035244,35.61646291922841],[135.24129063575435,35.61782127862915],[135.2447560050856,35.62068935962628],[135.24622647217404,35.626855892185745],[135.24582158210035,35.63050555868466],[135.25037702957627,35.64018541422553],[135.25109955929724,35.64544417111165],[135.25288435832658,35.648980639944625],[135.26335642036258,35.66057674841824],[135.26406561583553,35.66348930628652],[135.26757457800443,35.66680630636597],[135.27245335873556,35.66641574788849],[135.2754725033534,35.66886222491178],[135.27865416265956,35.66830666691919],[135.28331444860294,35.670568333262],[135.2877813884004,35.675605278660726],[135.294480271947,35.67056889174103],[135.2913186117646,35.66881417143691],[135.2877444487474,35.66476444062647],[135.29181749717986,35.66412222486082],[135.29316138828756,35.6604886130591],[135.29879277566613,35.660646945899884],[135.29928778230533,35.6628552788481],[135.30341944225347,35.66313777478854],[135.2997747211266,35.669652505059105],[135.29855999964434,35.67360750488251],[135.30068805371081,35.67659361290498],[135.29890861194292,35.67903861324146],[135.30446472067035,35.68687166689398],[135.3044611152883,35.69194944061422],[135.30865917038443,35.69376333271168],[135.30652138835148,35.69920750462268],[135.29891444944235,35.700676108315804],[135.29461360633297,35.70506694568303],[135.28745138757154,35.707824721233976],[135.2864280544112,35.71089777481251],[135.28954722432502,35.718599441111394],[135.2884788845929,35.72162694582693],[135.28850444872137,35.724328054196405],[135.28398027157232,35.72849555932265],[135.28145221794557,35.7279269458719],[135.2778638906061,35.73165610794308],[135.2730366671086,35.73243499997534],[135.27435861206038,35.7359344410217],[135.273716109411,35.739777504927986],[135.267202503293,35.74253083782793],[135.26653805358842,35.744672774728826],[135.25718027225184,35.744380837705535],[135.25264722419013,35.750086107987556],[135.25199444858504,35.7547683328923],[135.25445147915252,35.75540972128164],[135.2551538910393,35.75899472112951],[135.25035639373266,35.75888472055345],[135.24351360606818,35.760274171315984],[135.23633972759637,35.766305278565824],[135.23060533097134,35.772636333100365],[135.22542005229366,35.77507469374217],[135.2252895849465,35.77803525202529],[135.22112461680763,35.778841801807744],[135.2193414401554,35.77500077486593],[135.22210852099147,35.77247983757451],[135.22014544665512,35.7704312790803],[135.20698705570817,35.763909440568284],[135.19915033731831,35.76521005360115],[135.19706875481927,35.76459789227897],[135.19612671857328,35.767515053776776],[135.19219036259517,35.76526358574591],[135.1860125030746,35.76447733276274],[135.1834860826167,35.760583747641874],[135.17458066116865,35.76132174840001],[135.17179644644887,35.75734558573026],[135.16591800271374,35.7572354682423],[135.1618672241931,35.75377325193409],[135.15093885874137,35.75261897298725],[135.15020452721717,35.75131955875071],[135.1487290266233,35.75149130587914],[135.1467528024,35.74988527858278],[135.14140046655837,35.75160774829902],[135.1385861092616,35.7576517752093],[135.13285655008974,35.75451364039225],[135.13518341098575,35.75253772103906],[135.12435374792722,35.745686720765605],[135.1083120225818,35.74389177468572],[135.10078066089886,35.74130946765786],[135.09465435771256,35.74297489157806],[135.09287294373144,35.738107188695835],[135.08959477278063,35.740331332624976],[135.08576596582668,35.7398756128693],[135.08466319105344,35.735044864928625],[135.08780496812483,35.73182491878504],[135.08526069972163,35.72577546806343],[135.07406202324387,35.71807538726938],[135.06793516157848,35.718026108018535],[135.06588669301652,35.71269536040262],[135.05924800289313,35.70739053214737],[135.05666732813472,35.70723646838837],[135.05548749675063,35.70560086508789],[135.05333557737504,35.704200775345555],[135.0462720879865,35.70243419837959],[135.04209985692296,35.69960883787763],[135.0368237736983,35.702265748165814],[135.03272747059634,35.70032805359682],[135.0329828663663,35.69926266723837],[135.03131350161686,35.697945279151384],[135.02978075198018,35.697349053815856],[135.03136258121822,35.69482797263288],[135.0298465886492,35.69175766738249],[135.02556836618726,35.689509694117135],[135.01991933860666,35.69228202699401],[135.01499788594379,35.69019746773898],[135.01113385164604,35.69263432381507],[135.0029576517743,35.6937932432636],[134.99930913101161,35.69095129656512],[134.9864489228795,35.69211263069343],[134.9840666934232,35.690315504656894],[134.9817421141073,35.68466386544509],[134.97473806720814,35.68345663981211],[134.97206454014645,35.67924538716494],[134.9727823870976,35.67635868480551],[134.96665143981215,35.67569417124906],[134.96411114101636,35.67074072070773],[134.96708547331605,35.66943366673041],[134.96667280230804,35.66644394613127],[134.9630678860741,35.66222530555348],[134.95499250290175,35.65776169414693],[134.94317922164385,35.652585306167],[134.92859795123456,35.6475360265664],[134.9233456676685,35.64636958608759],[134.90927277591788,35.645266000125844],[134.89991530484747,35.64854444087331],[134.89519233525812,35.64542094611983],[134.89230508431228,35.64880122519645],[134.88369963712864,35.646636666748805],[134.88283280219218,35.64932600029471],[134.88568007827303,35.65667046756806],[134.87875483806533,35.66086258623943],[134.87838347561694,35.660344838443564],[134.87754472111203,35.660144775261244],[134.87623147889974,35.658984693888556],[134.87054797670783,35.65971691920049],[134.86930522695468,35.65852291899756],[134.86750473385644,35.658232368728875],[134.86416916997132,35.651806945634064],[134.8676886119399,35.64967917125682],[134.86584389108282,35.64497110793036],[134.8670772240347,35.64171833293477],[134.865714720558,35.63940583780919],[134.86719610901332,35.636290838051764],[134.871313333044,35.63629944096647],[134.8703144488528,35.631586107612804],[134.87201306135375,35.62456805377269],[134.87389693869284,35.62115583797157],[134.870677223675,35.61483194563783],[134.86648138810563,35.613523054345535],[134.86741333305895,35.608429440866075],[134.86551778162038,35.599372505237],[134.86349360644488,35.59683333329173],[134.8579422182588,35.59344389192211],[134.8540352791049,35.5892830543695],[134.85611722403075,35.58655083755116],[134.86272944171048,35.58691610799207],[134.86606250278237,35.58105861306461],[134.86875888521445,35.580013613437586],[134.8679908300129,35.575961666697594],[134.87212555125325,35.57631000020638],[134.87576333321135,35.57395166663616],[134.881212502655,35.5673844411391],[134.8810516598063,35.56403361306087],[134.88828610941653,35.56016110804876],[134.89199444858502,35.55963472136534],[134.9008755505663,35.55606333275665],[134.9031263935683,35.549397504691115],[134.91480693938877,35.54493972089148],[134.91929194566683,35.53812110790284],[134.9174458371557,35.53453610805502],[134.91720221800801,35.5294758378397],[134.91512917007515,35.52770805398353],[134.9231508304465,35.52169000039328],[134.92335583720217,35.51631472104759],[134.93006389113577,35.5116772248241],[134.93360055781955,35.51323389193061],[134.93643333323178,35.512433053742484],[134.94210999967686,35.51420083759865],[134.9526480539646,35.51454277512903],[134.95502082974758,35.516067504611726],[134.9582138906586,35.512973054363044],[134.96343583739406,35.514524721238956],[134.9652702718057,35.51981917131775],[134.97405693867688,35.52505055913605],[134.97925666676178,35.523966386839334],[134.98203972765134,35.52845110803224],[134.98824832689888,35.529539721181266],[134.99341527919182,35.53430777468412],[134.9972183268644,35.53520722533324],[135.00157693882477,35.53431166694992],[135.0051280540165,35.53561138695602],[135.00800833971311,35.53363277503257],[135.01751027158184,35.53795527921284],[135.0243888846394,35.538548892017786],[135.02718749660573,35.54002972109481],[135.03694666695515,35.53856861325096],[135.03619111502803,35.53060999985166],[135.0393613880177,35.528476945554644],[135.04084250307915,35.52165610764331],[135.042961387658,35.520008612607455],[135.0428799999121,35.511390000248355],[135.04515583687248,35.50869305394133],[135.04128749662073,35.503742775308865],[135.0324166666959,35.49758972088898],[135.03540250312312,35.495821667236214],[135.0421633328716,35.494060559047625],[135.04220972799658,35.48908222516462],[135.04013250271294,35.48166083797736],[135.03566472115006,35.48022833307118],[135.03512416294984,35.47702833299121],[135.0410363942143,35.47330417115063],[135.04176722377838,35.46741417112713],[135.0437474967497,35.46598194591013],[135.04536527908442,35.45507250489226],[135.04979944219053,35.45107055865941],[135.05181805415998,35.44249083838156],[135.04938138784087,35.44013694566354],[135.04709693897257,35.42992277501611],[135.04702972813948,35.42389944060676],[135.04944083033013,35.42031555861621],[135.0502544487839,35.41365944143013],[135.04874333323835,35.40736110782893],[135.03839778243173,35.409753612938914],[135.0300344489308,35.410100279104654],[135.0297205576577,35.405580837785465],[135.02359194591168,35.40104110776099],[135.0192405582053,35.39412277524593],[135.01442555109838,35.39411666705058],[135.01187027229525,35.39172972065012],[135.00537583702533,35.39065166734065],[135.001966108749,35.387050279147104],[134.9905536058643,35.38571305381441],[134.98707444902664,35.38887833286884],[134.98861111521092,35.39283222472744],[134.98547832686336,35.396213612668134],[134.98075555062826,35.398368333431904],[134.97094666665544,35.39895110760756],[134.96511888532837,35.40339361282503],[134.96401666723546,35.406149999822674],[134.95893389058665,35.409111387280745],[134.95493360630098,35.408476386775874],[134.94614861216883,35.41330972116674],[134.9322755506762,35.40594638701617],[134.93153861201745,35.40140000020989],[134.92771166036493,35.39955417138793],[134.9255511146922,35.39397944129826],[134.92298111488662,35.39106194615192],[134.9265088845774,35.38572999973974],[134.92682610873794,35.37746083784742],[134.9204547214083,35.36829000038324],[134.91894165972985,35.364437224698236],[134.92346639355924,35.354238053843176],[134.9188672237434,35.35012499996884],[134.91720583687993,35.340158053851155],[134.92558306130934,35.336678054348795],[134.9280605577486,35.33023861262194],[134.92480166016855,35.326092774861706],[134.92593221769778,35.32177166732862],[134.92131861196447,35.31740889240649],[134.9246999999051,35.31165999960933],[134.93424333296355,35.3077525046744],[134.94090389100188,35.30874610804648],[134.94600666677434,35.30715138702692],[134.9471227757955,35.30393277457796],[134.95048360613362,35.30332305401578],[134.95435389071952,35.30029222540594],[134.96005333339474,35.29791250505809],[134.96623555102997,35.29788777460118],[134.96770221758334,35.29604222456908],[134.9764508296421,35.29508194557536],[134.98306111467878,35.29272750517026],[134.9864425026194,35.29258555887651],[134.99285888482973,35.28905361273411],[134.99677000043528,35.28967138672516],[135.0041363940794,35.2855655589035],[135.00732277572558,35.2855833331044],[135.01191360612813,35.28050610797055],[135.01197167265468,35.27617194587867],[135.0094111148311,35.2708822253345],[135.01048027204695,35.269737224693245],[135.01938888518896,35.26788972133363],[135.0357677816579,35.26256777538259],[135.03747000044018,35.26068861318902],[135.0421086118231,35.26408194592511],[135.04949138841687,35.26196277536184],[135.05433778186318,35.26475166655621],[135.05694194601404,35.26448333313937],[135.05802500584946,35.25493638660498],[135.06137917041247,35.25173861324646],[135.0605652785648,35.24878610839227],[135.06433722408372,35.2464363867299],[135.0644755506063,35.24184389168232],[135.0678747208417,35.23735110806723],[135.07287055822974,35.23955027872245],[135.07473861199742,35.243254170743455],[135.08042167262215,35.24423861272186],[135.08289972843977,35.246379721347125],[135.0854233331204,35.25319110828309],[135.08960527866077,35.25446722468274],[135.09120167331866,35.25805083777601],[135.09464834034873,35.260024441374924],[135.10033138838298,35.259728053606864],[135.10453639433922,35.2636094412228],[135.10931583685647,35.266292225006225],[135.11154333255877,35.26454055879981],[135.1192955506492,35.26263083764309],[135.12283610869952,35.26324555933513],[135.1289291702451,35.260716946330035],[135.1347922175869,35.26499305358658],[135.1379605579334,35.26521389200758],[135.14197999957742,35.26227972073258],[135.14701389087838,35.263997225291746],[135.1572536058693,35.261229999664806],[135.16061834016432,35.25834917077765],[135.16121472108262,35.253703053653055],[135.1647161091612,35.24899305408621],[135.1670261086681,35.24274472099211],[135.16642138833652,35.2390594413402],[135.16282138779684,35.234468892425525],[135.16181972829793,35.23123000026436],[135.15647194572375,35.22982833311113],[135.15469167298238,35.22669944062676],[135.1630672237734,35.22009055943181],[135.17096666717805,35.22026694616267],[135.1717769392544,35.21753583820839],[135.17513138800325,35.214600837758496],[135.18206500629503,35.215983612853506],[135.18810444936094,35.21001361273807],[135.1888350064305,35.2068286133499],[135.197057782191,35.20301750505388],[135.2001319464323,35.19552027893775],[135.19910389093184,35.193581945850156],[135.19289389144,35.19407110779542],[135.18671306055933,35.190223891719256],[135.19014000006098,35.18318610765277],[135.18725194602052,35.171943332918545],[135.193374448672,35.17210444106718],[135.20324250263945,35.164907504877476],[135.20662999967476,35.16061444090377],[135.21363749727277,35.162532774867714],[135.21646138828248,35.16163277473282],[135.2221594424044,35.16289277528142],[135.22857111486508,35.16578138690153],[135.22958805384565,35.172357225205815],[135.23202972758997,35.17745666719151],[135.23753111526878,35.17632944075115],[135.2500644486155,35.17803499961559],[135.25356444904014,35.17643638722956],[135.2573313880332,35.17758638720204],[135.25966555142418,35.17602610841823],[135.26743583689438,35.17571083758514],[135.27409527887403,35.17722917108944],[135.2772872237265,35.17457861271288],[135.2808016726591,35.17452027908769],[135.2847233328156,35.171185837556436],[135.2892258372027,35.17240750540208],[135.29018749665568,35.164949720852974],[135.29220583702977,35.161305559104335],[135.28810416317663,35.15835333303994],[135.28561416256366,35.15265750474009],[135.2829352791399,35.150808333138116],[135.27854306131326,35.151082504953706],[135.27993000026936,35.1469672252573],[135.28761834041416,35.1427325048013],[135.2937455510164,35.14156972096589],[135.29874778168482,35.143597505120795],[135.30348111506146,35.14275638719755],[135.3153274967666,35.14625777527618],[135.32403194581775,35.1466033325778],[135.3268416734046,35.14921583794063],[135.34095944222452,35.14965750489],[135.34087250296375,35.14568499976298],[135.33743555130968,35.14408666706606],[135.33988360574392,35.14099110795331],[135.33976055780352,35.13780027915959],[135.34322055818222,35.135641107651054],[135.35471167260562,35.13665527941765],[135.35987610859559,35.13215805405099],[135.36815389138906,35.131102224787924],[135.37273610898433,35.12895750538462],[135.38222027204802,35.12979833282685],[135.3898099997317,35.12876527889455],[135.39120389134655,35.12648444080435],[135.3860744488768,35.1207361082848],[135.3872216726421,35.11648694561609],[135.39101472075288,35.114509170961526],[135.39331472069784,35.11050805390363],[135.3891725027089,35.108333612806064],[135.3876847209732,35.099153053670534],[135.3905088853768,35.0987950002891],[135.40068194621495,35.093820558671894],[135.40161277600885,35.090614441403375],[135.40428138827554,35.08899305368652],[135.40010916980236,35.085958054021035],[135.39868944156456,35.08170694611874],[135.39953527912985,35.076099441136364],[135.39559138773245,35.075737775178254],[135.39369277590094,35.07319638730348],[135.38707360556248,35.07254389228683],[135.3821066669891,35.06867889211725],[135.3766136061331,35.06602444057552],[135.3771530608651,35.06086777472808],[135.3713105576362,35.0586058376893],[135.3687288846304,35.05488972118371],[135.36929805386217,35.04870444135696],[135.3712455510414,35.04528889176902],[135.37597527903597,35.04413500043],[135.3800444486924,35.03910638725],[135.37990221821292,35.035178054123946],[135.38190444903114,35.03190944116784],[135.38168888513405,35.02619250488027],[135.37997555073116,35.022118333194555],[135.37769306058635,35.02063861298166],[135.38155083020672,35.01037527909591],[135.389063605601,35.01140805423836],[135.39415555083804,35.008750000012526],[135.39747389090735,35.010641667279174],[135.40324722368052,35.006691945576904],[135.4097672239783,35.01152555875757],[135.4134394418768,35.00907694584441],[135.41810389078205,35.003221666846514],[135.42281778171537,35.0021094410979],[135.43348693917096,35.007920279197606],[135.4361883398201,35.008406666734345],[135.44679055803783,35.00545055919599],[135.45196972762085,35.00175138681709],[135.45987306059328,35.00158694578096],[135.47122167294197,34.99480472116102],[135.47657833991855,34.99417638733047],[135.4818855513771,34.995145558820525],[135.48298389069407,34.992773053733515],[135.48744917034298,34.99225055931589],[135.49305583715727,34.98767000007052],[135.4866788848227,34.985291946166456],[135.48316277574156,34.98186833325701],[135.48672194616097,34.97379999987015],[135.48845555128275,34.966571667448534],[135.48193639364968,34.9652297206751],[135.48116583743354,34.96239944088154],[135.48435444939844,34.960467494779095],[135.4847755506512,34.95456027903373],[135.48085944200966,34.95029138703791],[135.48404805397456,34.94766666708307],[135.48834194622395,34.946386386822326],[135.49041778205503,34.94179444126053],[135.49461167329014,34.94084305386389],[135.4996747206119,34.941344999672026],[135.50402888542476,34.94628694608576],[135.507668885111,34.944602774898215],[135.51470221843272,34.94372582888394],[135.51502111533227,34.936922495376905],[135.5172713881641,34.933479720612695],[135.52124527914634,34.933288054400236],[135.52256277605136,34.930284162284295],[135.53025610923214,34.92725249460699],[135.53699360607015,34.925525000378514],[135.53600722425404,34.92091638678187],[135.54106027201397,34.91530972086696],[135.54431000010652,34.917450828592905],[135.55332834043065,34.91554833258954],[135.557815550947,34.91746889237555],[135.5627374973377,34.91779082898364],[135.56740944209218,34.91628805375075],[135.57267472086176,34.916502774983144],[135.57398138813062,34.91833972120122],[135.58125805371628,34.922451667110806],[135.58058416292886,34.93043416200703],[135.58105333294498,34.937035828840465],[135.57645972813395,34.93876555878359],[135.571915550962,34.93908166688544],[135.56468389104884,34.93302416183565],[135.5660166674353,34.940127775376595],[135.5623941631602,34.94159527919885],[135.56184360629743,34.9377647212649],[135.55718666673135,34.938691666886996],[135.56231000010644,34.94364833340393],[135.56124360560796,34.94666277456747],[135.56313138780342,34.95366389237478],[135.5743391699168,34.954847224819616],[135.57857778173934,34.955885000192666],[135.57836027170924,34.960461945962095],[135.57383194598754,34.96086166673257],[135.57123111472424,34.963915559355655],[135.57092666723202,34.969788332865335],[135.57703583743398,34.97392416207049],[135.5846674969075,34.97513999961137],[135.5892422177542,34.96722110836748],[135.59209666682773,34.96611194570977],[135.59598555119226,34.968870000050515],[135.6033188848587,34.97114861321796],[135.6076438909529,34.969329441200784],[135.6132636060306,34.971195279038966],[135.6156666673828,34.962804161882616],[135.61879250307163,34.958816387166564],[135.61152306084068,34.94389833324152],[135.61080138817363,34.939740000300844],[135.60761944198373,34.93692361323423],[135.60344805358488,34.935820000292836],[135.60111111488607,34.92971694638004],[135.6053711152848,34.92738972125869],[135.60765306133976,34.92833805365831],[135.61519944170095,34.927624721303914],[135.61911138827998,34.9319633332413],[135.6237502721574,34.934908053563845],[135.63297306075822,34.93462222473596],[135.6365738913721,34.93103777527318],[135.64276500600033,34.93066222468195],[135.64488749686052,34.927590558757345],[135.64853555087507,34.92598610797256],[135.65231972807305,34.9170750001112],[135.64953693877874,34.916764721414836],[135.64850221840277,34.90954749472115],[135.65408583739156,34.909344999771974],[135.662032775792,34.9036969461572],[135.66881083025567,34.90382222531548],[135.6746372239288,34.90017805367427],[135.67921167318025,34.89032472070937],[135.68269444888972,34.887842224938765],[135.67992221763632,34.88134138739514],[135.68351861189444,34.87763277483276],[135.68255221841025,34.872151387176814],[135.69106000011902,34.8684841623143],[135.69187778243372,34.85894138683557],[135.69164277609332,34.85329222525604],[135.69565250326048,34.8481688918809],[135.7022566666119,34.85173000033927],[135.70530360567693,34.85099027917812],[135.71017111520484,34.84662972108481],[135.71216555069964,34.840051108371995],[135.71568693880124,34.837862494858314],[135.71935221843023,34.83106166686247],[135.72315216613958,34.82683725173786],[135.72426888490122,34.823218333059685],[135.7318750063265,34.82266944084205],[135.73508527936224,34.819889999723785],[135.73681360636294,34.8147063865905],[135.7418819461949,34.808396108193904],[135.74290833974817,34.80543166663813],[135.74658861197497,34.801244441178085],[135.7430602721139,34.79365166659119],[135.73948138765593,34.791176666669855],[135.74067444896673,34.78836722506742],[135.73229444922947,34.782748612558464],[135.72863472111555,34.77799805356739],[135.72979167284745,34.77478916189034],[135.73012444898416,34.76776889212073],[135.73335333259024,34.7547836125737],[135.73663610896926,34.75530277500309],[135.73639500612467,34.74996666742783],[135.73922861161122,34.74827055863943],[135.7463555508681,34.746833054401975],[135.74758389078397,34.74323582917026],[135.75705778179122,34.73591916173996],[135.75534749698943,34.734085559201276],[135.75480389098686,34.728264720640425],[135.76133527939965,34.725980278966745],[135.77340444925596,34.72469749499345],[135.78170360623653,34.72309055938189],[135.7845761092001,34.72451500006724],[135.79195944157505,34.724733332976996],[135.79530610938946,34.72334249456054],[135.80368055761176,34.721857224631265],[135.80584138836946,34.71799694590237],[135.81236555072962,34.717270558989185],[135.81330999985664,34.71506610841425],[135.8197858371467,34.71169444124553],[135.8266447208772,34.713660000408765],[135.83181555104693,34.713415278692196],[135.8390005577296,34.711799161901865],[135.84174360598274,34.70929194556686],[135.84941472141236,34.708208332648496],[135.84901555102692,34.70597222503818],[135.8554391700817,34.70602194585615],[135.85970833996794,34.707113333413645],[135.86330944217707,34.706240829151],[135.86794416309272,34.71046749527875],[135.8727122183942,34.71148555931114],[135.87613749684806,34.713877495150314],[135.88515888497466,34.71362027915262],[135.8901711152049,34.70943889209127],[135.8953863943667,34.72488833293028],[135.89752138760207,34.72694694584493],[135.89738639396694,34.73087194608348],[135.90302083004735,34.732915829002366],[135.90851306082914,34.74137222524803],[135.91174916958857,34.74385222539996],[135.91615610931706,34.75368638661752],[135.92038666681128,34.75300527877067],[135.92441722407568,34.75767249488979],[135.92896250291722,34.75684110763109],[135.92891972756343,34.7527297210998],[135.92318167339556,34.7445949997595],[135.92392306100055,34.74144638694128],[135.93247194622336,34.73764666676033],[135.93608722444594,34.74006610836426],[135.94111333301396,34.73904582930163],[135.94976360600572,34.744308053973555],[135.954924449204,34.748285278742685],[135.95784972798265,34.744621667356114],[135.95826333338618,34.74088416227431],[135.96226666727296,34.74007527875119],[135.96598861228472,34.74318694562112],[135.96975416272448,34.740524161860606],[135.97277805396413,34.7420752792508],[135.97809138800721,34.737065559028395],[135.98095360632396,34.73713582935511],[135.9827008298795,34.732185828613126],[135.98609333344064,34.72632444141988],[135.9850402722908,34.71917833311363],[135.9861616729229,34.715306945958844],[135.99236472065536,34.713768892120754],[135.99974527862173,34.712980828802245],[136.0052358366646,34.717328333236026],[136.00932250263145,34.716614161814164],[136.01268250289525,34.71402889241949],[136.01386610873396,34.707798892005314],[136.0194061088049,34.70856638692925],[136.02681306097406,34.70610472125594],[136.0293152788771,34.71374416166378],[136.03380916955757,34.71769861290073],[136.03944527927626,34.72011972094839],[136.0416299996249,34.72825194577075],[136.04186693860845,34.7342755589699],[136.04489472121452,34.73725055856647],[136.05107861158876,34.7387158293721],[136.0554763944201,34.738555559391614],[136.04983639423426,34.74050555938413],[136.04761111536072,34.744195829374064],[136.0392691704359,34.74938805441525],[136.03813250291273,34.75622333274066],[136.03020389089693,34.75590527940517],[136.028379441658,34.75833027881936],[136.0310363942143,34.762231386769145],[136.02934416330254,34.764815558990904],[136.03331472139735,34.77181944131422],[136.033577497004,34.779439441077386],[136.02260583728957,34.78231055908509],[136.01995972785926,34.786373892141455],[136.02228888472428,34.79155527855329],[136.0163097277118,34.794694161606344],[136.01571055799593,34.79782222491582],[136.01133111503896,34.79580555907933],[136.01027111472024,34.799553332620235],[136.01360666691426,34.804897775112295],[136.01505138821108,34.80914582891694],[136.01865778203103,34.81267138717482],[136.02054500574752,34.812232494633975],[136.02903389090136,34.8173900004482],[136.02771138837,34.82180166701335],[136.0217019457882,34.824668891855936],[136.01549000016348,34.826599161622084],[136.0121661085791,34.82517361297192],[136.00538250260047,34.82655555889198],[136.00232778170187,34.83276194580719],[136.00255888498464,34.8373411084055],[136.00526972761588,34.84311027911616],[136.00075083038655,34.84508555905137],[135.99480277642704,34.84225999979918],[135.99158722437096,34.84283916229754],[135.98708639362223,34.84080055929843],[135.9777766666599,34.83846138668372],[135.97147138759453,34.83849444126548],[135.97205444865392,34.84604889214273],[135.96713167308826,34.8473550000333],[135.96273277599687,34.85043361322073],[135.96288360579388,34.85312694605176],[135.95713360593118,34.85477638722057],[135.9495852794372,34.85158027940645],[135.94703527875515,34.85352055862694],[135.94098833984003,34.86373889223614],[135.94137693869482,34.86823610771023],[135.94362693903213,34.872794441110614],[135.9432469385954,34.87825222516011],[135.9400777816644,34.88027638684582],[135.9411819458902,34.884732774897714],[135.9395766668298,34.88851082861191],[135.94027083013475,34.89237805370425],[135.93602610921766,34.89164055926443],[135.93286360637035,34.887794441260496],[135.93084610866106,34.888636107770196],[135.9239513878464,34.88490610843019],[135.9126555513127,34.883516386971735],[135.9098788846029,34.88036249513311],[135.90946027177415,34.87689749542312],[135.89966944169146,34.87140444086231],[135.88872250344082,34.87549582916921],[135.8855380544377,34.87822972142453],[135.8887205582073,34.881287494622256],[135.88417944232742,34.88451166668011],[135.88141027236622,34.883746946164706],[135.87586472078033,34.88628555873163],[135.86752055812735,34.893336667153505],[135.8672891697595,34.89686944067222],[135.8631311147093,34.903696386778904],[135.87117834010837,34.909948613038125],[135.87118416321857,34.91505777489647],[135.86905277626465,34.920170829020606],[135.87185360595925,34.92389861333038],[135.8707133330539,34.926003892066035],[135.8799244493539,34.93452499992884],[135.87602833983613,34.943229720575175],[135.87867944230243,34.94720610807548],[135.875712775824,34.950559721354125],[135.8754266673069,34.95366527912938],[135.8638783398136,34.957601666583685],[135.86321972760845,34.96055999994411],[135.8561172238309,34.967127225441175],[135.85564778221942,34.969879161693996],[135.8522752786812,34.9713474946912],[135.85407749667922,34.97658666704109],[135.85675999987416,34.980002224722966],[135.8550263938531,34.984741667194214],[135.84911778235983,34.98481249510064],[135.84926722360353,34.99173389160586],[135.84230027194008,34.98994194566433],[135.82747527896106,34.99111916181994],[135.83257194563885,34.99910082933985],[135.83655888488465,35.00122638688828],[135.8340533331948,35.00447527861127],[135.83268167282097,35.009425279353195],[135.82409749730175,35.00882417069897],[135.82494555079654,35.01235055903112],[135.83170111501454,35.011708891851924],[135.83546416264107,35.01232861287525],[135.83451778177027,35.022080558970686],[135.83004583724562,35.021417505013915],[135.8264213877369,35.02361361257823],[135.82811221840427,35.02838055901566],[135.82461666692575,35.035638333442364],[135.82170360633643,35.03605389217341],[135.81541693874078,35.042150837890915],[135.81590138823856,35.047369171150365],[135.82110138791882,35.04940944059325],[135.82698306111945,35.05385305377547],[135.8315561092271,35.05259166737159],[135.8348525031406,35.05555389209849],[135.8358466667903,35.06232972074008],[135.83441805414998,35.067752225285005],[135.83189194575675,35.07145555882704],[135.83421916997872,35.07607444088279],[135.8383174965553,35.07907861268785],[135.83983972772137,35.08613694626314],[135.83504610919067,35.091326946381514],[135.83789472076478,35.09744389212199],[135.84293834003245,35.10251500006723],[135.84326250336187,35.10990333267273],[135.84495527926276,35.11432472090917],[135.847350557882,35.11426000029883],[135.8498125032445,35.120539720631655],[135.8496055512552,35.12693889161659],[135.85229416264553,35.134266946262585],[135.85017389131212,35.13522472064437],[135.8487100000665,35.141852225000264],[135.8526141630133,35.14618027889679],[135.85456333293155,35.15273083815771],[135.85676306116636,35.153615000332024],[135.85615306091506,35.15943694595836],[135.85028194575523,35.16033555933865],[135.846813060974,35.162386946200684],[135.84236306080663,35.17390750532718],[135.84313639412937,35.178888612719334],[135.84063027226932,35.18006555907834],[135.84190805421338,35.189839721126305],[135.83982055777255,35.19143861320151],[135.83524055790554,35.20221000019143],[135.8354941631252,35.20669694630709],[135.831086939211,35.21041722487507],[135.8324783397037,35.214278613367355],[135.82981583743106,35.21612972120971],[135.8293244487644,35.220480559430314],[135.83086416275103,35.22276138672868],[135.8373519457358,35.22595694595634],[135.83753221843722,35.2375466674448],[135.83522250311614,35.239639720796504],[135.83992360568993,35.24385110834203],[135.84015277632966,35.24793250518104],[135.84399444898474,35.25172666665242],[135.84236027200905,35.25319861312556],[135.84608916967954,35.257112225249045],[135.8446672237135,35.261307505037394],[135.84753472105058,35.266665279079405],[135.85247861179857,35.26895861324948],[135.85505111531677,35.272152774930646],[135.8545322181874,35.275327504960444],[135.85849167325216,35.27837277488368],[135.86075527943262,35.28295999990411],[135.8585372239138,35.28709666727741],[135.85507250299372,35.28833833334744],[135.85168111459188,35.28596777529265],[135.8496158368015,35.280281945655304],[135.8417833326348,35.27812444059049],[135.84008167323066,35.275554170988244],[135.83460861239757,35.27407944111337],[135.82962333305045,35.27673527940965],[135.8255352794297,35.283511667429536],[135.8200533332947,35.291069999780746],[135.82140250342286,35.29683500033502],[135.81967917035752,35.29930722494851],[135.81496749715234,35.3012575046302],[135.81436416267604,35.30711166667015],[135.81067194565378,35.308317224960035],[135.81124888502814,35.313530279199085],[135.8087819457303,35.31687833286884],[135.80364444893223,35.31725055866639],[135.79087111530976,35.32380277537783],[135.79003416304624,35.32821889178848],[135.7857330609321,35.330719170753184],[135.7808185213578,35.340561972656985],[135.77431416296827,35.34282002732243],[135.76407275005738,35.34455753190463],[135.7662486120838,35.34850225157771],[135.76878530459817,35.35601446759364],[135.76437391682282,35.356524467730026],[135.76003416274648,35.35435419768811],[135.75518167279597,35.35444558589512],[135.75075386519882,35.35700364000604],[135.7441410890401,35.35893833263799],[135.740168002951,35.35827222458357],[135.74062189438496,35.353946945994835],[135.7363704672233,35.35114638699622],[135.73147907889643,35.35055222470544],[135.72779795141435,35.35258138662175],[135.72501654977407,35.3517352792598],[135.7189384952154,35.35530000029485],[135.71279153010505,35.353078333098665],[135.71072428010154,35.348001386754675],[135.7009864722479,35.34368694589591],[135.69235116667312,35.34594055880979],[135.68995282676156,35.34785389164381],[135.68526033699504,35.347433332682215],[135.6800964459942,35.350028305761725],[135.67711447485317,35.34983774841339],[135.67366836630208,35.353278026659666],[135.66949557675957,35.35434441396359],[135.66819836586194,35.357066359624866],[135.6613433330284,35.35634191884452],[135.65932805394664,35.358497467883865],[135.65244333269368,35.359939413872894],[135.6423644227799,35.366715252407005],[135.6366374707427,35.363709414158166],[135.62836800308094,35.366879134964165],[135.623470778154,35.36989913483728],[135.61775688697082,35.36985358597428],[135.6150960574372,35.37105997343906],[135.61167824875224,35.36921635964734],[135.6070626977853,35.37149553219308],[135.59978574621528,35.37121858596902],[135.5949482488627,35.37264969422807],[135.59386933939857,35.37048219769531],[135.58810238731542,35.36825746830755],[135.583948495227,35.37020246806952],[135.57961155602857,35.374873865136806],[135.5717284703927,35.374263864885506],[135.56808403435082,35.374881081296905],[135.56583847036916,35.377326640112415],[135.5587804146844,35.376479693682995],[135.55326708221014,35.37784691860048],[135.5504095592538,35.3768749727019],[135.5369801171388,35.3766713598954],[135.52754119267195,35.38021719786542],[135.52714649821235,35.384685802307956],[135.52878150526237,35.39072246826737],[135.53164233502582,35.39279691914254],[135.52983483800745,35.39757219779875],[135.52790345038397,35.39765969373991],[135.5251978858738,35.403084693903565],[135.5299698307432,35.40842383759008],[135.5277228916982,35.412141892134684],[135.52702263278832,35.418415224582986],[135.52393066107118,35.42183133264996],[135.5208078857754,35.42292633278407],[135.51590399507336,35.42194827869014],[135.51014483831375,35.424421918836515],[135.5056945530613,35.42089746764407],[135.50204897488038,35.420031360259145],[135.5005067436913,35.42326053164828],[135.49536396877215,35.426409414263105],[135.4954734108693,35.42925913470134],[135.50048538299404,35.4325471981947],[135.49778817138701,35.437545252411496],[135.4951639694417,35.43895302686076],[135.49098369574108,35.438552467922136],[135.48603619961102,35.44864219757943],[135.480862023064,35.44808219783522],[135.470321751048,35.45448719822565],[135.469452308977,35.458158306360815],[135.46276839194775,35.46224691935987],[135.4584292224307,35.468856919311406],[135.45895450114938,35.47297163962952],[135.46248092095777,35.478807468090224],[135.46958647163842,35.48478719797089],[135.47066730205438,35.4892999726157],[135.4763031653589,35.489681081017125],[135.47257594042742,35.50117636020093],[135.47622455292083,35.50549274809191],[135.4730323346746,35.50823080240963],[135.46665593991975,35.50948608061816],[135.46363817126462,35.51316441390662],[135.4597606606261,35.51445441404002],[135.44992619993423,35.52079608057471],[135.4498620485947,35.52724969381836],[135.45453927416827,35.53415386470914],[135.45413761266082,35.536933865205754],[135.4596381972451,35.54342522479436],[135.4604845780009,35.548456892071954],[135.46684489017957,35.551913838353016],[135.48659963656405,35.55793633279558]]],[[[135.3140994419358,35.455664559172135],[135.31254564186793,35.45530561276388],[135.3125525810368,35.45528105407743],[135.3140994419358,35.455664559172135]]],[[[135.33429344958313,35.47465799976692],[135.3315482753327,35.473377513561445],[135.33392605674214,35.47060797307955],[135.33599583743796,35.4732184675583],[135.33429344958313,35.47465799976692]]],[[[135.3219325549435,35.478203531967495],[135.32194481180363,35.47866041364722],[135.32152461706744,35.4785196130897],[135.3219325549435,35.478203531967495]]],[[[135.3443224120498,35.489780946233736],[135.3442536058193,35.48805974815889],[135.34617116726565,35.48886210799992],[135.3443224120498,35.489780946233736]]],[[[135.3679874970254,35.49843346842988],[135.36740228298902,35.49665369391289],[135.36875557740802,35.497202613110176],[135.3679874970254,35.49843346842988]]],[[[135.3423917771588,35.497521054053436],[135.34149396867178,35.494594865160934],[135.34460291779044,35.4944745322739],[135.34769369610729,35.49604180238731],[135.34457933936505,35.4978802522719],[135.3423917771588,35.497521054053436]]],[[[135.37357719812928,35.49832146776157],[135.3740036710327,35.4989163333222],[135.37363946808705,35.49926094633565],[135.37304136226908,35.49890774839395],[135.37357719812928,35.49832146776157]]],[[[135.38964891136823,35.505637892374864],[135.38959038888538,35.50572177484008],[135.39014005182196,35.504115693584424],[135.3901378080135,35.504209134943665],[135.38964891136823,35.505637892374864]]],[[[135.34724442269203,35.517084225056976],[135.34690496818985,35.51840705404237],[135.3468256416901,35.51839027898825],[135.3471650836018,35.51706744100966],[135.34724442269203,35.517084225056976]]],[[[135.3463839432644,35.520285360081346],[135.3463003368911,35.520276026917145],[135.34607693899954,35.51857835960368],[135.34615817116276,35.518569531858475],[135.3463839432644,35.520285360081346]]],[[[135.32675710835395,35.52163191857824],[135.32674858637824,35.52142717082734],[135.32692316457246,35.5214726666303],[135.32675710835395,35.52163191857824]]],[[[135.48686102541603,35.558047999815415],[135.48673992181,35.558299107617756],[135.4865504670305,35.55829077539903],[135.48667046716844,35.557966333279694],[135.48686102541603,35.558047999815415]]],[[[135.47747211404692,35.55845408059139],[135.47747613491572,35.558565865422395],[135.4773015297419,35.5585485318893],[135.47732722427202,35.55846327885729],[135.47747211404692,35.55845408059139]]],[[[135.47335158230976,35.56165938667141],[135.47342797701958,35.56174994570347],[135.4732413101384,35.56180799963954],[135.4732457455948,35.56167661318523],[135.47335158230976,35.56165938667141]]],[[[135.40081111494112,35.56409750539564],[135.40085277603487,35.56426055877779],[135.40076583677399,35.56429250539486],[135.40073583718925,35.56413777523818],[135.40081111494112,35.56409750539564]]],[[[135.4012427760333,35.56416389155038],[135.40137277573308,35.56433389219541],[135.4011783396088,35.564375000206155],[135.4012427760333,35.56416389155038]]],[[[135.39725444913358,35.56664250494771],[135.39750805435324,35.5666972250969],[135.3974236062145,35.56680555922924],[135.39725444913358,35.56664250494771]]],[[[135.48166213999582,35.56771910765076],[135.48163824860637,35.56790410808816],[135.48154213985788,35.56791438733916],[135.48157518814446,35.56771744120698],[135.48166213999582,35.56771910765076]]],[[[135.41036050583273,35.56792405415183],[135.41035869010148,35.56800744109057],[135.4101391440064,35.5680533325953],[135.41023680858189,35.567915972843934],[135.41036050583273,35.56792405415183]]],[[[135.4774879771885,35.56807605396676],[135.47936380019928,35.565935504719846],[135.48066936400005,35.567707170949234],[135.4774879771885,35.56807605396676]]],[[[135.41480116744003,35.569584946388204],[135.41475910524855,35.56984469397747],[135.4145751875949,35.56986074777535],[135.41466649756092,35.56956463969641],[135.41480116744003,35.569584946388204]]],[[[135.45789997410463,35.57056950527851],[135.45768069960468,35.570857864798654],[135.45762450097004,35.570615413870314],[135.45789997410463,35.57056950527851]]],[[[135.46669691303214,35.57086761255033],[135.46605555072313,35.57035919791872],[135.4668158627619,35.57033283789019],[135.46669691303214,35.57086761255033]]],[[[135.45149552499856,35.57094769358122],[135.45135014329458,35.57107330638803],[135.4512262517901,35.57096044057192],[135.45136686079206,35.570774747656515],[135.45149552499856,35.57094769358122]]],[[[135.4679010252122,35.57104938711956],[135.46784907857216,35.57141522503264],[135.46758269758345,35.57130605363153],[135.4679010252122,35.57104938711956]]],[[[135.46319477312034,35.57139650474494],[135.46303686116232,35.57148574806888],[135.46292021999227,35.571303252243354],[135.46319477312034,35.57139650474494]]],[[[135.42541308664465,35.57240933292445],[135.42549610935805,35.57260369440502],[135.42542525267334,35.572821413977124],[135.42529775578691,35.57278663989155],[135.42532819693884,35.57247941439351],[135.42541308664465,35.57240933292445]]],[[[135.42646571971727,35.575085306142],[135.42648900136635,35.57522377475743],[135.4263405062095,35.57520836037759],[135.42646571971727,35.575085306142]]],[[[135.3956936055755,35.576173332933024],[135.39588111512148,35.576255837636836],[135.39594138768496,35.576467504771585],[135.39566834002198,35.57642722503647],[135.3956936055755,35.576173332933024]]],[[[135.395469442361,35.576301387399155],[135.39557027165074,35.57645000036729],[135.39547972790717,35.57659527864922],[135.39539639402847,35.57640555856972],[135.395469442361,35.576301387399155]]],[[[135.45012807974717,35.57684436027904],[135.45007092063656,35.57632841382531],[135.45013163386784,35.57632517087001],[135.45012807974717,35.57684436027904]]],[[[135.45041119262248,35.57736222498676],[135.45055557697833,35.57743264010429],[135.4505166147501,35.57798310793413],[135.4503007261976,35.577960865001955],[135.45021817113172,35.57756325224233],[135.45041119262248,35.57736222498676]]],[[[135.39245333295503,35.577896666897686],[135.39417360562743,35.573805837969076],[135.39530527921534,35.57638694620067],[135.39245333295503,35.577896666897686]]],[[[135.4304972239678,35.57918583785619],[135.43051444868297,35.57937666679976],[135.4304277819167,35.57940666728393],[135.4304116732602,35.579200279169584],[135.4304972239678,35.57918583785619]]],[[[135.42610082968963,35.579956386877825],[135.4261166667509,35.58015861292972],[135.42599527895902,35.58016666725791],[135.426002503213,35.580015000192134],[135.42610082968963,35.579956386877825]]],[[[135.3904913881671,35.58010583801405],[135.390527224352,35.58018055908559],[135.39039972836486,35.58024417083186],[135.39034167263014,35.58018861341384],[135.3904913881671,35.58010583801405]]],[[[135.42878138765093,35.580168892180666],[135.42884027166122,35.580371945608874],[135.428695550959,35.58035750519474],[135.42878138765093,35.580168892180666]]],[[[135.3904988849157,35.57856972131566],[135.39064389070302,35.57921694630505],[135.38963472096566,35.58041166686496],[135.38892055763768,35.57939610834376],[135.3904988849157,35.57856972131566]]],[[[135.42745167255669,35.580515838035524],[135.42746083035308,35.58019805359737],[135.42797722376997,35.580123613114324],[135.42791749709488,35.580367504756566],[135.42745167255669,35.580515838035524]]],[[[135.4319136058283,35.580332504941225],[135.43200999966177,35.580462775336855],[135.43184805424437,35.58047972126218],[135.4319136058283,35.580332504941225]]],[[[135.38999861184652,35.5805441711766],[135.39003666665894,35.58059805405702],[135.38992722366254,35.580743333238274],[135.38983500628058,35.58062138696749],[135.38999861184652,35.5805441711766]]],[[[135.4248274966917,35.58331750499889],[135.42480333280764,35.58345999987915],[135.4246672240132,35.583382224709965],[135.4248274966917,35.58331750499889]]],[[[135.42519389128506,35.58352333283557],[135.4248838913785,35.58347750518277],[135.42513416281145,35.58322277491118],[135.42545833963072,35.58332055909659],[135.42519389128506,35.58352333283557]]],[[[135.4228674971373,35.58445417072346],[135.42222917004028,35.58425361291398],[135.42243111460436,35.58355166687596],[135.42320306117244,35.584057774746555],[135.4228674971373,35.58445417072346]]],[[[135.45839333318588,35.586848333284024],[135.4574722178686,35.586480559130564],[135.4581255510534,35.585847225069415],[135.4589780543938,35.58648944083507],[135.45839333318588,35.586848333284024]]],[[[135.43476250338688,35.586828333260996],[135.43477861204337,35.586975558575205],[135.4346474971843,35.5869950001192],[135.43464221816384,35.58684083833407],[135.43476250338688,35.586828333260996]]],[[[135.43431306089906,35.587044441248],[135.43432749681654,35.587336945743516],[135.43411333316385,35.58723722531772],[135.43431306089906,35.587044441248]]],[[[135.43645999982914,35.59045417132302],[135.43647416325211,35.59059417058455],[135.43625749678608,35.59060527901045],[135.4363202721629,35.59048361332816],[135.43645999982914,35.59045417132302]]],[[[135.43799666691268,35.590613891817725],[135.43780639375018,35.59075083788093],[135.43776861233164,35.59059527944862],[135.43799666691268,35.590613891817725]]],[[[135.43869944212565,35.5905866666414],[135.43880555133524,35.59067638660599],[135.43875472075388,35.59076638715908],[135.43859805435682,35.59070722525831],[135.43869944212565,35.5905866666414]]],[[[135.43711389059365,35.59068055856096],[135.43715916966005,35.59100361302637],[135.43687805417892,35.59088000031181],[135.43711389059365,35.59068055856096]]],[[[135.43926221807692,35.59121777488048],[135.43871833957974,35.591163892000054],[135.43888167265118,35.59085861263492],[135.43934749718926,35.59086194642174],[135.43926221807692,35.59121777488048]]],[[[135.4436222176913,35.59107527910089],[135.44367333335776,35.59116638671941],[135.4434725030536,35.591424440885305],[135.4433886115952,35.59130583829386],[135.4436222176913,35.59107527910089]]],[[[135.4535419458042,35.59138194611995],[135.45369055787296,35.59145527863825],[135.45363472076576,35.591557504575235],[135.4534958366636,35.59150833324304],[135.4535419458042,35.59138194611995]]],[[[135.46386360612064,35.59180638655556],[135.46362444940883,35.59168083760062],[135.46389805375225,35.591358332620985],[135.46411416263857,35.591579171041985],[135.46386360612064,35.59180638655556]]],[[[135.44305639393747,35.591756386947736],[135.44323944194673,35.591994999569636],[135.44313444879583,35.5920608380373],[135.44293194575278,35.59192722486159],[135.44305639393747,35.591756386947736]]],[[[135.44440610905474,35.59237027856557],[135.44422693892216,35.59222805438128],[135.44426666737286,35.59165833296572],[135.44466555087456,35.59191805357534],[135.44440610905474,35.59237027856557]]],[[[135.445412502585,35.59253389222539],[135.44524083010026,35.592541387175345],[135.44531917004372,35.59240277466836],[135.44542277644007,35.59236555892346],[135.4455027756327,35.59247083805877],[135.445412502585,35.59253389222539]]],[[[135.4447402719461,35.592420279072655],[135.44493389058664,35.59262805394161],[135.4447019464377,35.59265917138373],[135.4447402719461,35.592420279072655]]],[[[135.44212333292558,35.59436777535262],[135.44218555072268,35.5945650002746],[135.4421027762222,35.594570558984174],[135.44200610899475,35.59443527936469],[135.44212333292558,35.59436777535262]]],[[[135.44284083004038,35.59414777509977],[135.44296500573046,35.59475666738632],[135.4427374970379,35.59473972056173],[135.44248916993934,35.59432833288628],[135.44284083004038,35.59414777509977]]],[[[135.44976277603132,35.595747775139785],[135.44971083029066,35.596003613376126],[135.44947306123288,35.596018613168496],[135.44961277630864,35.59578805397558],[135.44976277603132,35.595747775139785]]],[[[135.46421583729114,35.59955222485536],[135.46423221844213,35.59969500032406],[135.46402472056445,35.599663333396165],[135.46408693926094,35.59955500016321],[135.46421583729114,35.59955222485536]]],[[[135.4516519458807,35.59959777461768],[135.4517002718501,35.59977610838075],[135.4514605575588,35.59972305377596],[135.4516519458807,35.59959777461768]]],[[[135.45134861174904,35.59982138744715],[135.4514511146773,35.60013638668494],[135.45121972810807,35.600564999974836],[135.451024449319,35.60053694562362],[135.45134861174904,35.59982138744715]]],[[[135.45160861204783,35.60147944142312],[135.4517569390316,35.60160333292754],[135.45162944214508,35.60173861344629],[135.45144306124837,35.601546946334565],[135.45160861204783,35.60147944142312]]],[[[135.45120167331868,35.60175555937161],[135.45126917013613,35.601973892281364],[135.45103639411434,35.602003613076306],[135.45103639411434,35.60184583781523],[135.45120167331868,35.60175555937161]]],[[[135.4811147208677,35.60400277540782],[135.48075944189475,35.60387805382919],[135.48114778174477,35.60347083810876],[135.48125500611366,35.60387000040026],[135.4811147208677,35.60400277540782]]],[[[135.4789116732352,35.60515389233831],[135.47721999990313,35.60266805378768],[135.476581672806,35.59599999990013],[135.480468611937,35.592981946159966],[135.48137250343837,35.60139305434603],[135.4789116732352,35.60515389233831]]],[[[135.47641916980888,35.60713138730375],[135.47625833955078,35.60695722459627],[135.47643666701867,35.606891666717104],[135.47641916980888,35.60713138730375]]],[[[135.4762861088169,35.60776610811945],[135.47623389058163,35.60764861259344],[135.47642944186532,35.60760889223661],[135.47638722409113,35.60776583832285],[135.4762861088169,35.60776610811945]]],[[[135.4209958370883,35.68017833306368],[135.42101639379166,35.68030222456804],[135.42085749707587,35.68028527864277],[135.42087138800423,35.68016694584793],[135.4209958370883,35.68017833306368]]],[[[135.42455693925137,35.687857224931065],[135.4245294415805,35.68808250510358],[135.4243427755987,35.68800361297639],[135.42455693925137,35.687857224931065]]],[[[135.4252222181309,35.68741583767081],[135.4249874968756,35.68460527911037],[135.4212997279002,35.68021194612447],[135.42343360597624,35.676466386714424],[135.4276877823653,35.68139499977946],[135.42676916986136,35.686610558630434],[135.4252222181309,35.68741583767081]]],[[[135.42758416337847,35.68846361260569],[135.42765333293505,35.68853666723345],[135.42755666660696,35.68861555936064],[135.42746000027887,35.68850861288223],[135.42758416337847,35.68846361260569]]],[[[135.43254944180342,35.697188333274994],[135.43261167309026,35.69731222477941],[135.43241834043408,35.69743055937289],[135.43240444860646,35.697255838186436],[135.43254944180342,35.697188333274994]]],[[[135.43693500644542,35.71294222520356],[135.43675527873324,35.711060838087235],[135.43792944169047,35.70889805400202],[135.4388202723378,35.70946722503248],[135.43786722389336,35.71258194600006],[135.43693500644542,35.71294222520356]]],[[[135.43760472078134,35.71439555930766],[135.43683138835797,35.71403500041498],[135.43753583720923,35.71293638680487],[135.43818472144778,35.71402361319923],[135.43760472078134,35.71439555930766]]],[[[135.27426958457374,35.524806919303956],[135.2739668350015,35.52477599971269],[135.2739710510233,35.524573585702456],[135.27423136158814,35.5246658921173],[135.27426958457374,35.524806919303956]]],[[[135.27041988277142,35.532990865036425],[135.27020341055902,35.53313908140353],[135.26980968916587,35.532841135110345],[135.27030500607123,35.53257653208135],[135.27041988277142,35.532990865036425]]],[[[135.26974552523586,35.5332166398361],[135.26970116707525,35.53335508057256],[135.26948530460322,35.533361613247905],[135.26956644593474,35.533108026913965],[135.26974552523586,35.5332166398361]]],[[[135.26600360628152,35.5336652792293],[135.26618972817346,35.533795838307356],[135.26601861236918,35.53391277535434],[135.26591944232848,35.53382194562636],[135.26600360628152,35.5336652792293]]],[[[135.2544663944086,35.53475389237826],[135.25454778215453,35.53494861268837],[135.25439639387855,35.53498389219294],[135.25428778185574,35.534842505277425],[135.2544663944086,35.53475389237826]]],[[[135.19999999970025,35.538639360218326],[135.19932136229113,35.538398135065904],[135.1993331389133,35.538377919205686],[135.19999999970025,35.538639360218326]]],[[[135.1990862516293,35.53897299970424],[135.19896822280532,35.53899797297811],[135.1985144231022,35.53924446815773],[135.1982285601,35.539533973414166],[135.19820250314308,35.53951605442245],[135.19850111493452,35.53922941440601],[135.19896357960556,35.53897794597549],[135.1990862516293,35.53897299970424]]],[[[135.27508061028198,35.56141955906543],[135.2748837217065,35.561565748360636],[135.27477280202322,35.561425359692635],[135.27508061028198,35.56141955906543]]],[[[135.27348019475528,35.562341748173196],[135.27357661466908,35.56246186522293],[135.2733942537419,35.562536197787324],[135.2733560307563,35.562410414109365],[135.27348019475528,35.562341748173196]]],[[[135.27200138825356,35.56304944087907],[135.27211389074353,35.56352499967903],[135.27189250283675,35.56362333335022],[135.27169277600092,35.56325333337469],[135.27200138825356,35.56304944087907]]],[[[135.25428549937635,35.57644617105399],[135.2538366666289,35.576960612942],[135.25343308686752,35.57657889210225],[135.25363447475127,35.57617119794247],[135.25428549937635,35.57644617105399]]],[[[135.25050625226174,35.57983269412358],[135.25031150497205,35.579846693869854],[135.25033191958244,35.5796676397498],[135.2504963039613,35.579667666729506],[135.25050625226174,35.57983269412358]]],[[[135.22810308698797,35.58151961274001],[135.2280956675811,35.581593386825375],[135.22761328112813,35.58265966711002],[135.2276144754278,35.58253474768054],[135.22804644588678,35.58157197306815],[135.22810308698797,35.58151961274001]]],[[[135.22803549933894,35.58351633341209],[135.22801352800195,35.583668054437226],[135.22785933923717,35.5837172788294],[135.22782542220557,35.58351525242699],[135.22803549933894,35.58351633341209]]],[[[135.23071155619346,35.58602208115417],[135.23044007784733,35.58608174757467],[135.2303901429908,35.58582283815349],[135.2306791698079,35.58583025216444],[135.23071155619346,35.58602208115417]]],[[[135.2537416082887,35.64844836000384],[135.2543553569143,35.6487577213918],[135.2543300778708,35.648791748140695],[135.2537416082887,35.64844836000384]]],[[[134.89360861204784,35.64855722473618],[134.89368944221405,35.648588891664076],[134.89366250302214,35.64870417126053],[134.89356250290723,35.64868972095388],[134.89360861204784,35.64855722473618]]],[[[134.90141377412647,35.65034436020409],[134.90062544730665,35.65019719784243],[134.90006961142353,35.64978355916395],[134.90034985726015,35.649446504952266],[134.90110399455375,35.64972450518184],[134.90141377412647,35.65034436020409]]],[[[134.94078165964595,35.65222305385089],[134.94082722379744,35.652303332732686],[134.94061027224632,35.65241194565482],[134.94064250304916,35.652216387176566],[134.94078165964595,35.65222305385089]]],[[[134.9439576127537,35.65394683837593],[134.9435551103801,35.653928693654336],[134.94359044114606,35.653794252203056],[134.9439870556581,35.65379927941325],[134.9439576127537,35.65394683837593]]],[[[134.90740555132516,35.654878332768874],[134.90779111496806,35.65522861330993],[134.90765639382755,35.65544917114238],[134.90727778194412,35.655179720767535],[134.90740555132516,35.654878332768874]]],[[[134.91404499418115,35.6554266674068],[134.9141108299509,35.65556917128026],[134.91397917010272,35.65563610782016],[134.91384194614898,35.65549138711788],[134.91404499418115,35.6554266674068]]],[[[134.88691092100225,35.65744961320911],[134.88673418893177,35.65757019790635],[134.88661583725116,35.65721027933097],[134.88682280183093,35.657232559135366],[134.88691092100225,35.65744961320911]]],[[[134.90180610876496,35.65778694621065],[134.90181610922616,35.65790417104074],[134.9015261093425,35.658007504942475],[134.90142861204083,35.65788083813021],[134.90159972784522,35.65776917111043],[134.90180610876496,35.65778694621065]]],[[[134.88699316490272,35.65771427919066],[134.88714863789937,35.65779458595142],[134.8870241888153,35.65802517122472],[134.88685949417038,35.65790744097569],[134.88699316490272,35.65771427919066]]],[[[134.86982763863466,35.65918569416448],[134.8699132172212,35.65929689173822],[134.86968819695278,35.65933966709201],[134.86971747078474,35.6592065593353],[134.86982763863466,35.65918569416448]]],[[[134.8813116601051,35.65941722462526],[134.88147555075614,35.65951499981742],[134.88137555064122,35.65960944122281],[134.88123416282644,35.6594836125787],[134.8813116601051,35.65941722462526]]],[[[134.87034775614404,35.65995172139486],[134.8702566152507,35.66015646824644],[134.86981355435216,35.660021532168],[134.86976165987278,35.65986286477943],[134.87034775614404,35.65995172139486]]],[[[134.8715941634399,35.660210639809236],[134.87142022016712,35.66027455912365],[134.87131425394978,35.65998061301491],[134.87156503170092,35.65993474759057],[134.8715941634399,35.660210639809236]]],[[[134.8782708040544,35.660409747911615],[134.87814247709366,35.66058386475362],[134.87799399542666,35.66049874841855],[134.87817350190562,35.660378838212864],[134.8782708040544,35.660409747911615]]],[[[134.87947936428134,35.662142171324206],[134.87920894893387,35.66210586479389],[134.87917978032272,35.661956053928805],[134.87946700399914,35.66190455874846],[134.87947936428134,35.662142171324206]]],[[[134.87853444930545,35.662296612798514],[134.87847289161073,35.662480972918615],[134.87825544723114,35.66248689225631],[134.87832552510292,35.66215053232128],[134.87853444930545,35.662296612798514]]],[[[134.8781077821485,35.66288444116407],[134.87808277559964,35.662541107885886],[134.87851221806443,35.662729441210786],[134.8781077821485,35.66288444116407]]],[[[134.9645396886558,35.67352283820844],[134.96511885924804,35.67322974825436],[134.96519182933946,35.67332664031227],[134.9649191054324,35.67351483783955],[134.9645396886558,35.67352283820844]]],[[[134.9650253306545,35.67435669410622],[134.96264396904405,35.67435791898282],[134.9620826976584,35.673548639757996],[134.9650253306545,35.67435669410622]]],[[[134.96703635504377,35.675809946372],[134.96703936417543,35.67586722509242],[134.9667850323035,35.676007441090576],[134.96676730216927,35.67593410767296],[134.96703635504377,35.675809946372]]],[[[134.97151221791455,35.67901480189164],[134.97098516213555,35.67896297306282],[134.97106472066037,35.67881594559947],[134.97151116660712,35.67880389198609],[134.97151221791455,35.67901480189164]]],[[[134.9818425288097,35.68575999962434],[134.98185364532958,35.68596233269557],[134.98170080374916,35.6861057206026],[134.9817323087991,35.68580097273673],[134.9818425288097,35.68575999962434]]],[[[134.98205686063568,35.68742764037336],[134.98211194590965,35.687545802296995],[134.9819387805503,35.687610585859886],[134.98191939026776,35.6875005592035],[134.98205686063568,35.68742764037336]]],[[[134.9899618159851,35.69197688342649],[134.98984739344257,35.69213326114112],[134.98973588830063,35.69206464916425],[134.98984054510515,35.69197129683795],[134.9899618159851,35.69197688342649]]],[[[134.98751688669506,35.692315918844656],[134.98756970208012,35.692454152737014],[134.9873650451608,35.69248586463101],[134.98733496823422,35.692312927699504],[134.98751688669506,35.692315918844656]]],[[[135.0288588848298,35.6927580543408],[135.02877416329704,35.69299750513079],[135.02851583663664,35.69292472119895],[135.02861666682577,35.692705279425184],[135.0288588848298,35.6927580543408]]],[[[134.9898021791273,35.69327660433186],[134.98998909242277,35.693474467772546],[134.98957788641042,35.69348864918186],[134.9898021791273,35.69327660433186]]],[[[135.02977319137972,35.69346689188359],[135.02979680937528,35.693652747576266],[135.02961247713415,35.693619080556175],[135.02977319137972,35.69346689188359]]],[[[135.01548321677706,35.69278955939069],[135.01482294442337,35.69368205378379],[135.0147570555937,35.69364183790054],[135.01548321677706,35.69278955939069]]],[[[134.98508089486745,35.69359042275988],[134.98496920896184,35.69377398158406],[134.98486577163817,35.6935998467556],[134.98508089486745,35.69359042275988]]],[[[135.029811388285,35.694177775384105],[135.02956027238872,35.694221387107405],[135.02935167284147,35.6940019462329],[135.0298813879158,35.69406055864789],[135.029811388285,35.694177775384105]]],[[[135.014129000553,35.69385389174374],[135.01410653728692,35.69414551400433],[135.01394442279695,35.694092586203965],[135.014129000553,35.69385389174374]]],[[[135.01361703000202,35.694264026663575],[135.01338866425556,35.694414837574755],[135.01324885924748,35.69417422486066],[135.01335538304454,35.694084333125545],[135.01361703000202,35.694264026663575]]],[[[135.00817722429952,35.694194440720935],[135.0082319462474,35.694240279165626],[135.00821555070718,35.69438110760211],[135.0080847209332,35.69429444083585],[135.00817722429952,35.694194440720935]]],[[[134.99107089500592,35.69447793670747],[134.9911352271091,35.69460227877221],[134.9908234240619,35.694540820002885],[134.9909155766926,35.69443870288387],[134.99107089500592,35.69447793670747]]],[[[134.9957394807925,35.694731089568165],[134.9957394807925,35.69483431465193],[134.99555815768292,35.694851269570506],[134.9955139946752,35.694740964124264],[134.9957394807925,35.694731089568165]]],[[[135.01232343707704,35.695012179868286],[135.01240800302696,35.69525902668278],[135.01217110181494,35.69518900906559],[135.01232343707704,35.695012179868286]]],[[[135.01570697799468,35.69535877498754],[135.01557489006916,35.69526341357573],[135.0163767193102,35.694571171222606],[135.01648020789537,35.694645648577875],[135.01570697799468,35.69535877498754]]],[[[134.9916666670831,35.69520608089596],[134.99173535730097,35.69534276615576],[134.99164713380821,35.695361377625545],[134.99158234844674,35.69525262171118],[134.9916666670831,35.69520608089596]]],[[[135.02921236066197,35.69709327943133],[135.02894697792078,35.69747463964296],[135.02823416267654,35.69687366678636],[135.02907871600996,35.696551586286716],[135.02921236066197,35.69709327943133]]],[[[135.03124769102817,35.69848094593897],[135.03075702991305,35.698402640169775],[135.03111530542708,35.69813341372611],[135.03124769102817,35.69848094593897]]],[[[135.03082758802282,35.69857077472153],[135.03050902657037,35.69856135971901],[135.030573060998,35.698431081229444],[135.03082758802282,35.69857077472153]]],[[[135.0325682492254,35.699283838178644],[135.03250983106386,35.69918864044348],[135.032687419289,35.69912453227141],[135.03275516162148,35.699195918656756],[135.0325682492254,35.699283838178644]]],[[[135.0316412451474,35.69947944072368],[135.0313476129021,35.69961058615968],[135.0311342802229,35.699371171342534],[135.03143014278692,35.699128386765665],[135.0316412451474,35.69947944072368]]],[[[135.0335618552955,35.701562170757654],[135.0333771075675,35.70157097332179],[135.0334070037303,35.70132758619917],[135.0335463042186,35.70145135989242],[135.0335618552955,35.701562170757654]]],[[[135.0335121920341,35.70187777523921],[135.03304658872912,35.70186430609289],[135.0331210507959,35.70165444119954],[135.03345147880282,35.70162546774122],[135.0335121920341,35.70187777523921]]],[[[135.0336786115787,35.70180494634127],[135.03371369593037,35.70198205432837],[135.03360099918677,35.70214619768893],[135.03348169872152,35.702143170570935],[135.0336786115787,35.70180494634127]]],[[[135.0351199478274,35.70233117114668],[135.03500700377026,35.70213889159663],[135.0353175621558,35.70215274835073],[135.0351199478274,35.70233117114668]]],[[[135.03490639391498,35.702224441404894],[135.03501167305035,35.70228666729594],[135.03494610887594,35.702376107571354],[135.0348358367046,35.702293054281085],[135.03490639391498,35.702224441404894]]],[[[135.0366376652961,35.702570198356],[135.0367704672833,35.70234186498516],[135.0370488065572,35.70254741403198],[135.0366376652961,35.702570198356]]],[[[135.03699082996286,35.702815000112196],[135.03673805391816,35.70275277512053],[135.03686221791713,35.702583892332825],[135.03713167278852,35.70264083830409],[135.03699082996286,35.702815000112196]]],[[[135.0517152526569,35.704314667288145],[135.05117102522274,35.704237440705356],[135.05119219166636,35.70386058609722],[135.0518112193124,35.70403013528255],[135.0517152526569,35.704314667288145]]],[[[135.05357627822275,35.70500341397644],[135.0536170040216,35.70512117120512],[135.05349880702443,35.70514486474377],[135.0534305835547,35.70506346800471],[135.05357627822275,35.70500341397644]]],[[[135.05517133558874,35.70562135973802],[135.05443060988478,35.70559238717897],[135.0542482489576,35.70512622539502],[135.05482858597054,35.7052626399589],[135.05517133558874,35.70562135973802]]],[[[135.0606035797914,35.70912553211764],[135.06042208760937,35.70895089187019],[135.06039613497376,35.70854344142674],[135.0604392475733,35.70854189189487],[135.0604771980643,35.70894346796672],[135.0606035797914,35.70912553211764]]],[[[135.06259111478823,35.71236805394261],[135.06255306087508,35.71246305382692],[135.06229444912958,35.71232389183422],[135.06249527943362,35.71221500012223],[135.06259111478823,35.71236805394261]]],[[[135.06386527875964,35.71273610778519],[135.0639872241311,35.71285805405603],[135.0639247212489,35.712936108015015],[135.06379527912884,35.71277166697888],[135.06386527875964,35.71273610778519]]],[[[135.0635313883629,35.71276833319206],[135.0636827757396,35.712925279278295],[135.06357972782223,35.712999720660605],[135.0635313883629,35.71276833319206]]],[[[135.06556693906305,35.714301108009806],[135.0657608301982,35.71450999983665],[135.06563749717282,35.71451333272415],[135.06556693906305,35.714301108009806]]],[[[135.0747551883013,35.71857563965409],[135.07452525323788,35.71866633268513],[135.0746085205668,35.718499054287975],[135.0747551883013,35.71857563965409]]],[[[135.07460341061892,35.718750225042925],[135.07456788559955,35.71885838740468],[135.0743871731296,35.71882338669002],[135.0744043582746,35.718712279048475],[135.07460341061892,35.718750225042925]]],[[[135.07362250297615,35.718760080713196],[135.07361680936833,35.718898667139854],[135.07345469487836,35.71902117099029],[135.07332308719083,35.718962278886124],[135.07352710828945,35.71870408082873],[135.07362250297615,35.718760080713196]]],[[[135.07566527882966,35.72138500031758],[135.0757202723728,35.721547505113335],[135.07554138822456,35.72163833304268],[135.07554833998392,35.721463333066424],[135.07566527882966,35.72138500031758]]],[[[135.07957905283104,35.72219658630348],[135.07957116667603,35.72230558593412],[135.07928121895316,35.72221097275826],[135.07932347629742,35.72211241425657],[135.07957905283104,35.72219658630348]]],[[[135.08139527866922,35.723678892067255],[135.0811966669927,35.7237572248161],[135.08124639410585,35.723565558603696],[135.08139527866922,35.723678892067255]]],[[[135.0843325031426,35.72596722510741],[135.08434555140616,35.726146387146116],[135.0841730614377,35.72632083763659],[135.08421972815802,35.72600222492281],[135.0843325031426,35.72596722510741]]],[[[135.0844211151424,35.7264680539576],[135.08441360580332,35.72670110786987],[135.084277497009,35.726839440687684],[135.08427500588687,35.72652444055052],[135.0844211151424,35.7264680539576]]],[[[135.0844372237989,35.728165278804624],[135.08442778181677,35.72846444098121],[135.08432555138313,35.72845666724146],[135.08435306074523,35.72819333315584],[135.0844372237989,35.728165278804624]]],[[[135.08294194621396,35.73834522485231],[135.0815708299299,35.737097865174405],[135.0830607259718,35.73625944072069],[135.08413980540774,35.73686613506413],[135.08294194621396,35.73834522485231]]],[[[135.0843806996097,35.73867144133402],[135.0841962522553,35.73864461275872],[135.08427014325252,35.73848872067799],[135.0843806996097,35.73867144133402]]],[[[135.08352824932933,35.73886063980672],[135.08352542186083,35.7385965323042],[135.0836626718949,35.73873672132271],[135.08352824932933,35.73886063980672]]],[[[135.0848007261726,35.73911169364982],[135.08451021997075,35.739108748370086],[135.0844210252102,35.73888455907519],[135.0847735018957,35.73879630590483],[135.0848007261726,35.73911169364982]]],[[[135.10589522678333,35.74412550488819],[135.1058783006431,35.744283918667975],[135.10566933866914,35.744225585942104],[135.10589522678333,35.74412550488819]]],[[[135.1082642281117,35.74488738714325],[135.10816408590392,35.7448448384186],[135.1083197801338,35.74470419794045],[135.1083609214195,35.74489236039415],[135.1082642281117,35.74488738714325]]],[[[135.10843263335937,35.74524061296398],[135.10834041507815,35.74538080198249],[135.10826572008693,35.74531753197857],[135.10843263335937,35.74524061296398]]],[[[135.1228003633462,35.74600627866687],[135.1226931389773,35.7461569187069],[135.12226383860536,35.74628646784629],[135.12223566824161,35.746152585773245],[135.1228003633462,35.74600627866687]]],[[[135.11128747094006,35.74711927873176],[135.11106522687874,35.74703094642109],[135.11120050559896,35.74662777495189],[135.11166574557774,35.74687836024816],[135.11128747094006,35.74711927873176]]],[[[135.1478800261424,35.751307279407456],[135.1479425290246,35.751460864727164],[135.14780418901216,35.75144986511924],[135.1478800261424,35.751307279407456]]],[[[135.14278722385131,35.75155999969428],[135.14271805429485,35.751462774887216],[135.14283972807107,35.75141472141229],[135.14289083024767,35.75149166740658],[135.14278722385131,35.75155999969428]]],[[[135.15057121858695,35.75218958628045],[135.15058494224138,35.75225117095482],[135.1504471975802,35.75232158607241],[135.15039596590123,35.75224272092487],[135.15057121858695,35.75218958628045]]],[[[135.152095278974,35.75296638738894],[135.15176083009828,35.75290555904439],[135.1520394418668,35.752763612750584],[135.152095278974,35.75296638738894]]],[[[135.135651698767,35.757291918687145],[135.13508880680308,35.757663999693875],[135.13469780765774,35.75692658619306],[135.135651698767,35.757291918687145]]],[[[135.1665852529071,35.759630414112394],[135.16677647215658,35.759682027103906],[135.16672111528726,35.76001686538609],[135.1664583918414,35.75993086501745],[135.1665852529071,35.759630414112394]]],[[[135.16545194615048,35.76048527907244],[135.16551861199446,35.7605777752442],[135.16534000034085,35.76064333312337],[135.16535610899734,35.76050194620791],[135.16545194615048,35.76048527907244]]],[[[135.16575583696238,35.76073305398728],[135.16568944181438,35.76097166660918],[135.16555666680676,35.760879720822516],[135.16575583696238,35.76073305398728]]],[[[135.17369360587531,35.76089666674784],[135.17358306120934,35.76101417126705],[135.1734686116871,35.76092110762306],[135.17369360587531,35.76089666674784]]],[[[135.17368972799864,35.761285000302564],[135.17352749659676,35.76128861287924],[135.17347333312784,35.76110889236156],[135.17357250316854,35.76107666695469],[135.17368972799864,35.761285000302564]]],[[[135.16475639429223,35.761408613017124],[135.16477805356442,35.761283892337815],[135.16492722411215,35.76128610826731],[135.1649061089298,35.7613969461122],[135.16475639429223,35.761408613017124]]],[[[135.18468674409803,35.76381697317481],[135.18448121933284,35.76395310804958],[135.18442061042288,35.76384472085721],[135.18468674409803,35.76381697317481]]],[[[135.17932761297902,35.763056386842834],[135.18008522705168,35.764104107818355],[135.17973953305307,35.76417000024537],[135.17906771700166,35.76318683800224],[135.17932761297902,35.763056386842834]]],[[[135.20385771715996,35.764875108299634],[135.2035580027997,35.764846080881966],[135.20294061012112,35.7649299732397],[135.2028891697994,35.764811558606596],[135.2035751097036,35.76478086474515],[135.20385771715996,35.764875108299634]]],[[[135.1882427758835,35.76498638681238],[135.18844027240073,35.765331945912635],[135.18825610923216,35.76541889236802],[135.1882427758835,35.76498638681238]]],[[[135.1881114793614,35.76531722491006],[135.18817496790052,35.76536938738735],[135.18812861234562,35.765513108043535],[135.18804072609873,35.765486999825214],[135.1881114793614,35.76531722491006]]],[[[135.19060603144328,35.76565663984212],[135.1905795589995,35.76584735996772],[135.19049566844046,35.7658097476218],[135.19060603144328,35.76565663984212]]],[[[135.20614972842725,35.76584694627962],[135.20599250265195,35.765943612607714],[135.20596693942275,35.765779999847155],[135.20614972842725,35.76584694627962]]],[[[135.19180863815814,35.76601380199543],[135.19186102456672,35.76575546814041],[135.19212586321805,35.76566919797517],[135.19200961055515,35.76603219762785],[135.19180863815814,35.76601380199543]]],[[[135.19805929959705,35.76586464044084],[135.19812002631818,35.76601772124087],[135.197735472614,35.76614200035311],[135.19767968856684,35.76601497291273],[135.19805929959705,35.76586464044084]]],[[[135.18819639424828,35.765969999615834],[135.18809277616072,35.76616805371276],[135.18802027191805,35.766087225345245],[135.18803138843793,35.76596583755344],[135.18819639424828,35.765969999615834]]],[[[135.19014169888032,35.766286945885895],[135.18987992242057,35.76586291913844],[135.19004961100086,35.76562908101732],[135.1904420877322,35.766055973004825],[135.19014169888032,35.766286945885895]]],[[[135.1918218033336,35.766864837642174],[135.191963385402,35.766634134557705],[135.19232033711398,35.76671486489914],[135.19213027169474,35.76689555938259],[135.1918218033336,35.766864837642174]]],[[[135.20141500559805,35.767266386734434],[135.20142610862808,35.767414441223536],[135.201285836872,35.76735750514479],[135.20141500559805,35.767266386734434]]],[[[135.19269555135872,35.767503332912554],[135.19271416282845,35.767630279413936],[135.19259917011573,35.76762833328098],[135.19259917011573,35.7675044408773],[135.19269555135872,35.767503332912554]]],[[[135.21485405966723,35.76841527874217],[135.21462936405396,35.76838866690349],[135.21441105092936,35.76829683802873],[135.21461053225028,35.768212505003135],[135.21485405966723,35.76841527874217]]],[[[135.21694286642025,35.769552747561306],[135.21673702959026,35.76936269383333],[135.21680730171568,35.769166279200476],[135.21703552536928,35.76940933267463],[135.21694286642025,35.769552747561306]]],[[[135.21840306055287,35.769871774862565],[135.21878108877627,35.77000708056238],[135.21863277618172,35.770434252239],[135.21822891133525,35.77005713502882],[135.21840306055287,35.769871774862565]]],[[[135.23277108911452,35.77105130587313],[135.23263771695713,35.771233693780005],[135.2325307003316,35.77107869382672],[135.23277108911452,35.77105130587313]]],[[[135.2326457721847,35.77133866714581],[135.23272011733957,35.77140555871961],[135.23263089470015,35.771484666684046],[135.23253581117876,35.77138780160578],[135.2326457721847,35.77133866714581]]],[[[135.23301133580458,35.77158966702956],[135.23287330695757,35.771679919392795],[135.23273808039812,35.77160702664304],[135.23287610924513,35.771504081248395],[135.23301133580458,35.77158966702956]]],[[[135.23315666714655,35.77164055876483],[135.2331338909164,35.77181666670583],[135.2329830611194,35.771739720711594],[135.23315666714655,35.77164055876483]]],[[[135.2317062522418,35.77266489197126],[135.23158972798365,35.77276694613772],[135.2315101433785,35.7726685054472],[135.2317062522418,35.77266489197126]]],[[[135.23055666685673,35.773474440992686],[135.23092505794511,35.77300594636739],[135.23113564229607,35.773202973438515],[135.23055666685673,35.773474440992686]]],[[[135.22813661461316,35.77434205384276],[135.22805654977003,35.77448883758984],[135.22789085597833,35.774467027231594],[135.22813661461316,35.77434205384276]]],[[[135.22843228292356,35.77475155923713],[135.22910732844048,35.77443886496172],[135.22930457764426,35.774755251853435],[135.22843228292356,35.77475155923713]]],[[[135.22804836593934,35.77489066727054],[135.2278394156566,35.775063748093544],[135.22778063596763,35.774826414307654],[135.22804836593934,35.77489066727054]]],[[[135.22887367108308,35.77482394566863],[135.22918649755889,35.77505958603115],[135.22894380021626,35.77508389200807],[135.2286825813361,35.774900531934065],[135.22887367108308,35.77482394566863]]],[[[135.22825494201197,35.77502846768971],[135.22826136227206,35.77522391914863],[135.22807841768486,35.77527025222042],[135.22803143979922,35.775013865397625],[135.22825494201197,35.77502846768971]]],[[[135.22846444897516,35.77511194635929],[135.22839250321147,35.775275837909646],[135.22829916977093,35.77520944096301],[135.22832972783476,35.77511000022639],[135.22846444897516,35.77511194635929]]],[[[135.2259280541365,35.775694440845825],[135.22597167305435,35.775901107749974],[135.22584167335458,35.775851108142206],[135.2259280541365,35.775694440845825]]],[[[135.22584406015528,35.776780224727645],[135.22602610901777,35.77692963989102],[135.2258164455726,35.777084864674805],[135.22557547312965,35.776886360017556],[135.22584406015528,35.776780224727645]]],[[[135.2197833328346,35.7775086126324],[135.21981527855235,35.77764222490879],[135.21970277606238,35.77770138680961],[135.21958389108374,35.77763583792364],[135.2197833328346,35.7775086126324]]],[[[135.21867277622766,35.77806194570229],[135.2187274972763,35.77814583806003],[135.21858944234896,35.77830194597806],[135.21850167301386,35.77826694616266],[135.21856527936427,35.778113054174185],[135.21867277622766,35.77806194570229]]],[[[135.28147167297936,35.665805000300566],[135.2806927755512,35.66535999956437],[135.2811805579364,35.664570278795395],[135.28205861191543,35.66523889236106],[135.28147167297936,35.665805000300566]]],[[[135.28565472108858,35.66568527895254],[135.28429360616508,35.66728610816739],[135.2823997283648,35.6668163868668],[135.2831322180774,35.66533250459145],[135.28565472108858,35.66568527895254]]],[[[135.3056311413642,35.69205517120923],[135.30562552509798,35.692122613168124],[135.3048846950727,35.69207177539215],[135.3048903113389,35.69200433343332],[135.3056311413642,35.69205517120923]]],[[[135.29799861224626,35.70460694605379],[135.29797250312856,35.70484750480853],[135.29767360625203,35.70483250501616],[135.2977530613548,35.70457444095774],[135.29799861224626,35.70460694605379]]],[[[135.29839027239325,35.70484638695126],[135.29847944197275,35.705022504784836],[135.29833749657826,35.705076946144175],[135.29821221831924,35.70497027935494],[135.29839027239325,35.70484638695126]]],[[[135.29066778229242,35.70676417142943],[135.29034834040363,35.70706222474195],[135.29016027237878,35.70679305405628],[135.29066778229242,35.70676417142943]]],[[[135.28878500572353,35.72294500031154],[135.2890191702985,35.72296610829932],[135.28890833964817,35.72319194605154],[135.2887102720615,35.72309027859353],[135.28878500572353,35.72294500031154]]],[[[135.28603472062593,35.72834277529887],[135.28588527938223,35.72869166728668],[135.28559833989152,35.72842555879254],[135.28603472062593,35.72834277529887]]],[[[135.28447167282945,35.72967917055735],[135.2844913877674,35.730211386646204],[135.28407861243807,35.7302202791426],[135.2841694421661,35.729633333011975],[135.28447167282945,35.72967917055735]]],[[[135.28606055814828,35.733489721273656],[135.28627805378926,35.73372527889853],[135.28603749683305,35.73377110835003],[135.28606055814828,35.733489721273656]]],[[[135.25465722425156,35.748267775037846],[135.25471805439474,35.74837861288273],[135.25464000043576,35.74850610797057],[135.25452389076497,35.74835555876206],[135.25465722425156,35.748267775037846]]],[[[135.25454749706944,35.74855583778174],[135.25457834021825,35.74881444143335],[135.25445639394752,35.74878027888684],[135.25438666681134,35.74859250494018],[135.25454749706944,35.74855583778174]]],[[[135.25377775563902,35.753985251817994],[135.25427191961342,35.75439569430591],[135.2542203111185,35.75444819762629],[135.2537255769738,35.75403753210645],[135.25377775563902,35.753985251817994]]],[[[135.24546666735284,35.76023000021439],[135.2453383403922,35.76011694643995],[135.2457750062116,35.759923612884506],[135.2458711149601,35.76005055938583],[135.24546666735284,35.76023000021439]]],[[[135.24042805371175,35.763071946013554],[135.24036111537328,35.763233054162185],[135.2402555511528,35.76318083772554],[135.24042805371175,35.763071946013554]]],[[[135.24165167308627,35.76386194557239],[135.2416972237479,35.764004441351915],[135.2415522179606,35.76401305415919],[135.24155000023234,35.76387333278814],[135.24165167308627,35.76386194557239]]]]}},{"type":"Feature","id":"JP-26-capital","properties":{"Kind":"capital","PrefectureCode":"26","PrefectureName":"Kyoto","CapitalName":"Kyoto","CapitalNameJapanese":"京都市","PointKind":"prefecture-representative-point"},"geometry":{"type":"Point","coordinates":[135.755615,35.02124]}}]}
