{"type":"FeatureCollection","bbox":[137.32499286562836,35.19903517123623,138.7392543316222,37.030422332624596],"displayBbox":[137.32499286562836,35.19903517123623,138.7392543316222,37.030422332624596],"DataVersion":"2019-boundaries-v1","Attribution":{"BoundarySource":"MLIT National Land Numerical Information, via Fabio Crisci / piuccio","BoundarySourceURL":"https://github.com/piuccio/open-data-jp-prefectures-geojson/tree/513fb852832c99470e16b95a30ddd68bf3469dc0","BoundaryDate":"2019-01-01","CapitalSource":"Geospatial Information Authority of Japan (GSI), prefecture representative points","CapitalSourceURL":"https://maps.gsi.go.jp/","CapitalSourceRetrieved":"2026-10-04","Notice":"Simplified and enriched by Ashiato Kai. Modern geographic context, not historical immigration-era boundaries. See GEOLOCATION.md and THIRD_PARTY_NOTICES.md."},"features":[{"type":"Feature","id":"JP-20","bbox":[137.32499286562836,35.19903517123623,138.7392543316222,37.030422332624596],"properties":{"Kind":"prefecture","PrefectureCode":"20","PrefectureName":"Nagano","PrefectureNameJapanese":"長野県"},"geometry":{"type":"Polygon","coordinates":[[[138.69593163423758,36.73851266672625],[138.69485861173564,36.74383797344376],[138.69194833994402,36.74611853184484],[138.6910900521642,36.75368546801002],[138.69152897528204,36.758575224966705],[138.68800011741155,36.76584772129536],[138.68001092076747,36.76643633297044],[138.67337980473428,36.77002161340681],[138.66954369618475,36.773660801904555],[138.66900260738453,36.77907525212123],[138.67171430617032,36.78358972108879],[138.68421102541856,36.78792417096378],[138.6894518938899,36.793571414289374],[138.68914968930676,36.79843922509019],[138.69545863760607,36.80700672088352],[138.69578807995595,36.80905617060586],[138.68997724995018,36.81289286461407],[138.68717975404252,36.81805150537275],[138.6802805842816,36.820146774654006],[138.68067199711504,36.82416097325034],[138.69001175064182,36.83235044082022],[138.69164900060093,36.84147325178918],[138.69013678338592,36.84613494607095],[138.69264236115612,36.84965994584985],[138.6932026333949,36.85481689228578],[138.6887884703117,36.85824386506238],[138.68845044123498,36.860627467783445],[138.68165766486936,36.86534830597958],[138.67649822281476,36.86725083795585],[138.66670544659917,36.86661472139235],[138.65735627806987,36.868046135420855],[138.6526168346992,36.87128141410602],[138.65097214015225,36.8744206128211],[138.64180630381793,36.8756453329658],[138.64091075172985,36.87857897274142],[138.63488822311308,36.88066733343072],[138.63554655023313,36.88342566656132],[138.62811182879796,36.883156225179675],[138.62342152977988,36.884664306412674],[138.62120069985247,36.88941655882718],[138.6178123349713,36.89188435967549],[138.6177373279154,36.89720913489373],[138.62101486394488,36.9040819734044],[138.6128670556701,36.90854897255707],[138.59618863819514,36.90711366716204],[138.58929111509292,36.915452333158726],[138.59200669265476,36.925412198014556],[138.58715863816064,36.92612550518794],[138.5831183664195,36.92955469389403],[138.58451752266558,36.93189055880231],[138.58655736672915,36.95403391893029],[138.58551350204652,36.95741033272071],[138.58702389093992,36.97048246789166],[138.58579697824803,36.972583892132945],[138.58816505777122,36.97693758570108],[138.58630191969792,36.98688736016362],[138.58123622567132,36.99289838735075],[138.57566411170944,36.99662438740563],[138.57323708162608,37.00453905363446],[138.5709876649488,37.005403748184506],[138.56980011738153,37.01546094576611],[138.56588885878386,37.02126055942733],[138.55850053157428,37.02321119793851],[138.55253747062784,37.023624081186426],[138.54850658870816,37.02118980166807],[138.54101072596427,37.02193153191473],[138.53651097260342,37.02092666723195],[138.52875632904147,37.02477141376977],[138.52590724981974,37.02983602681127],[138.52341141440536,37.030422332624596],[138.51985914358465,37.02782586487183],[138.51408749704046,37.02968622493938],[138.51279386544456,37.02779869365486],[138.50143464289454,37.02506669357308],[138.49743827515636,37.026445440604675],[138.4917231393115,37.020459865130704],[138.482673644673,37.01982333308041],[138.4814125550455,37.02155386521878],[138.4732635542697,37.018509413678544],[138.46800572008794,37.01782886520999],[138.4551320491048,37.01961466698333],[138.45094360596272,37.01499583798761],[138.44264992225612,37.01302361304937],[138.4393556678299,37.01006308084658],[138.43137891060826,37.00607727924307],[138.42255749663127,37.005302305556995],[138.4196883013741,37.00333008061875],[138.4118954986784,37.00203177524628],[138.41104099884308,36.998655107847014],[138.40042905265875,36.99785569418498],[138.39382985716225,36.99511902662181],[138.39040674427588,36.991391279184256],[138.3906625546333,36.98845405381161],[138.38419586344844,36.98308158574662],[138.37869555135865,36.98043717063899],[138.38227438365595,36.97642105378867],[138.3796146432013,36.97357191880906],[138.37604632937462,36.97229608119926],[138.3744457195943,36.96842553221262],[138.36951683493407,36.964010279151125],[138.36732542183086,36.959739441022464],[138.36819761312938,36.9572788923071],[138.3637839689551,36.95337308090302],[138.36484727608104,36.950500026654936],[138.36350644626555,36.946225306152996],[138.36452169901725,36.94427672079411],[138.35971364456907,36.93998005413624],[138.3577116727556,36.93384727942845],[138.35176666659845,36.92926005440802],[138.34896722365852,36.92900810843753],[138.34320444892626,36.92079674777176],[138.33759724971333,36.924885359871496],[138.32932147870338,36.92688172081483],[138.31756983068317,36.925185054446786],[138.31539289216835,36.92251119823328],[138.3090315295815,36.92032397327279],[138.29632569367584,36.910820080882104],[138.29484596626844,36.90760425183481],[138.2940387159141,36.90092508142743],[138.2902892741307,36.896811225357794],[138.29455535664442,36.89303983831792],[138.29528450087912,36.888487613112886],[138.2993680803727,36.88672122500458],[138.29299752311726,36.87812427911223],[138.29333194591266,36.87330705427718],[138.28928697791173,36.87136319755359],[138.2885669393129,36.86844235962724],[138.29239885882032,36.86201069433815],[138.29623525335433,36.85825291943672],[138.29561022003566,36.855089305926754],[138.29192581092752,36.8540865321678],[138.28874941625259,36.85102263998289],[138.287612437564,36.8457065324306],[138.27490163380344,36.84085433296116],[138.27053108873884,36.8442437752301],[138.27172444862447,36.85504513482516],[138.2683566926073,36.86045708132929],[138.26229866415213,36.861901801726844],[138.25802396883114,36.86398041376515],[138.25712980529636,36.86862402717719],[138.25487761331124,36.86994319772043],[138.24931399524473,36.86533430623331],[138.24237345037454,36.86402653189896],[138.22937041461296,36.86417600012237],[138.21690072628758,36.86651710807814],[138.21303435824905,36.8682960003602],[138.2064076911621,36.86298822502664],[138.20573933929916,36.8591179458366],[138.20338544658114,36.85713877543418],[138.1955943579933,36.8536723601913],[138.18908379967763,36.85248455901524],[138.18430383915097,36.852784532380326],[138.1778252526334,36.85180533344942],[138.17664632866524,36.848422279065005],[138.17219247670153,36.8474139456971],[138.16901775566498,36.84507253197182],[138.16281834029428,36.84429722463727],[138.15026949364233,36.84646772130833],[138.1477445273881,36.8492216126873],[138.1415078602996,36.84717158560022],[138.13183791169035,36.85067072087713],[138.12532625170525,36.848062080800446],[138.1185909986757,36.84855097294911],[138.1150526718434,36.85039233303979],[138.10634622629732,36.843784027411004],[138.09928732794788,36.84350846794149],[138.09333897541342,36.84019986483196],[138.09060894934362,36.83639489171094],[138.08594335919872,36.834137945909504],[138.0814477822894,36.829921559032755],[138.07752352758882,36.82232019771902],[138.07301680897865,36.81684689227029],[138.07523455333205,36.81049858604098],[138.0712733850587,36.80585469383908],[138.06816810607324,36.80383746772503],[138.06481671861673,36.80442774764248],[138.05691610879148,36.80080805374871],[138.05222444909907,36.79995972056469],[138.05184561598242,36.80745999987914],[138.04495783433663,36.809784170902844],[138.0387567192472,36.807706387140115],[138.03379727562378,36.80883333299198],[138.0288786899996,36.81711389199256],[138.02427063578125,36.816826108038526],[138.02190119288582,36.81944999971779],[138.01704007843693,36.81882638732799],[138.01104036292247,36.82342999979471],[138.00346147926393,36.82641361309783],[138.01420350159037,36.83870913511856],[138.02006518825795,36.84222105425829],[138.0188758105703,36.850437720924106],[138.01583386544064,36.85239466728012],[138.01659111528784,36.86040325240822],[138.02095975378973,36.86348769410188],[138.02232367100066,36.867751306177865],[138.02524147911106,36.87000294597925],[138.02641233526117,36.873534053953506],[138.0316234757429,36.878139054074154],[138.03284936410694,36.88619125182487],[138.0310621396061,36.89136125192027],[138.02570769125703,36.89225322470662],[138.0217423870016,36.89052210800895],[138.01557736710186,36.89321377529552],[138.0156990525693,36.9013998919915],[138.01363795123052,36.90406905374391],[138.0028559657303,36.90500908090439],[137.99461788620658,36.908071332725854],[137.99157094714155,36.91068800015114],[137.9808114401959,36.90848300009043],[137.97644561567267,36.90829163964753],[137.96957503176236,36.9108127478101],[137.9659730221373,36.904567747603494],[137.9623533066598,36.90211108126147],[137.95769494166825,36.902862468428225],[137.95321355426222,36.90500553217964],[137.95129771681627,36.90948969399426],[137.94737216619262,36.91302917105946],[137.93579185521003,36.91338638717207],[137.9321207263905,36.91427166720371],[137.92511795113262,36.91859305442597],[137.91974211420722,36.919869721210716],[137.91589596562642,36.91798944115982],[137.91097927397436,36.917863332826585],[137.90275783370714,36.91426610759487],[137.900720051789,36.91158750475961],[137.89326000004905,36.90995969408465],[137.88520917016717,36.910992197631856],[137.8786083010324,36.9127066399995],[137.87465027229234,36.91585274820579],[137.8681355249346,36.91589717111759],[137.86347021987478,36.9128941081766],[137.8626154727259,36.90695269391176],[137.87143406013388,36.90269577459037],[137.86860428036334,36.897422972991876],[137.8650153828537,36.89624241405619],[137.86166533089033,36.89077877542019],[137.86626114083901,36.88722017067437],[137.86625693920644,36.88326210776012],[137.86829664117715,36.87778541366595],[137.8735102458013,36.87459541404718],[137.87785053227628,36.873189333021344],[137.87524632855525,36.86896653217974],[137.87634464269115,36.86606791919917],[137.8733979510547,36.86357653183154],[137.86817763928673,36.86273038669805],[137.85592219195564,36.84950286486537],[137.85686444943485,36.843826198420345],[137.85136610865902,36.837837612915564],[137.8452225034158,36.83461872077737],[137.84374252869486,36.829680413920016],[137.84017975379265,36.827688224931705],[137.83104868974533,36.817812972790534],[137.83257258105982,36.81150689242918],[137.83097510991342,36.80801300019988],[137.8227812446588,36.805983865263215],[137.82288985668163,36.80242080167869],[137.81998263269236,36.79822166739609],[137.7994296633484,36.788385053727325],[137.79327552524535,36.78665674831035],[137.7914963550728,36.779197026621546],[137.78193557696534,36.77298150529231],[137.77573394296712,36.77364041427376],[137.76741839224508,36.7705245862407],[137.7624448121784,36.76615513475173],[137.75997980462432,36.76426291889862],[137.75904258065066,36.76017513507446],[137.75177230924476,36.75110819808492],[137.7556786899197,36.745540414358686],[137.75524924835418,36.743032081065735],[137.75928564221863,36.740610667248575],[137.75798786025166,36.73731650455312],[137.75414703026127,36.73328038678045],[137.75543175137432,36.73076761263525],[137.75097038917215,36.72688761267324],[137.75269817118374,36.719332053831295],[137.75177399457425,36.71188038737006],[137.75006427994265,36.70497980207625],[137.75114038891786,36.700540081159886],[137.75527649781213,36.69845730615981],[137.75660900080481,36.6941348019796],[137.7536015051054,36.69146980228959],[137.75422204900838,36.687459801728494],[137.759738417594,36.6859323059312],[137.7599036707179,36.680529251923474],[137.75846671866418,36.67615480200254],[137.7617405323997,36.666970332614824],[137.7593313358725,36.66133866734566],[137.7535026983909,36.65782922493884],[137.75627930034955,36.65275310776974],[137.75625535679933,36.64688838678967],[137.75462169873242,36.63928144068598],[137.75255666735643,36.63504617074426],[137.7513299480188,36.62674561261997],[137.74667880728123,36.624472837851215],[137.7442454216889,36.6175092253705],[137.7439406612326,36.61274505424092],[137.7478078341643,36.60365089207505],[137.75076697781378,36.60063727918714],[137.75309719767756,36.593722278660266],[137.75090216570243,36.58834061322875],[137.7478632809657,36.586853945753035],[137.73953688711777,36.587974224930576],[137.7306777169032,36.58796422536875],[137.72510686109285,36.586696171391225],[137.72196016922646,36.58340199970257],[137.7181201693104,36.582235891972914],[137.71320596608257,36.57708005440105],[137.69852533137896,36.56961117131857],[137.6938872496969,36.56905950469246],[137.68773775569298,36.56207450543411],[137.68949883330458,36.55357341378209],[137.68459763877013,36.53780733334179],[137.68731155618343,36.53622344105901],[137.6987004671529,36.537482613331974],[137.7075238389541,36.53597205356749],[137.70851522729595,36.53340094579704],[137.70275180325314,36.52469572063103],[137.70546955897305,36.51788769356227],[137.69690647165646,36.51450297273408],[137.6942961606394,36.51068244134166],[137.6901064458558,36.51373602729586],[137.68307085613515,36.51270102723066],[137.67725752331614,36.51435464035444],[137.67424778200962,36.51087102737608],[137.66874555076663,36.509461305894604],[137.66675994841296,36.50008966690467],[137.667694942068,36.49601163982538],[137.6662368613421,36.49321774840041],[137.66109102513076,36.49392469376966],[137.65764963712115,36.4931085859925],[137.65200070037213,36.488200251740295],[137.6507798311244,36.48012027932748],[137.6566373278505,36.47041366715706],[137.6546986898927,36.463585053707334],[137.6550678337136,36.45872591866629],[137.65179394263646,36.45829063960139],[137.64946613475433,36.454835359764104],[137.64529335870157,36.45453033310844],[137.64320639376012,36.448664532042585],[137.63991221757487,36.445829775423874],[137.63778574631522,36.431366774856826],[137.63330433192948,36.425022306034634],[137.6284235016434,36.42372980218869],[137.62262016928548,36.423561171211134],[137.61740263282536,36.418600865137876],[137.61381513556012,36.419368891561135],[137.60919955941222,36.417905837584385],[137.60726844428336,36.412903613211256],[137.6045309205656,36.41219163973244],[137.60380425396318,36.40870555901438],[137.60536116658466,36.40253833307764],[137.60072114056823,36.39947917132673],[137.59667666719452,36.39437694593937],[137.59382194562636,36.393492198306376],[137.59240747122783,36.38967497282181],[137.58734719831466,36.389800531669266],[137.58750383863128,36.38243802669365],[137.58611518826535,36.376282748250276],[137.5870865496047,36.371964171409445],[137.59373128407162,36.36884030613527],[137.599942943712,36.37021502690203],[137.60890208796104,36.366623945838455],[137.612961529651,36.366834801784705],[137.61917345009476,36.3642092787353],[137.62264341136438,36.359544279445004],[137.62444975365327,36.35475205396415],[137.6283399995914,36.34978430600097],[137.6354705055594,36.34254986538406],[137.6454224123146,36.341715441114786],[137.6463656680412,36.3302318378291],[137.65067425431346,36.32739794635819],[137.6514391699818,36.317085972639575],[137.6497369134279,36.31554346805666],[137.6489010250623,36.30891319828555],[137.65305683540464,36.304674558584054],[137.6486687553588,36.30005872073343],[137.64685871595702,36.29645233320866],[137.64782061013307,36.289051748239615],[137.62879780757282,36.278365919151895],[137.62635250326548,36.272198972904334],[137.62092444900418,36.26667505361087],[137.61471944164896,36.26292727917064],[137.61262080440667,36.257412279353275],[137.60699856043527,36.25311561269541],[137.605923280635,36.24878672063073],[137.6016132806285,36.24721894599759],[137.59635021958707,36.2429761712134],[137.5956118294224,36.23743061333221],[137.59134294372188,36.23435450475665],[137.5896792995601,36.22860341401639],[137.5836693389689,36.22720977511108],[137.5845365237417,36.2229253599175],[137.58302538301507,36.220396468122544],[137.57298041531396,36.21841091882891],[137.57605428008105,36.21432841402515],[137.57352147893312,36.21104008073519],[137.5751183664196,36.20388535962172],[137.57783138810817,36.20176758570557],[137.57868997356354,36.197392305710366],[137.58104272414243,36.19530980230559],[137.58978269821307,36.191728972614044],[137.59517461681514,36.190349532205175],[137.59112236070848,36.18626702740147],[137.59115674358895,36.178353170562445],[137.59506364497133,36.17204817118619],[137.59202972808953,36.16952650544391],[137.59122247683592,36.16411705365914],[137.58314438400623,36.16017483769866],[137.57774328062794,36.15952427892239],[137.56789294420412,36.1533761977534],[137.56804399523423,36.14817230580729],[137.5655001171367,36.14591758582799],[137.5597489751351,36.14449397341821],[137.55823616077032,36.14157841361293],[137.55468949362535,36.140010639879165],[137.55471228334522,36.13766022483958],[137.55776345012316,36.13207225223272],[137.5604668868374,36.13047119818731],[137.55691625188354,36.12146674789216],[137.55689202324834,36.11783313519106],[137.5520392221324,36.11671258621692],[137.55018002578765,36.112598134796144],[137.5508575228564,36.10987508117012],[137.5577541889047,36.103399558642764],[137.56174503210764,36.1020598376914],[137.56296252889763,36.098416505117655],[137.56754391731795,36.097023198062175],[137.57234861189897,36.08859208085988],[137.57771944229853,36.08531850544472],[137.58256722429803,36.08542877491806],[137.59036975406093,36.08115322524122],[137.59279031082428,36.080944640083146],[137.59681444872786,36.075841027041804],[137.6028905841332,36.07622825173246],[137.6082253310343,36.077931865363325],[137.61395005185352,36.07638717093124],[137.61165586332754,36.073436613109266],[137.610909442217,36.067571332750845],[137.61459972839486,36.06312910812187],[137.61372333276563,36.05961689220584],[137.6069713622386,36.05583105396005],[137.6054232809597,36.04868580180835],[137.60148438439694,36.046929387181535],[137.59832464336762,36.043189107691205],[137.5982588066986,36.03751691897071],[137.6002235016134,36.0285713598804],[137.5982712452219,36.02224858630325],[137.5958365241363,36.019210531640795],[137.59396428042726,36.01185305387537],[137.59029594040544,36.00654110838548],[137.5808167442974,36.001364721304924],[137.5747045011119,35.995688892128726],[137.56911394295412,35.9956935856905],[137.56223252940777,35.99008469395352],[137.5501613882376,35.9868905322723],[137.54345802876503,35.98287080194598],[137.54495274966973,35.97822191940611],[137.54426577194783,35.97237580180189],[137.53985852105393,35.96561138735569],[137.53255739300937,35.96161722475517],[137.52916763867563,35.953557505074855],[137.52738680925393,35.95194225163368],[137.52425817127767,35.94496113474861],[137.5245190007513,35.94246364008495],[137.51888425440484,35.93973391888528],[137.51359255535226,35.940961414337835],[137.5055722439639,35.940620585671525],[137.50187722375495,35.937611973014214],[137.49774968899703,35.92881946774429],[137.49242299642424,35.92532974836922],[137.48932824939925,35.91982199978554],[137.48421461701105,35.91610255938565],[137.4832598832371,35.91331533283642],[137.48445627833462,35.90863117079198],[137.48109763874504,35.905754774663194],[137.48193208819532,35.90052786456937],[137.4792576393287,35.89642341360968],[137.47544455342347,35.89364313522259],[137.46514727642568,35.89264535989548],[137.4619747731174,35.889492585914184],[137.45864810622516,35.88931450486058],[137.44867999998212,35.8928853331916],[137.44142357993428,35.899440026636],[137.43881053228029,35.90013474841993],[137.43761413718278,35.905050865405144],[137.43489910461005,35.905488918878575],[137.42435238715302,35.90318946841927],[137.41940182883138,35.90447169391359],[137.41443985721367,35.90139030631764],[137.40767788622554,35.899662802196644],[137.39780591391184,35.8956764142352],[137.38540477281208,35.893802774778294],[137.38081616103705,35.89242222460604],[137.37810477341668,35.8887349997205],[137.374130856354,35.886731134834065],[137.37350557662114,35.884080586350024],[137.36437002585603,35.878872532341575],[137.36716505762138,35.87679808056703],[137.36806199736338,35.87043558573373],[137.3663161605624,35.865272532001825],[137.36758533059856,35.860667000381795],[137.36112703008848,35.8462078381213],[137.35677674405156,35.84273227857187],[137.34832422838053,35.8424300542037],[137.3413406095815,35.84398561334541],[137.33604561631216,35.844217559292986],[137.33214394268884,35.84068005444101],[137.330328144928,35.83320117089738],[137.33032841832187,35.829155639920884],[137.32730785996978,35.82561313483836],[137.32879869040733,35.82176008126277],[137.32499286562836,35.8166700812593],[137.32602897455763,35.81212813530527],[137.33232119276886,35.809334802359274],[137.33181869028044,35.80710869431084],[137.3347748122079,35.80341646829544],[137.33627869000964,35.79882536000241],[137.34386703003952,35.79856646766842],[137.35110508413243,35.80153341383601],[137.3537167441325,35.80134063965886],[137.36028594004415,35.79596844139053],[137.3626467827229,35.79798038668554],[137.3689653834457,35.79848372104692],[137.3733167828433,35.80044150467177],[137.38122070037514,35.801291224610395],[137.3858220879191,35.79877122531184],[137.39179263302367,35.798582613197084],[137.39637625176272,35.790841532310935],[137.39642124484465,35.78515541399122],[137.3910951359319,35.780428467599734],[137.39326152989577,35.777727081339776],[137.3999479119666,35.775396251735685],[137.41109182872503,35.77727013490886],[137.41733961143393,35.77557099990179],[137.41904961115074,35.77354544066958],[137.42397267180138,35.774358505140924],[137.42775933922223,35.771185440655586],[137.43445185466942,35.77090710767692],[137.43367518755997,35.767775748352165],[137.44017933910527,35.75855325203099],[137.4499415824381,35.75929241381391],[137.45335713382474,35.76220380166416],[137.45957269832138,35.761403558827226],[137.464752140399,35.75637161275978],[137.46569158210093,35.74920105368574],[137.4680935282937,35.74702494614439],[137.46553988265953,35.7437655053738],[137.46984350197613,35.73889383828009],[137.47083766472656,35.735787748106134],[137.4782626330142,35.73022886497017],[137.4788662516762,35.726756640106885],[137.48521236086185,35.72470413538758],[137.4875598567021,35.716681919235214],[137.48587732767658,35.71028666659646],[137.4860420493012,35.705499441346205],[137.49083341143285,35.70370917084159],[137.49183341078333,35.700424999614086],[137.49733619960602,35.6984230538809],[137.49867564176748,35.696221946085984],[137.49719644585934,35.688481946184936],[137.50199311309177,35.68482530634287],[137.50942533081445,35.68237919804159],[137.51470252919842,35.677334747800444],[137.51924530522672,35.67743446822618],[137.52447085644496,35.67149835996139],[137.52778807955633,35.67070336017201],[137.53537391677287,35.66580505425992],[137.53595722424654,35.66115144128605],[137.54544749730417,35.651082279123955],[137.53956442295987,35.64643810813226],[137.54093496817427,35.642533386706475],[137.53818302202887,35.638330054388575],[137.53309272434979,35.637962279335795],[137.52814994786183,35.635977559217054],[137.5262191052276,35.63210477541509],[137.52769133588652,35.628705332685],[137.52471883280793,35.6273914411621],[137.52265241197927,35.61940255928073],[137.51702435838752,35.618478666857015],[137.51380878115037,35.60802283758392],[137.51994683487862,35.60261117076897],[137.52008849518802,35.600107864686265],[137.52727406034967,35.59595508056259],[137.53259097279522,35.59144869380225],[137.53165680921438,35.588085919129924],[137.5354393001836,35.58738313492381],[137.5383037479197,35.58479730615079],[137.54615238682322,35.58724064004355],[137.55070182862653,35.58770230611657],[137.55396933901386,35.58628980213274],[137.56544130956888,35.585044251890736],[137.56810019476825,35.58591841360396],[137.57043269801068,35.579897305916006],[137.56820380026522,35.577093693719064],[137.56929269759996,35.57491758617772],[137.56709241178544,35.570956468266445],[137.5642790527362,35.569008134717706],[137.56459988317818,35.56642758586446],[137.57111574569512,35.562629252438114],[137.5726113101639,35.557970640132964],[137.57080683486765,35.55407453241378],[137.5747951878477,35.54931813502395],[137.5745084947713,35.54452925232317],[137.57916741914119,35.542450919074724],[137.580932412401,35.53893146811282],[137.58792936364932,35.5380481351134],[137.5902843580368,35.535267864820185],[137.5970466150094,35.53454730641312],[137.60249827467567,35.53070202657733],[137.6072560831018,35.53354341389746],[137.61042581110235,35.53030119784205],[137.61884167310484,35.52532619774587],[137.61942749688149,35.52141313510816],[137.6256005576197,35.51500008128875],[137.62616583728368,35.512163972989015],[137.6315772244094,35.508903667070626],[137.6275558366326,35.50281646820548],[137.62454635523022,35.50060619811762],[137.6244296888791,35.493826747906155],[137.62711274965375,35.48449230577535],[137.6297771980593,35.4835917480608],[137.62959133607137,35.47738341411332],[137.63237997365695,35.47415674823537],[137.6317502197969,35.470043973150894],[137.6284218936555,35.467312305818325],[137.62312214027463,35.466913414222745],[137.61830491633884,35.46779036023696],[137.61694238678183,35.46467646844434],[137.6132771080521,35.46293425231397],[137.61043124480614,35.45888286495233],[137.60720596568285,35.45792397271322],[137.60067788587583,35.45234758607228],[137.59763344962403,35.45117897283137],[137.59314897484535,35.44691758567808],[137.60160092124556,35.43928397287709],[137.6064217505634,35.43868953179651],[137.61530481216744,35.43083925163023],[137.61763341055348,35.4264453601653],[137.6156845266197,35.42333869442524],[137.62052369581193,35.41725174826962],[137.62197367094825,35.41189591856187],[137.62575147914754,35.410776748248395],[137.63204591418764,35.41070369362063],[137.63101924813986,35.40690233307629],[137.63482202331784,35.4029612250805],[137.63368922198003,35.39903510788395],[137.61843055792394,35.39173844137605],[137.60522416296476,35.39399122511497],[137.5906735801217,35.39361122467835],[137.58136610865904,35.39802538686217],[137.57539444929444,35.40014038726912],[137.5761991437755,35.39348789165291],[137.57794968942665,35.39012900025324],[137.5816077555935,35.390846775258524],[137.5864910886928,35.38943427936857],[137.58774496755632,35.38660899980556],[137.59335719757667,35.383327333189925],[137.5983871984106,35.379181775118866],[137.59803688729255,35.36566566713691],[137.6012688070099,35.36157400004009],[137.60256992186441,35.354495386752774],[137.5998446433157,35.35176594614154],[137.60043600511756,35.34211927918142],[137.60393294425,35.33721372113638],[137.6039146169661,35.33323427863911],[137.60154819669197,35.331038440871396],[137.59054847003597,35.330486505348006],[137.59105819677848,35.32795872061854],[137.58757902735033,35.32370510810432],[137.58337958460027,35.32171872064248],[137.58353180295046,35.319247612987],[137.57923263258,35.31898094601388],[137.5742365235967,35.31674261258155],[137.57146625196606,35.31834872081686],[137.56011538321843,35.30959899989398],[137.5565367829463,35.30918538729583],[137.55877983062476,35.30551233302782],[137.5592487155559,35.30127344061685],[137.55759119307913,35.294715107616184],[137.56198425357047,35.289317053839],[137.56682119334346,35.29000872062602],[137.56741147865682,35.28720927858541],[137.57074619987725,35.28309705388597],[137.56659647164986,35.281221224579895],[137.56407119333096,35.27765650534349],[137.55721367117405,35.274852054079076],[137.5558997796512,35.27242317139229],[137.557743385349,35.26744205410756],[137.55748199739628,35.26455372127725],[137.5521094681775,35.25990789193571],[137.54842197079734,35.25973510788896],[137.54599669259335,35.25178566667523],[137.5479164196072,35.25092122483471],[137.55041722377587,35.242905107884496],[137.55714639379107,35.23726261297924],[137.5626311152339,35.235365108213216],[137.56852111525734,35.22783513508347],[137.57239805392715,35.22660791932009],[137.57559108875785,35.2204240271472],[137.57872583672804,35.219435135323295],[137.57660053188908,35.20666517056122],[137.57789133601636,35.19903517123623],[137.58351466906674,35.199700999601475],[137.5914838387082,35.19933905395425],[137.60222914356018,35.20435322492142],[137.6030844231077,35.20607350478849],[137.6127269387972,35.20881933284596],[137.62680364457265,35.2118846126848],[137.63298474704845,35.212198504857156],[137.6401105837365,35.20937794583557],[137.6446166926063,35.20900655910549],[137.64538616064283,35.21402238662387],[137.64868671931674,35.21444322527469],[137.65379535687032,35.21798961273049],[137.65391508361427,35.226712666956075],[137.65697094665188,35.22825905391227],[137.66129788628848,35.22717294627449],[137.66787847031526,35.22729710757551],[137.67363457837314,35.231169332898446],[137.67858433180152,35.23089155929807],[137.68126075198222,35.23508850463082],[137.68722352784357,35.23072600040467],[137.6940624376315,35.23370905432944],[137.69981994773252,35.231614053945464],[137.70576108860337,35.23384905359103],[137.71177386497197,35.22887433318397],[137.7182663936792,35.22919294589781],[137.7221547474437,35.230522946077144],[137.72241997370293,35.22210017098615],[137.7294208298075,35.22098350528461],[137.73551946804912,35.22269738737458],[137.7407428024385,35.2210643327528],[137.74331306124884,35.218871837765164],[137.7470039166975,35.22048489236397],[137.76037977990302,35.220765441272135],[137.7680214137573,35.21846183774369],[137.76928836606533,35.21598766699731],[137.76609330686074,35.20999710837992],[137.767719973598,35.206894891586046],[137.77345160840503,35.205448775440686],[137.77909518789272,35.20275158631671],[137.78349243832542,35.2059760272719],[137.79420241241144,35.204957413753675],[137.8004246426832,35.20565102667359],[137.80677630428306,35.20980630641594],[137.82151936362777,35.21564853175437],[137.8267482225525,35.215948532099105],[137.83811566760403,35.21246658556453],[137.83680902731487,35.2156285317314],[137.8412017766408,35.216322414447916],[137.8450459404179,35.21902436008622],[137.8449295852322,35.22100713497133],[137.85413011741105,35.22185686480253],[137.8591939687267,35.223317414167354],[137.8651122830055,35.22247713531158],[137.87254613479638,35.218880197862916],[137.8766422436447,35.22189546820135],[137.88035557674857,35.226349919113545],[137.8848917247733,35.23624964000891],[137.88214564220766,35.24280213461088],[137.8840986900026,35.24395686501737],[137.88246538267128,35.24809630589982],[137.88402038873005,35.249944053875026],[137.89109955869776,35.25416489239592],[137.89354511031866,35.25422961300626],[137.89542593985527,35.25798850486564],[137.90685255490155,35.254243531813586],[137.9128136454334,35.25335713482394],[137.91861308732416,35.25437380220927],[137.9223575225817,35.259120720744704],[137.92476335924175,35.260306279011616],[137.92624450128278,35.26890517103686],[137.92825700415744,35.27030738677655],[137.9292525545618,35.275470170711856],[137.94424282674515,35.27628433325543],[137.95189033676968,35.28308153158747],[137.96031894936004,35.28293930560454],[137.96392313894182,35.28461180179329],[137.96734063556198,35.28420402669451],[137.9734153833134,35.2930476125573],[137.98235761311344,35.29239344120441],[137.9843540343113,35.29562122493962],[137.99209321672868,35.301703973059944],[138.00148461742117,35.30285786529828],[138.00567710841187,35.30439508096828],[138.01557988340494,35.303009802160716],[138.0188762782177,35.30109202667575],[138.02379072606118,35.305345080710936],[138.02773658877265,35.311644774986405],[138.02602827528472,35.315732558810566],[138.02606386505545,35.32021227887361],[138.034332502643,35.32459780214691],[138.03898277643407,35.32600225180255],[138.03742533141394,35.33252836029567],[138.04331700417652,35.33523697260824],[138.05063700359494,35.33546697332224],[138.0552547731893,35.33997280160355],[138.05549481213598,35.34382138734719],[138.06133594030143,35.347198892015285],[138.0712170299421,35.347062532310076],[138.07353228328827,35.34514808071941],[138.07878752292595,35.34365144066152],[138.08234610878594,35.33875644065728],[138.0867085860325,35.33772369429312],[138.0963335541503,35.339942305592956],[138.09627335892844,35.348328107756004],[138.09377418882787,35.34997033276471],[138.0969914397033,35.35426950493377],[138.10006144008344,35.35402672125622],[138.10556422800676,35.35752533312768],[138.11514258066563,35.36487394627568],[138.1240181446217,35.36804730573863],[138.1292972756488,35.3652881353392],[138.13501586309167,35.36674038665956],[138.1411436708438,35.36949261339345],[138.1435848382697,35.375644252280495],[138.14570350161534,35.383639252249736],[138.1477735539064,35.387548134838596],[138.15117717308817,35.389967026956754],[138.15254807983013,35.39798394610227],[138.149751440077,35.39937089225293],[138.14437649797708,35.40607477513083],[138.13939316476285,35.40577336015252],[138.13487958522478,35.407746134576485],[138.13511158243364,35.414040864594256],[138.13903325607998,35.41648002743136],[138.13982552462835,35.42260363984616],[138.12899834010136,35.427261387003455],[138.12152082982254,35.42855666705657],[138.1202086380183,35.431444441407905],[138.12396255482815,35.43566083817717],[138.12296230906338,35.43994250504261],[138.11934289216083,35.44597861342231],[138.1219279124433,35.456393054096225],[138.13157461717492,35.45334027933046],[138.13527046655884,35.45443472098566],[138.14101910484783,35.458994720829764],[138.1483291442746,35.46023138666919],[138.15142108901216,35.45870833262353],[138.15691306078918,35.459980838245144],[138.16024780808993,35.46779777514723],[138.16040364531204,35.47083499973547],[138.15678391724407,35.47279417101424],[138.15640114060022,35.47690530573533],[138.1587655769698,35.48286336015599],[138.15832252866187,35.486301134689654],[138.16462364476547,35.493871694223344],[138.15798891075974,35.49429446821517],[138.1535791957234,35.496083639748235],[138.14856000024383,35.49997974836674],[138.14432250268146,35.50063919784077],[138.14018082968164,35.49973336020645],[138.1409413881346,35.504365892172245],[138.14334138819459,35.50632922461409],[138.14384167295486,35.51046810791689],[138.14628250313513,35.51377922463155],[138.14633002601,35.51864283829639],[138.13833221835728,35.522211748373536],[138.14276610896877,35.527075360239735],[138.14696085635853,35.529602027111935],[138.14794114077108,35.53475313514912],[138.15148808041067,35.536202026602325],[138.15942450123976,35.544932332960855],[138.15617756194501,35.54844510825518],[138.15602616107856,35.551750945949436],[138.14817644568643,35.55427733313246],[138.14613089542456,35.557015414429884],[138.15095922239027,35.56629374785825],[138.1518103632577,35.57095986500582],[138.15597092112114,35.572487081113934],[138.16009868970286,35.576127918968325],[138.16205036333372,35.58129489194573],[138.16738286642624,35.58290708139674],[138.17284175124587,35.5816018017818],[138.17840007770144,35.57484874757171],[138.1843989748329,35.573091775365185],[138.18949063588423,35.57678094638362],[138.18892286599748,35.58055900009782],[138.1946303630009,35.58862205356496],[138.195957860367,35.59549041435122],[138.20042980489166,35.599562612924274],[138.20192428028133,35.60381510758123],[138.20605535656955,35.608396504994744],[138.20504622640226,35.61337180186723],[138.20240455332748,35.61821597308875],[138.20344208768222,35.63218097317343],[138.21122121888425,35.63521541435995],[138.218670661322,35.64454930610566],[138.21626403415792,35.64845708072977],[138.21102569368088,35.65177180192717],[138.20808461741126,35.65578877493209],[138.20816849537982,35.658420720939546],[138.20548905257783,35.66426433303258],[138.1992049156744,35.66930627866191],[138.1933021398819,35.67226463990124],[138.19311713404852,35.68110019841549],[138.19129771741575,35.685378251804934],[138.19347494191516,35.68796546823182],[138.19398299591865,35.6954935321009],[138.1911593899939,35.70189853159201],[138.18666717295173,35.704432694313425],[138.18085608304182,35.71123769426424],[138.180145525096,35.71453769355975],[138.18184830055873,35.71833797311899],[138.18626136197236,35.72026269406814],[138.18664413681756,35.72215353215984],[138.1974744231062,35.72703241361506],[138.20054997410205,35.73311905400118],[138.20716358033508,35.73559683822356],[138.2129149678516,35.741574333288895],[138.21924775627895,35.7455087746103],[138.22208306058485,35.750479612644085],[138.236701946038,35.757714892328465],[138.23216138773796,35.76355155895732],[138.22467861192843,35.76568877531679],[138.2212805838319,35.77067099966695],[138.2172919709477,35.771374891837866],[138.21521031110706,35.77446350458712],[138.21182085624753,35.77577627915201],[138.20872530522877,35.78061822455146],[138.20532725015255,35.782585441165224],[138.19963058368455,35.78101044137884],[138.19149169938248,35.784288775106916],[138.18930836578852,35.78777100043135],[138.18517418863792,35.79107989222331],[138.18560197095428,35.79535291930182],[138.18778503205363,35.799952919191924],[138.1933167187916,35.80383763969536],[138.2056928659331,35.81573430609342],[138.2058031390037,35.819690413881574],[138.20349313859754,35.82263208100579],[138.2047000782461,35.82813902739423],[138.20677955902954,35.83153541422803],[138.21265761335826,35.8370151354402],[138.21614569416852,35.84549125201971],[138.2189220883837,35.8468168023536],[138.22417405988506,35.856211251747936],[138.22678878117733,35.85740374828441],[138.2298599479783,35.869424558896355],[138.23259855987567,35.8761317746617],[138.2382349681693,35.88237899979106],[138.24189469538396,35.88452817083845],[138.24860360637138,35.88592455897128],[138.25884167290496,35.87894653215676],[138.26444053180512,35.87591125190278],[138.26783885937596,35.87041374839583],[138.272841089145,35.86492930574292],[138.27894966309657,35.86039125205468],[138.28364077779975,35.859315721343535],[138.29305581087704,35.86706236003994],[138.30324836631917,35.87942569364088],[138.30767866413908,35.887449306440374],[138.3127834112255,35.890974306219334],[138.32431817064708,35.902329864931346],[138.32632428024135,35.90317653167165],[138.3309101688693,35.910892332615106],[138.33152766496983,35.91437705355821],[138.33516880679508,35.92004289216578],[138.3393707784387,35.92459761298949],[138.34203243804666,35.925669279313865],[138.3457288593994,35.93524594574387],[138.34504666697012,35.941333134716444],[138.3521644754103,35.9479731351521],[138.35738114132664,35.95094146807435],[138.36007949417342,35.951013694426535],[138.3597056163212,35.95570202662731],[138.36162369577698,35.95855535964216],[138.36190286602448,35.96259564037655],[138.3694439952443,35.9672245318867],[138.37046041531596,35.97138063990468],[138.38177208801153,35.971249802036766],[138.38368041521903,35.9693453599005],[138.39068652426374,35.96633841368691],[138.39825513586584,35.964317027308994],[138.401217081803,35.964518134604305],[138.40841569432894,35.962486468076065],[138.41125652406936,35.96053286539944],[138.416831530251,35.95898313476391],[138.42419319076316,35.95897480164581],[138.4431612452953,35.951137585930894],[138.44628372201623,35.94762563981146],[138.45056289236368,35.945411467565236],[138.45433341065848,35.9383061983724],[138.45149282733223,35.932950359671395],[138.4475055769209,35.929248721351485],[138.44728194610502,35.92358483787001],[138.44441610891636,35.921729558972004],[138.44441885904314,35.91773289175961],[138.4490099736314,35.912786505392944],[138.45020994803076,35.909149000426055],[138.45422191990576,35.90320622458762],[138.46048749660076,35.90352425184278],[138.47165447467432,35.896190359697414],[138.48214282702986,35.89877341406185],[138.48978258130114,35.89645117118465],[138.49471204872214,35.902083108049055],[138.49600566772745,35.90807561279934],[138.4946492742447,35.91115172137489],[138.50275791164836,35.91219505365888],[138.50567128430237,35.91886727860208],[138.5106493636772,35.92234394611626],[138.513060195172,35.92003117130156],[138.52137102535255,35.918694224758724],[138.5293718547274,35.914548666687665],[138.5306460312894,35.915605612908735],[138.53935522696224,35.91425255860872],[138.54535800286965,35.91477727884842],[138.55384411181637,35.91899338693531],[138.55803355410535,35.9160042248152],[138.56441522698117,35.91733394620468],[138.57235296981378,35.9121161714242],[138.5766665886922,35.91144394618124],[138.57915352801297,35.91300394617525],[138.58098185512858,35.91705005361712],[138.58583408607433,35.91838338668401],[138.59242963661848,35.9182767207941],[138.59677766535708,35.91689005433261],[138.60051654999882,35.91380169429283],[138.60253846967476,35.909843919161574],[138.60776732770012,35.908208359927926],[138.61231705638716,35.90866891893552],[138.61063564162168,35.90433530632936],[138.60722980471178,35.899683081009414],[138.60766092081485,35.89602558591213],[138.60604535710763,35.8918541984126],[138.60676061041386,35.8784558647464],[138.61075613458797,35.87368946779475],[138.61785082955225,35.87104641426066],[138.62202691331152,35.870448359704085],[138.62833968912537,35.87332669387189],[138.63423411201472,35.87005308068518],[138.64252325594362,35.87477225243754],[138.64604741935295,35.87372030644701],[138.65195683484012,35.87395446832409],[138.65593069974204,35.875867532260884],[138.66907980518897,35.87142863962009],[138.67598758775705,35.86983808066293],[138.6826775617202,35.88146113462369],[138.68361197081583,35.888314504610776],[138.68562280185085,35.8897295051126],[138.68584557741156,35.89386561310761],[138.69193221779767,35.895849774747376],[138.69342527855383,35.89925033263677],[138.6968835801132,35.89906866688551],[138.7001616341522,35.90306283757997],[138.7056843843269,35.905950612830566],[138.7079701947688,35.909636441068926],[138.72410596581778,35.90798505376728],[138.72901128374383,35.909220613440596],[138.73061878143164,35.91463227935628],[138.7291068349126,35.91722810769107],[138.73239355391945,35.91955783832361],[138.73377525342528,35.92317113533966],[138.7385070039951,35.929019198177514],[138.739170661397,35.933259748039006],[138.7374595851918,35.935792801896355],[138.7392543316222,35.93910805369376],[138.73113549860443,35.945145279031465],[138.73046944181135,35.95030110761007],[138.7255997802058,35.957611108365995],[138.72104119319658,35.95909000030332],[138.71947788639545,35.96288719788595],[138.7141837483814,35.96551525162761],[138.7114468613836,35.971281639835865],[138.7125500516437,35.98533300001799],[138.7011670303342,35.988010504781016],[138.69732345021714,35.99103189230806],[138.69080344991937,35.99080189159406],[138.68642625167024,35.99490299977367],[138.68716686136167,35.99981827859074],[138.68105411185786,36.00430161302904],[138.67974944198318,36.0116149457732],[138.66169641975398,36.012014667443],[138.66142477323478,36.01636713523516],[138.65680367075288,36.01674380188501],[138.65350175140475,36.01882297330161],[138.64601092126702,36.020027413734226],[138.64486289170918,36.02413436031253],[138.63613374817396,36.02769908134758],[138.63148791163792,36.028278802324905],[138.6441711152048,36.04957017082677],[138.64237280206328,36.053762640233685],[138.64281538272382,36.06874233279245],[138.63918600493025,36.07528510842104],[138.633211581949,36.080874000135054],[138.63046549938338,36.08605841366489],[138.63062635482243,36.091328135085405],[138.63489192022598,36.0943292518935],[138.6451830611494,36.09880674793311],[138.644981140867,36.10341258622191],[138.64754863785936,36.10592063982574],[138.64640783435414,36.10957230641685],[138.64223561588108,36.11224202664829],[138.64093175089965,36.121533973114424],[138.6373362002056,36.124343973195835],[138.63651150480212,36.131106748177956],[138.6340915047192,36.13397008075469],[138.62216121896518,36.13195508136198],[138.62017233498534,36.13403035961346],[138.61221678287825,36.13342341435913],[138.6062637223929,36.13626150476466],[138.60066202343364,36.13562622457067],[138.59572316529193,36.14124622473355],[138.59479927376753,36.14851344114243],[138.59330097266184,36.15306955861331],[138.59076041486128,36.15466317076874],[138.58707625216732,36.160996252375185],[138.5839368088367,36.160349027385735],[138.58026680866635,36.16239874780405],[138.57892041474543,36.16751236040716],[138.5805832171418,36.17574180194265],[138.58404710798766,36.177201252335976],[138.58962713418498,36.17678708125885],[138.5882087810105,36.173651531992675],[138.5890332174091,36.170542919220395],[138.59456600491728,36.16560597303726],[138.59883294358553,36.165688467848554],[138.60483933926412,36.16419764010908],[138.6127871338192,36.168564306397684],[138.62775744465046,36.17121566696949],[138.63090830127715,36.17278177515885],[138.6359013615587,36.170932613449395],[138.6371049683197,36.17488483796495],[138.63553386529566,36.17776819844363],[138.62941861207935,36.18346625166623],[138.62947444918655,36.18632097323439],[138.62726500557562,36.19142208076448],[138.62279725009307,36.19692791918817],[138.6270825286358,36.201133197639024],[138.63604700406609,36.20667625180761],[138.63320980488868,36.21608933335608],[138.62224452676355,36.21458572085436],[138.61473508425684,36.224224053797116],[138.61451844387113,36.22806822476883],[138.61187038920718,36.22939130556438],[138.6124968092804,36.240917972886166],[138.6073059655979,36.2462765859957],[138.60217763918672,36.249500467572545],[138.60475433174713,36.25412908119222],[138.60487464305038,36.25935910833624],[138.60373296990065,36.26283022523478],[138.60595216575996,36.2667946670403],[138.60381299607297,36.269549386694905],[138.6035602461085,36.27494661309578],[138.6003355245649,36.278399945900844],[138.60717885901715,36.2795955046289],[138.61237444932146,36.28383883789212],[138.61250891055784,36.28565522470893],[138.62092530495897,36.28656105424932],[138.6268358877661,36.288777413646756],[138.63058338521512,36.28845630621362],[138.63743535675633,36.29342713525415],[138.64076730176964,36.292768801838804],[138.6448862264183,36.294536558715265],[138.64640900077484,36.29757710809713],[138.6512218027441,36.299097108045146],[138.6501226333529,36.30148017117301],[138.65353069968216,36.30311489223851],[138.65371933877657,36.30678294627603],[138.65130044126238,36.30792350516566],[138.65024238707656,36.311962667143405],[138.64789214021016,36.31447574795743],[138.64969269805965,36.31955297309128],[138.65330577204384,36.324369892156824],[138.65155163360112,36.327317413867604],[138.65317885881734,36.32962186455745],[138.6505402461355,36.33212991906055],[138.6497391957074,36.34159269444734],[138.6512783916845,36.34964825206521],[138.65008060983234,36.35248325240025],[138.65398341120556,36.35709322487247],[138.65238955893108,36.36263405411836],[138.6571634760137,36.36890153198016],[138.6516548640808,36.372817108223046],[138.64963878100502,36.378944306234814],[138.6521576912245,36.38537180226689],[138.65216966299965,36.39506927912396],[138.64846383923486,36.39979927871377],[138.64838747060537,36.40746761343968],[138.6466302717697,36.410772612965786],[138.63715138772648,36.41721622484897],[138.63232083044204,36.41784955891006],[138.62663442344,36.41550402718917],[138.6212388589862,36.41646902672426],[138.61833442289537,36.420670667417426],[138.6126219202655,36.422720946314655],[138.60786635474858,36.42318789230745],[138.6038271729857,36.42199844087537],[138.5997852267069,36.42406317097863],[138.59019605700246,36.42389038693187],[138.58895771662537,36.420983721421635],[138.58384216598324,36.422545108170254],[138.57312963692323,36.41919513534725],[138.5645068607031,36.42021677508416],[138.55500797663683,36.417773747860224],[138.5496307259773,36.413344027405],[138.54589822292473,36.407412919370756],[138.54061153039788,36.40284933303036],[138.53386097270584,36.402208774715234],[138.52934680860835,36.40304266658586],[138.52306489033253,36.40590433271882],[138.51660182881142,36.40783905412911],[138.50543466907482,36.41477041422331],[138.49205719788142,36.41325764032791],[138.4888249418177,36.40891738712776],[138.48895741914964,36.40093350457761],[138.47786800310587,36.40444989244861],[138.46559247661162,36.404251558662565],[138.4596500002474,36.404750441379804],[138.4611730605883,36.40774072135724],[138.45709031116894,36.41229517058571],[138.45800255467418,36.418160441051555],[138.4569647730059,36.42024013497428],[138.45162535682482,36.42117374817002],[138.44719258137263,36.4192609998953],[138.4416014395548,36.42259291882817],[138.42982308706587,36.42561899991699],[138.42056693901304,36.428559801893414],[138.41528360635346,36.431596441022975],[138.401449947757,36.43402113466766],[138.4005919198812,36.44118086500498],[138.4012869132605,36.447063639875125],[138.40312639376816,36.45231944068968],[138.398697782177,36.45303055891321],[138.40090416269697,36.45597777485449],[138.40007114137018,36.46140499994084],[138.40334919630845,36.46687027894029],[138.399561971308,36.473329973399586],[138.40103116675505,36.47711441409899],[138.4007603368201,36.481453865103845],[138.39729089535865,36.484062721017835],[138.39713202292455,36.49058217093051],[138.4019537218868,36.5017210272037],[138.40603180292544,36.50736408058788],[138.40280097318646,36.51605658574289],[138.40424654973856,36.5220651712707],[138.41171464321633,36.52727155883542],[138.41397769091782,36.53260655934531],[138.41143355381553,36.539463747853745],[138.41238856008408,36.54148625208893],[138.41772330698507,36.54319291891812],[138.42610778174878,36.551500107743834],[138.42884085562105,36.55622538679222],[138.42616224379253,36.56039372109342],[138.4288278343372,36.5640767479436],[138.42842949402598,36.5686961983709],[138.42310980537331,36.57293953163412],[138.4203348123018,36.57367341439664],[138.42029481225586,36.577237306256734],[138.42415871615185,36.58151394591192],[138.42711929961604,36.588258387314795],[138.42631822310761,36.59352419758369],[138.42883547317865,36.59789141425739],[138.43517216556302,36.60022974780469],[138.44142800260033,36.599991693661764],[138.43894330708804,36.6055758378547],[138.44158333260475,36.610669441441644],[138.4503358369294,36.610676946284116],[138.4549736452176,36.61385083814571],[138.4562222828322,36.6190002518602],[138.46057566793274,36.62647219803358],[138.45841038912818,36.62891497344731],[138.4590562516447,36.6348380001736],[138.46608795089833,36.63682217080657],[138.47174713362335,36.64155244109236],[138.4730971733959,36.64404827920475],[138.48110050558398,36.64524772120541],[138.49008185499372,36.64119580234444],[138.49773294431998,36.64393664006394],[138.50161961095637,36.64443525208526],[138.50810267160102,36.64826722465273],[138.51189875492366,36.64677110800028],[138.5148043061738,36.648952224765424],[138.52490566766255,36.65090835993294],[138.5294439947446,36.65528835957019],[138.53433819705026,36.6662686671653],[138.52724741863358,36.668802532211146],[138.5179174973947,36.67699610788412],[138.51977555070118,36.680425278603764],[138.51853863844747,36.683694171249044],[138.5200164458024,36.692317225359716],[138.53083250301768,36.69765502725778],[138.53708469510264,36.69713033309847],[138.53743944167695,36.69886922533453],[138.5436391439314,36.70383453163839],[138.55299771667137,36.70457455856905],[138.5604210508908,36.70694069375804],[138.56263328060152,36.70566874841404],[138.5713199221767,36.70554738670256],[138.574897690576,36.7071218648822],[138.5832676646711,36.701306306241065],[138.58586155586613,36.702827999612566],[138.58966019506204,36.7076866130468],[138.59231907936214,36.708658585925036],[138.59433522718905,36.71379608092445],[138.59767050598907,36.71472053182714],[138.60268411218215,36.712235838113486],[138.60593241215122,36.70758972098889],[138.61114102463864,36.70657666707956],[138.6172893899934,36.711659198213454],[138.61711383873273,36.713500026804866],[138.6217711146453,36.72021310794861],[138.62790306107752,36.720893667209054],[138.6300877823254,36.71954477497144],[138.63687002583106,36.721355360261725],[138.6389139429242,36.72317535965516],[138.645211166762,36.72452955879214],[138.64892508442517,36.727119558620814],[138.65549868971277,36.727146774803884],[138.65668011739353,36.72861205370339],[138.66716430588804,36.73028180156393],[138.67530294377593,36.73093791904978],[138.68215741902975,36.73500294642889],[138.6889554986974,36.73722850499155],[138.69593163423758,36.73851266672625]]]}},{"type":"Feature","id":"JP-20-capital","properties":{"Kind":"capital","PrefectureCode":"20","PrefectureName":"Nagano","CapitalName":"Nagano","CapitalNameJapanese":"長野市","PointKind":"prefecture-representative-point"},"geometry":{"type":"Point","coordinates":[138.180908,36.651306]}}]}
