{"type":"FeatureCollection","bbox":[135.53969805362237,33.85916582903985,136.2290361091292,34.78133194561286],"displayBbox":[135.53969805362237,33.85916582903985,136.2290361091292,34.78133194561286],"DataVersion":"2019-boundaries-v1","Attribution":{"BoundarySource":"MLIT National Land Numerical Information, via Fabio Crisci / piuccio","BoundarySourceURL":"https://github.com/piuccio/open-data-jp-prefectures-geojson/tree/513fb852832c99470e16b95a30ddd68bf3469dc0","BoundaryDate":"2019-01-01","CapitalSource":"Geospatial Information Authority of Japan (GSI), prefecture representative points","CapitalSourceURL":"https://maps.gsi.go.jp/","CapitalSourceRetrieved":"2026-10-04","Notice":"Simplified and enriched by Ashiato Kai. Modern geographic context, not historical immigration-era boundaries. See GEOLOCATION.md and THIRD_PARTY_NOTICES.md."},"features":[{"type":"Feature","id":"JP-29","bbox":[135.53969805362237,33.85916582903985,136.2290361091292,34.78133194561286],"properties":{"Kind":"prefecture","PrefectureCode":"29","PrefectureName":"Nara","PrefectureNameJapanese":"奈良県"},"geometry":{"type":"Polygon","coordinates":[[[135.87483221813238,33.861596387163615],[135.87288277571963,33.867900278575064],[135.8748177822149,33.87288416217439],[135.88087833956376,33.87584500014668],[135.88268805431028,33.878870829425296],[135.8783200003678,33.8841083326335],[135.8746536055795,33.883932224692444],[135.87162194599603,33.888651107762485],[135.86480527914034,33.88911110829105],[135.86146527889957,33.88714999987263],[135.85840277616728,33.8970980539321],[135.8587172241207,33.90119222474141],[135.8629725030786,33.905218612748854],[135.86320111523935,33.90775972093445],[135.8689380542479,33.914463054326575],[135.86557333344263,33.920013332749136],[135.86746666715305,33.920545829426544],[135.8771713880492,33.91711138688106],[135.88021527931176,33.917927494658215],[135.88189138807718,33.91466777509777],[135.8800577819411,33.912377225228795],[135.88076082964858,33.909372225148104],[135.88216972825046,33.90782666736686],[135.89395138844588,33.90615082929736],[135.8963000003448,33.90742194636579],[135.8978736061821,33.912608892386515],[135.89369944157602,33.92001361333763],[135.89814610885594,33.92159805420687],[135.90233972759643,33.92115000027235],[135.90908360602361,33.9184744407429],[135.90973138769345,33.922696945707514],[135.90487472129143,33.92552027913763],[135.90279138781239,33.92406694593285],[135.89843472108555,33.926685558591714],[135.8980880540205,33.93378166729019],[135.89306693938784,33.939183332744676],[135.89249693918248,33.94597305411321],[135.89384944219807,33.95007416229282],[135.8981772236001,33.95373638692479],[135.9022930608761,33.95390722483859],[135.90706111527834,33.95949222518607],[135.90666749730724,33.96307916217364],[135.91197888521742,33.96409416221587],[135.9159880539056,33.96785889157462],[135.91567444861698,33.97259194616146],[135.9221072236695,33.97851333342368],[135.92656333293155,33.981447494806105],[135.92886888529085,33.9803411083555],[135.94053999992116,33.980015828967396],[135.94358639399695,33.97652138725226],[135.94726138810267,33.98066610805449],[135.9539825028903,33.980329440551316],[135.95813082997392,33.98151555909584],[135.96093167315826,33.98452861260546],[135.9684761091852,33.98601610835675],[135.97460306078267,33.985966667227956],[135.97733194561283,33.98972110834251],[135.98461472119254,33.99164110785091],[135.9848361090992,33.994765000104735],[135.9889741632271,33.998889162404964],[135.98948389086888,34.00224749532572],[135.99383444940042,34.00510082923995],[136.00077639361575,34.005972224638526],[136.00360693870937,34.009881386916504],[136.0036763942503,34.01351416234877],[136.0058991703105,34.01456833326205],[136.0073491697285,34.01974694616467],[136.0149636062855,34.02459777506732],[136.0165850056935,34.028386667410814],[136.01704416265807,34.03352333323528],[136.01963082959912,34.03679305415619],[136.0229827764341,34.03652194633082],[136.02783527897498,34.03279055933689],[136.03172778221142,34.031867225392205],[136.03584111487567,34.039109721236684],[136.03899666686277,34.03651805406497],[136.04345917030457,34.04068277489023],[136.04410138786886,34.035833332742186],[136.05089527939367,34.03344333314334],[136.05492639423778,34.03562555877255],[136.06238027213192,34.032280278612006],[136.06662834032568,34.033986946340576],[136.07265583679748,34.033862775146986],[136.0821247212789,34.027555279252795],[136.08553778244277,34.02878861310404],[136.09637500610177,34.02246249494823],[136.10446944231103,34.026956667116565],[136.10104917038302,34.03713944063276],[136.0978213884464,34.04482472128393],[136.09222555126826,34.048173613121776],[136.09708221767028,34.05741305356963],[136.0939158369464,34.06661389241725],[136.09482083011733,34.07489277508154],[136.09659167256768,34.079061107584096],[136.09330888539682,34.08287527897102],[136.09609666682775,34.08634861269837],[136.09928082984652,34.086384440789345],[136.1033833328746,34.083913333133864],[136.10832333315534,34.08371582942203],[136.1159855506927,34.08175833268098],[136.11721527916188,34.08422138690753],[136.11275722376695,34.086664999590084],[136.1023608297885,34.09602972099486],[136.10344722431,34.09897555917479],[136.1078658372387,34.10309333269123],[136.10430194627781,34.105903613361136],[136.1056774971189,34.109537494959454],[136.10406082994336,34.11510416172774],[136.10029833989654,34.11671749511635],[136.09967778160444,34.12041972069363],[136.10506416308067,34.123113612902955],[136.1084044493059,34.126784441348946],[136.10426389056613,34.13708444059449],[136.1019491696186,34.14132944120081],[136.10621693926043,34.14385777541605],[136.10568583743157,34.15251694630007],[136.11083639418428,34.154717494716635],[136.11469221767175,34.160816386567035],[136.1120447205875,34.167557774771524],[136.1055969394473,34.17161833341942],[136.10881416334303,34.180781945730246],[136.10886472142977,34.18513777518825],[136.09620250264345,34.187806386555565],[136.09268277558965,34.19039416236075],[136.093449442238,34.19569805442171],[136.09653583725913,34.198291387137886],[136.09757610915017,34.20247166713381],[136.10740250292326,34.20738055896567],[136.10974111526036,34.211244441277984],[136.11546639365918,34.21083499973548],[136.11873500571596,34.215505829330596],[136.11729083030764,34.217074162442714],[136.1172983396467,34.22311000012644],[136.10965027204247,34.224221386807585],[136.1106669394278,34.22935472064387],[136.11578221757532,34.22962472140381],[136.11744167269512,34.2339469458949],[136.12469277595096,34.24131916174997],[136.1303058369449,34.242873054447955],[136.12939250256204,34.249095559012915],[136.13184944229795,34.251896386908754],[136.12855472112358,34.25384305401377],[136.1278061092646,34.25665416205999],[136.11806360605067,34.26059638701372],[136.1193563940824,34.265666946372505],[136.12183416301627,34.267127494838064],[136.11723610925912,34.27110138671969],[136.11341861217932,34.2787630538719],[136.10545555073315,34.28300333303741],[136.10053360614108,34.287896386908756],[136.09782944187532,34.28882194577625],[136.0959213880617,34.2937841620095],[136.09490360641632,34.301451108182164],[136.10036000011394,34.30554055934937],[136.10819778240182,34.304555279202816],[136.11164610868104,34.30501389207751],[136.11494360606264,34.30881249530046],[136.12231138826007,34.310428053611815],[136.12950527934527,34.31617444089778],[136.12409083002785,34.32159777461766],[136.12221722384584,34.3254227747413],[136.11535055828165,34.32631916229957],[136.10923083003888,34.32910694642851],[136.1086444486824,34.33087166719372],[136.1023627759214,34.336048333064184],[136.10206805369774,34.34215916161605],[136.0984022182878,34.345174440947744],[136.0967263937082,34.34953555931867],[136.09862749666172,34.35210499974602],[136.0955205584271,34.359808613077064],[136.09054416258311,34.36282333303046],[136.09194083040506,34.368557494932475],[136.08888778224537,34.37465610799302],[136.0866199996134,34.37575333304994],[136.08609167309226,34.37962472110405],[136.07815944220454,34.386403891626344],[136.07238944231892,34.38699055896717],[136.0693058369949,34.389341108005794],[136.06914083028516,34.39425694620115],[136.07498888502903,34.398366667187986],[136.07428194595514,34.3997522247854],[136.07653833957272,34.40586305423659],[136.08101722416563,34.40965027923704],[136.0834941630253,34.40951305438398],[136.09026500582547,34.41604249486528],[136.091102217993,34.422865000119714],[136.08869917013067,34.42872416239021],[136.09145610931205,34.43013194583267],[136.09589805425185,34.435221667046335],[136.10057722415968,34.43588610775771],[136.11125527860827,34.43570416231728],[136.11378250306018,34.436940829056084],[136.11802138827647,34.44270972097689],[136.12706555083457,34.443571945988595],[136.13132055819722,34.44510444111711],[136.13613639357982,34.44283582931013],[136.14421500621768,34.44109027939294],[136.151436666569,34.4418533325653],[136.15326693891814,34.44537638711063],[136.1582355511298,34.449006387235045],[136.16544527927624,34.44843082921943],[136.17033333291704,34.44641638740643],[136.17848416291383,34.44552138660276],[136.18536888506605,34.44812944122077],[136.18852194593114,34.45060499962108],[136.19184999957793,34.44953555911883],[136.1974863943817,34.449955279012954],[136.20536027185915,34.448346107686746],[136.208600271985,34.45549694642699],[136.20745111467727,34.46054805434926],[136.20932306071074,34.46705638684284],[136.21473306108192,34.47271694643001],[136.2141583403352,34.47502610776871],[136.21555972779925,34.48115305397033],[136.21920138763403,34.48522582900887],[136.2285197283029,34.48906527943916],[136.2290361091292,34.494722224651014],[136.21825639441715,34.497020559051634],[136.2146672244129,34.50131194578972],[136.2157863938271,34.50780610766577],[136.2194791702276,34.51053333324677],[136.21977583678552,34.5158855593711],[136.21597916980295,34.52328527919235],[136.2166291701002,34.527975278736164],[136.20994138778485,34.52902916186639],[136.19361306109397,34.52347861274785],[136.18978472088827,34.5239572247462],[136.18326000004902,34.51902249539188],[136.18211666675086,34.51675110827705],[136.17182472093418,34.51815055860146],[136.167714448663,34.520912495315486],[136.16715389133913,34.52465416156036],[136.1698219460261,34.52724805365483],[136.1717738912521,34.53481916177492],[136.16971944219858,34.53887722480414],[136.16573306143175,34.541354721243465],[136.15977389095235,34.5467116670099],[136.16141861157973,34.54907055905909],[136.15758861212487,34.552694162305784],[136.15549861197144,34.55973055871834],[136.15120472062142,34.55915666714651],[136.151404449256,34.55566610780471],[136.14661027224633,34.55578722490054],[136.13960277644708,34.559258892184175],[136.13394639421074,34.55522610819838],[136.11862972837935,34.54648638683733],[136.11363167326317,34.54644610800153],[136.11128999963387,34.55128555868163],[136.1105874969155,34.55645110803226],[136.10122999976477,34.55659138698297],[136.09903167267362,34.55586361331518],[136.09492333304547,34.55785777541604],[136.09102027176823,34.55728666724593],[136.08335693907156,34.55932666689222],[136.0823313881831,34.562169440966954],[136.07560639372014,34.564596667102535],[136.0713552786233,34.567727225131364],[136.0657766670596,34.56699889208528],[136.0603113880602,34.569417775210184],[136.06080167325865,34.5749647207453],[136.05485805385615,34.578456945631615],[136.04976722377842,34.58027055893922],[136.0465227756057,34.585216667415295],[136.0506522178257,34.5869136125732],[136.0521413881146,34.593058332975716],[136.0491441626731,34.594888054040496],[136.0465683397572,34.60055749533217],[136.05025055811677,34.60410055889372],[136.050321672907,34.60601916175494],[136.0558302722493,34.61015694608625],[136.06144389082294,34.61691110826109],[136.06246693889818,34.619957774831505],[136.0688583397407,34.62230361322122],[136.06942416259506,34.62856389201005],[136.0720836062735,34.630015000292076],[136.0735769386249,34.63409416231576],[136.07140000010997,34.637198053647296],[136.07122333279062,34.64053916185287],[136.06794167336955,34.6438752788211],[136.06484639394603,34.65156444094623],[136.06097306065828,34.650789441179825],[136.05821555130672,34.65281110814618],[136.05047444883678,34.65229638656905],[136.04096472074536,34.65918555856672],[136.04398972804358,34.66022666682727],[136.05653555117476,34.65550638711011],[136.06451472127742,34.65196499988491],[136.07058167280604,34.65775222538497],[136.0777808303211,34.65876055875282],[136.07783639403442,34.66256638712912],[136.0819727763227,34.66517249471491],[136.0822233328406,34.66993194620238],[136.08646472087025,34.67534749539067],[136.0821072240692,34.67900861295715],[136.08234583669105,34.6821650004145],[136.07965389061462,34.68400694596386],[136.07886416265103,34.6899074950349],[136.07739527926879,34.69096805383265],[136.07508306113448,34.69770110801977],[136.06821472103263,34.697841666659656],[136.05994250324397,34.69975389242825],[136.05418555072265,34.70616472132485],[136.06006583716874,34.70705555916675],[136.06634583719074,34.709790000008525],[136.07106583721873,34.71467666689472],[136.0695980537073,34.7169244414099],[136.06803111544366,34.723887224715725],[136.06310111472476,34.72643972101639],[136.06253749700795,34.73066722531223],[136.0554763944201,34.738555559391614],[136.05107861158876,34.7387158293721],[136.04489472121452,34.73725055856647],[136.04186693860845,34.7342755589699],[136.0416299996249,34.72825194577075],[136.03944527927626,34.72011972094839],[136.03380916955757,34.71769861290073],[136.0293152788771,34.71374416166378],[136.02681306097406,34.70610472125594],[136.0194061088049,34.70856638692925],[136.01386610873396,34.707798892005314],[136.01268250289525,34.71402889241949],[136.00932250263145,34.716614161814164],[136.0052358366646,34.717328333236026],[135.99974527862173,34.712980828802245],[135.99236472065536,34.713768892120754],[135.9861616729229,34.715306945958844],[135.9850402722908,34.71917833311363],[135.98609333344064,34.72632444141988],[135.9827008298795,34.732185828613126],[135.98095360632396,34.73713582935511],[135.97809138800721,34.737065559028395],[135.97277805396413,34.7420752792508],[135.96975416272448,34.740524161860606],[135.96598861228472,34.74318694562112],[135.96226666727296,34.74007527875119],[135.95826333338618,34.74088416227431],[135.95784972798265,34.744621667356114],[135.954924449204,34.748285278742685],[135.94976360600572,34.744308053973555],[135.94111333301396,34.73904582930163],[135.93608722444594,34.74006610836426],[135.93247194622336,34.73764666676033],[135.92392306100055,34.74144638694128],[135.92318167339556,34.7445949997595],[135.92891972756343,34.7527297210998],[135.92896250291722,34.75684110763109],[135.92441722407568,34.75767249488979],[135.92038666681128,34.75300527877067],[135.91615610931706,34.75368638661752],[135.91174916958857,34.74385222539996],[135.90851306082914,34.74137222524803],[135.90302083004735,34.732915829002366],[135.89738639396694,34.73087194608348],[135.89752138760207,34.72694694584493],[135.8953863943667,34.72488833293028],[135.8901711152049,34.70943889209127],[135.88515888497466,34.71362027915262],[135.87613749684806,34.713877495150314],[135.8727122183942,34.71148555931114],[135.86794416309272,34.71046749527875],[135.86330944217707,34.706240829151],[135.85970833996794,34.707113333413645],[135.8554391700817,34.70602194585615],[135.84901555102692,34.70597222503818],[135.84941472141236,34.708208332648496],[135.84174360598274,34.70929194556686],[135.8390005577296,34.711799161901865],[135.83181555104693,34.713415278692196],[135.8266447208772,34.713660000408765],[135.8197858371467,34.71169444124553],[135.81330999985664,34.71506610841425],[135.81236555072962,34.717270558989185],[135.80584138836946,34.71799694590237],[135.80368055761176,34.721857224631265],[135.79530610938946,34.72334249456054],[135.79195944157505,34.724733332976996],[135.7845761092001,34.72451500006724],[135.78170360623653,34.72309055938189],[135.77340444925596,34.72469749499345],[135.76133527939965,34.725980278966745],[135.75480389098686,34.728264720640425],[135.75534749698943,34.734085559201276],[135.75705778179122,34.73591916173996],[135.74758389078397,34.74323582917026],[135.7463555508681,34.746833054401975],[135.73922861161122,34.74827055863943],[135.73639500612467,34.74996666742783],[135.73663610896926,34.75530277500309],[135.73335333259024,34.7547836125737],[135.73012444898416,34.76776889212073],[135.72979167284745,34.77478916189034],[135.72863472111555,34.77799805356739],[135.72775277577,34.77657861311258],[135.72023333280208,34.774621946445734],[135.71562749721124,34.77993638665498],[135.711968885156,34.78133194561286],[135.70661500607775,34.77233749487954],[135.70857472144633,34.768758891909386],[135.70894360626244,34.75907833309867],[135.71019472060993,34.75590527940517],[135.70680221794805,34.74864555884551],[135.7022550055641,34.75071749521629],[135.69782778162687,34.749474161803164],[135.69903416279647,34.746289441204794],[135.69679333284614,34.74369499962461],[135.6975699999556,34.73965916244043],[135.70003805441274,34.73574194583421],[135.69968749688053,34.73256305374201],[135.70273639376967,34.72510361264165],[135.70169167293238,34.721680828907154],[135.68941027206643,34.71373889163658],[135.68752333343514,34.71135444085479],[135.68307888478273,34.71129222485632],[135.67968666720594,34.70880000021987],[135.67700916963759,34.704837494654726],[135.67340360589174,34.70225472087873],[135.67406360575092,34.698394441250514],[135.67309805403204,34.6901461076568],[135.67599250315152,34.68754638705616],[135.67837805380418,34.683169440617235],[135.6787047208462,34.67775944114533],[135.6738677819726,34.66974416236326],[135.6710536063389,34.666919720968394],[135.67115472071384,34.66106222514162],[135.66951666676084,34.65728055885074],[135.6642636061805,34.64997694597935],[135.6653099997568,34.643842225138656],[135.66264749658478,34.6402605590776],[135.6631961091132,34.62952082912301],[135.65888834032467,34.6231297205602],[135.65949444920955,34.62094361255771],[135.65679583735812,34.61173666731338],[135.6509872241811,34.60995333327975],[135.65228610871702,34.60394666690519],[135.66116861184207,34.601912494865815],[135.66953888541127,34.60295889203928],[135.6749074971833,34.601715278937036],[135.67645138762146,34.59620666700414],[135.6791072241192,34.59099916158209],[135.6777363938196,34.58816305418168],[135.6817588850646,34.58477833335343],[135.6808725033634,34.58259527944864],[135.67573999960132,34.57972610757383],[135.6715447207124,34.57991110801129],[135.67060027158539,34.57620110779493],[135.6733541629643,34.571631387178854],[135.6645166673104,34.567617495251284],[135.65692277576557,34.56227972123219],[135.65778027214196,34.56131916165003],[135.65577306087812,34.54919916211168],[135.65033527865023,34.54424916226907],[135.65365082992196,34.54140389167634],[135.65915805420093,34.54383722510789],[135.6597022177832,34.53857610840072],[135.66187194643328,34.534991667031875],[135.66283472104556,34.52962944134572],[135.66794888493314,34.53104861290319],[135.67255527900295,34.52947416170326],[135.67692749680657,34.525531387263754],[135.6758030609626,34.52231666708059],[135.67735306139468,34.51818916200028],[135.67683416336604,34.506659161790935],[135.67301250332446,34.50290138688956],[135.67830138839838,34.49949972103536],[135.68003472102566,34.49529861274084],[135.67897639434523,34.49305582856368],[135.68108221806995,34.488482224674954],[135.68480555073563,34.48359805430681],[135.68121194617447,34.48023499994537],[135.68335082987699,34.47612166728118],[135.68191834025924,34.46104138735018],[135.68240805438825,34.45604527926628],[135.68697805379418,34.451460828654376],[135.68673610918415,34.448757495362145],[135.6817327759469,34.44334527906142],[135.6815241629099,34.43790749503489],[135.67861194588465,34.432356667126555],[135.67400583689994,34.42875500014321],[135.672227224307,34.42587389156688],[135.66915221830027,34.42685777506631],[135.66532944220012,34.424240559054624],[135.6670519460905,34.41690944131773],[135.66942194566627,34.41367527869119],[135.67555639401246,34.4137366673134],[135.68017888504755,34.40890361261171],[135.6760438913126,34.40557999981718],[135.6755527760398,34.39945805384616],[135.6659125032595,34.39706110788387],[135.65988500588833,34.39167916186386],[135.65471472070783,34.38383472099565],[135.6511286119959,34.3832063871651],[135.6514005579894,34.37951082916146],[135.65425805396603,34.373057494707666],[135.65583833996743,34.36622499978398],[135.66352527896856,34.35544389202204],[135.66215805405102,34.35087889194733],[135.6623186118145,34.343440279145625],[135.6603852789575,34.34061861305861],[135.66149888516543,34.33799638692375],[135.65900111530925,34.33399972061068],[135.66032666744184,34.32693082899459],[135.6681252788586,34.32574805412946],[135.66757527867628,34.31923833308264],[135.66908583664213,34.31537222494825],[135.66638805396553,34.30868722513537],[135.6678658370388,34.30501249543039],[135.66924944220807,34.29694555869065],[135.67216250279728,34.2956852793522],[135.67516472127488,34.28809861296065],[135.67275999977426,34.28148194633479],[135.6768322181324,34.27766166675258],[135.67712527930826,34.27462610770874],[135.6827716727745,34.27018305390487],[135.6893916731873,34.27172249539689],[135.69246944191127,34.27827194579373],[135.70085167286652,34.27540249512907],[135.70384583701582,34.27156499982493],[135.70842221801104,34.271896667097565],[135.70825221826533,34.268581387421136],[135.71844666678032,34.263319721228186],[135.71953444895576,34.25933749532919],[135.72014888466333,34.24989972109529],[135.72379167314728,34.242371945908644],[135.72344861236365,34.24007666740431],[135.7300169386309,34.231601108404504],[135.7274827759095,34.22368999989362],[135.72747555075614,34.22072666720197],[135.7233305583586,34.219785559056334],[135.71765333343467,34.21490333302245],[135.71364138764,34.21445527908793],[135.70982000009303,34.20891555870611],[135.70779194614147,34.20823610830979],[135.7017536056444,34.21227444111264],[135.69780722402425,34.211826387178064],[135.69387500582695,34.21706666659344],[135.68790693925393,34.21729416179619],[135.68547082961516,34.22040027894974],[135.67769360587522,34.22343610779018],[135.66781722418557,34.22419361304486],[135.66196583655415,34.21831082918146],[135.65528944235393,34.21627610765631],[135.64807805405906,34.218986387311986],[135.6458611145988,34.21619694573252],[135.6409097280016,34.213027775311616],[135.64116666700818,34.209498054091966],[135.63448250266538,34.20459499975948],[135.63412333322526,34.19907694584441],[135.64132444856455,34.1914922246865],[135.64510639364516,34.19067444057305],[135.64196250316706,34.183191108083236],[135.6376180537303,34.17926861335587],[135.62856888464637,34.17688777515076],[135.62791333283405,34.17477444118754],[135.620572775813,34.16608749474216],[135.62295167328114,34.162726945891905],[135.62191833965971,34.15842166732614],[135.61679778159237,34.15588166710529],[135.60769834040616,34.155299440616716],[135.60018861191497,34.15259694639201],[135.59360333342715,34.14870889210175],[135.5908561087225,34.14900110791484],[135.58518888515903,34.14066444111114],[135.58462416307475,34.13223694637804],[135.58208167263115,34.128252775245414],[135.57878834000996,34.116370828950664],[135.57082277575057,34.113502225447405],[135.5658377823878,34.112835000434984],[135.56190389055212,34.10982972066512],[135.55730083026913,34.108052494826836],[135.55840749730817,34.103389440770115],[135.54971972798307,34.10058777470607],[135.54872805365676,34.09681055916002],[135.54987639438014,34.0906836129584],[135.5497930614007,34.08498472066839],[135.54313277585698,34.08180249478937],[135.53969805362237,34.075379721097306],[135.54645221759586,34.069013333098894],[135.55131666673083,34.06842055936136],[135.55210749726325,34.06565666662192],[135.5577541632241,34.063807495019944],[135.56353138826307,34.06327722506393],[135.5670622183468,34.057346108036484],[135.5751613876879,34.05884333265374],[135.58048972781876,34.057910278836346],[135.58060610908478,34.056190278658505],[135.584928339871,34.04964194611898],[135.5879955505543,34.04677472127639],[135.59165277585498,34.04664389240179],[135.59461360573334,34.043989162070204],[135.59470333289255,34.03972249499719],[135.5996602719041,34.03201944104444],[135.59483333259232,34.02783861336138],[135.5953780537542,34.023585829122794],[135.59148778173585,34.0193702786155],[135.59361250291477,34.01328027926155],[135.59573389120612,34.0115911078434],[135.60493333340662,34.01244249512513],[135.6083816731757,34.013618891998306],[135.61181111459132,34.010280279411404],[135.6182055506457,34.00923110782941],[135.62175778189624,34.009778332703945],[135.62523111472422,34.007360278753936],[135.62355027192757,34.002142494980205],[135.62902666744685,33.997749440784105],[135.63088000021196,33.99101249523051],[135.63672972769484,33.98986916193235],[135.6392427761333,33.98273277529739],[135.63759000027835,33.976516666710836],[135.6399144491926,33.97294722513436],[135.64032027186317,33.967419721143244],[135.63862972807954,33.9613227754258],[135.63567306116295,33.95907805410894],[135.6369480543093,33.95054638730596],[135.63102277568066,33.94909472144428],[135.6253830605798,33.95021194562486],[135.62219333255632,33.95314694607475],[135.61809639363378,33.95460527861076],[135.61538722374144,33.94844582911179],[135.6186113877054,33.9442124954104],[135.61684444921207,33.93688472135284],[135.61141444881787,33.93695444129446],[135.60945944229945,33.93207582873657],[135.61279693882773,33.929845558625686],[135.6140544491535,33.9251411078759],[135.61077444898172,33.918707224858565],[135.61023416327612,33.91286833330696],[135.5999938907056,33.908260279088665],[135.60188167290096,33.90520889197683],[135.60111333261432,33.90256582944954],[135.60620306102248,33.899118891723504],[135.61947999970232,33.89942944111584],[135.62287221817837,33.89795861339934],[135.62342666730694,33.89153027919906],[135.62677527855635,33.88474027904067],[135.6242274974012,33.88284055924447],[135.62275250312564,33.87857166724871],[135.6180858373915,33.87460527931023],[135.61796372204822,33.872063892334836],[135.6258025025835,33.87346500010972],[135.6290466665705,33.87309916219664],[135.63554749691946,33.87695055922097],[135.64023360599617,33.877604162202374],[135.64255917006972,33.87630972121673],[135.64798805440523,33.87689777531216],[135.65139250276184,33.88065416166029],[135.65591138829996,33.88157082893065],[135.65719778215202,33.88561082907654],[135.6622044491761,33.88908305393983],[135.6626430611284,33.89351777462565],[135.66060444913603,33.89756555930319],[135.66334972770778,33.89937444127747],[135.67095693911153,33.90040749520978],[135.6733447209822,33.89888861311903],[135.67871055834564,33.898169161777446],[135.68234666666535,33.899567774832974],[135.68537778215898,33.90371972078856],[135.6911194417089,33.90335361307882],[135.70458693863634,33.90364138714034],[135.70965583694738,33.90429555939261],[135.71423722356906,33.902595278649244],[135.72410999987665,33.90328777461116],[135.73022693932182,33.90018582941252],[135.73253360594117,33.89620638691525],[135.7349469393498,33.89599722529175],[135.7408774969989,33.89258082944178],[135.7407705577151,33.89125555879707],[135.7485072238294,33.887787774786034],[135.75180861167814,33.889557494882524],[135.75593805389815,33.88518694622064],[135.76109277631065,33.887744162163415],[135.76387722395475,33.88736666723793],[135.76605833982057,33.89079222538095],[135.773161387688,33.89030389171131],[135.77765333313494,33.88818444055954],[135.78372111473777,33.89152444080037],[135.79257444925145,33.89461638733644],[135.80182360597473,33.89582305359113],[135.80336167330267,33.9029811075921],[135.8086027755977,33.906468054357276],[135.81631944168896,33.90561389176776],[135.836856666602,33.89540027869998],[135.83918250317004,33.896691386798125],[135.846326108663,33.896737225242816],[135.85216306127631,33.89260722544316],[135.8523994417809,33.88990972065716],[135.85528944195426,33.8878166673054],[135.85214583656114,33.88202166716627],[135.8530899997038,33.87732500004876],[135.85792111456783,33.8731527752804],[135.8621222183657,33.8765488923176],[135.86218583730658,33.86272138688253],[135.867074163442,33.859896666697864],[135.87313778208306,33.85916582903985],[135.87483221813238,33.861596387163615]]]}},{"type":"Feature","id":"JP-29-capital","properties":{"Kind":"capital","PrefectureCode":"29","PrefectureName":"Nara","CapitalName":"Nara","CapitalNameJapanese":"奈良市","PointKind":"prefecture-representative-point"},"geometry":{"type":"Point","coordinates":[135.832855,34.685272]}}]}
