{"type":"FeatureCollection","bbox":[133.26692749730626,34.29832805409649,134.41316111539322,35.35290027902471],"displayBbox":[133.26692749730626,34.43140944089305,134.41316111539322,35.35290027902471],"DataVersion":"2019-boundaries-v1","Attribution":{"BoundarySource":"MLIT National Land Numerical Information, via Fabio Crisci / piuccio","BoundarySourceURL":"https://github.com/piuccio/open-data-jp-prefectures-geojson/tree/513fb852832c99470e16b95a30ddd68bf3469dc0","BoundaryDate":"2019-01-01","CapitalSource":"Geospatial Information Authority of Japan (GSI), prefecture representative points","CapitalSourceURL":"https://maps.gsi.go.jp/","CapitalSourceRetrieved":"2026-10-04","Notice":"Simplified and enriched by Ashiato Kai. Modern geographic context, not historical immigration-era boundaries. See GEOLOCATION.md and THIRD_PARTY_NOTICES.md."},"features":[{"type":"Feature","id":"JP-33","bbox":[133.26692749730626,34.29832805409649,134.41316111539322,35.35290027902471],"properties":{"Kind":"prefecture","PrefectureCode":"33","PrefectureName":"Okayama","PrefectureNameJapanese":"岡山県"},"geometry":{"type":"MultiPolygon","coordinates":[[[[133.98683108908358,34.60473880235389],[133.98669063566433,34.60484036009461],[133.98662613538795,34.60477941393884],[133.98676655013628,34.60467786519138],[133.98683108908358,34.60473880235389]]],[[[133.98740678289676,34.608098360151246],[133.98404722420014,34.607615945819305],[133.98577085584043,34.60465519777921],[133.98740678289676,34.608098360151246]]],[[[133.99528594029402,34.61052066699523],[133.99507939030173,34.610797305651204],[133.99469697788334,34.6107217751898],[133.9948205843026,34.61038153198217],[133.99528594029402,34.61052066699523]]],[[[134.4028144494274,35.24102444112509],[134.40169333298104,35.24582444124502],[134.3936647208502,35.251748612808285],[134.38972693944675,35.25212194567132],[134.3787063943846,35.24656750518625],[134.37316333302147,35.24588055894071],[134.3746719457538,35.23724417058207],[134.36889999973528,35.23171944099943],[134.36037693944422,35.229200278969756],[134.35466027205393,35.226547224974524],[134.35039861240614,35.222818332699944],[134.3438558367775,35.22080666709405],[134.33980916995733,35.221258613294424],[134.3365536061641,35.21948333268972],[134.33468221771022,35.21289250538484],[134.330131388253,35.209841945649316],[134.32269749689203,35.20275417096826],[134.3165949942636,35.202246107971575],[134.31379444875483,35.200594440980694],[134.3064263940629,35.20175444141438],[134.29899610898326,35.20186027902872],[134.29416583678403,35.199422225055685],[134.29170444900114,35.200118332694956],[134.27846083020324,35.19687083761909],[134.27433944231143,35.200604721131015],[134.27122306119543,35.20071417132198],[134.26853972792617,35.20392694627162],[134.26797333310287,35.20841889171851],[134.26090194586823,35.21045666734136],[134.2540991699408,35.20829250459548],[134.24975888526444,35.2006805591605],[134.24423693908352,35.19845499969853],[134.23468221791006,35.19926166729215],[134.23255610907722,35.197367505306204],[134.22762888456543,35.19711499995731],[134.22161778183522,35.19042194581618],[134.21690444938088,35.18951666666089],[134.21264360631744,35.190723332915525],[134.20317389086244,35.18879361263515],[134.19840917024703,35.190533333146846],[134.1928505578071,35.18856166668763],[134.19367916975796,35.184345278911564],[134.1901991702556,35.178656666771815],[134.18993666714357,35.17586527905945],[134.18084555098142,35.17165361272407],[134.17759832660158,35.16917138675012],[134.17244778243924,35.16974333308838],[134.16732306141023,35.17225166728065],[134.1688936059552,35.18016694594786],[134.16495138819607,35.1879805589557],[134.16086082996344,35.19182166683652],[134.15397666718945,35.19464083820418],[134.15311333331374,35.20015527864325],[134.15434360587278,35.20555305363058],[134.15661639413133,35.2097633332113],[134.15900888485226,35.21112027887784],[134.16216389095086,35.216453333254776],[134.16318333274467,35.22089722522679],[134.1623013882985,35.22546499971003],[134.16418416306874,35.22797555882505],[134.16144722391027,35.232528053826684],[134.15824639375614,35.23456305414169],[134.15039832682135,35.233266107644795],[134.14446194606205,35.231301107859906],[134.13872610872295,35.23643638692977],[134.13747527856128,35.239245558735604],[134.14541972763834,35.24283694556863],[134.1427627759814,35.24942638701822],[134.15057888460785,35.25795638737742],[134.15002639420277,35.25992777504683],[134.14224888537785,35.263938891666555],[134.1376013877939,35.26956417084983],[134.13813778213296,35.272590000128446],[134.14129749708184,35.27493972089144],[134.1397972237629,35.27882250515455],[134.13568416269402,35.28233527865024],[134.13153221763775,35.28033333291705],[134.12230277585252,35.281073892246354],[134.11381888463393,35.2859525048043],[134.11410693928383,35.28846417098475],[134.10279277636562,35.29639361307483],[134.09791444889277,35.303298613140555],[134.09775944174487,35.30569750523574],[134.09142027172823,35.305246387311],[134.08629749683212,35.3073255587276],[134.0852388850666,35.30389805355236],[134.08167999973227,35.30225694640103],[134.07583805408296,35.302748333268994],[134.07066055813834,35.29925917057432],[134.0702163937716,35.297273613186746],[134.0621986121763,35.30304277490421],[134.05465610879241,35.29818917069372],[134.04813000029935,35.298479720962405],[134.04413610929407,35.30275555932167],[134.03772693874726,35.30454417057706],[134.0338794420826,35.303953891558876],[134.02966221793702,35.307345000271596],[134.02532888502014,35.30749250527492],[134.02169499442846,35.30556889229058],[134.0121838912736,35.30681222480439],[134.00783555136968,35.308397775437015],[133.99946832740147,35.31465055927595],[134.00127111467032,35.320243613052355],[134.00416055816333,35.325283332859556],[134.01198805400554,35.329886946225656],[134.0153647214048,35.33386417099473],[134.0108216602914,35.340396107994025],[134.01542055761274,35.345294440885766],[134.01572055795748,35.34869527936371],[134.00965499408278,35.34952361342408],[134.00791917033348,35.35145555862721],[134.002757223667,35.3512930538314],[133.99766778214246,35.35290027902471],[133.99233610912415,35.34814666683525],[133.98966639428875,35.34856666731787],[133.98190111534427,35.34524777506482],[133.97978000044668,35.34340972088194],[133.97596499358963,35.34584277462443],[133.96963277623172,35.34783444110661],[133.96476583687388,35.34668638726703],[133.96199000023842,35.34389417127903],[133.9593188851585,35.34410417107068],[133.95407111528982,35.34069750498594],[133.9538888847643,35.338291108048224],[133.94532138807165,35.33261555856126],[133.93712610908278,35.3355661082893],[133.93153527932975,35.333206108275306],[133.92978693881628,35.33003638657004],[133.92782333298055,35.32209666702761],[133.9320194419438,35.31792110757311],[133.93126583704884,35.31471417102222],[133.92522165995172,35.306898891570654],[133.92080083019425,35.30638889233359],[133.9175622177222,35.30758055879579],[133.9068374965533,35.30664138689053],[133.90203306097703,35.30381889162862],[133.8980408301203,35.30426555880854],[133.8966172240057,35.30148722475565],[133.88818360578887,35.29709610769925],[133.8877661090188,35.29513027873941],[133.88137778205908,35.293945278951526],[133.87726333333626,35.295225278623775],[133.8728052788406,35.29304222471893],[133.8657105577961,35.29334222506367],[133.86200861190798,35.29236110787889],[133.86082277575053,35.28809110791832],[133.865128611896,35.28586361311528],[133.86533221840716,35.28027110792533],[133.8634630611714,35.27709527892404],[133.8659433329185,35.27225889223416],[133.8581749935812,35.268251107602566],[133.85555666690675,35.268116945840404],[133.85223944199674,35.26237361265214],[133.84372944166046,35.25348500043248],[133.84457333309297,35.24949444141538],[133.8389216597069,35.251198054146926],[133.83207555084607,35.24883250531593],[133.82638610863205,35.24954222509365],[133.81814610905576,35.25263417073046],[133.81815360580435,35.25923610825981],[133.81522194633578,35.2648883329303],[133.8076063937201,35.27028555933117],[133.80927916959808,35.27691694606028],[133.80137944200771,35.284830559183035],[133.79974277570864,35.2884547209087],[133.7998738905677,35.292693332731176],[133.7978755511159,35.294010558940215],[133.79348000040181,35.292851386782104],[133.78690666670934,35.29521750488402],[133.7837330608321,35.294765278994475],[133.78237333266327,35.29787305359861],[133.77570499369062,35.29955777517125],[133.7692072237345,35.304981946159955],[133.76701027170668,35.3086344410267],[133.76212000033786,35.31111638731147],[133.75696027229878,35.30819777520719],[133.7506925030566,35.31139638673392],[133.7486849941173,35.31706222534149],[133.7450125028248,35.319602224663015],[133.74230861195292,35.31652333268573],[133.73745527933772,35.31894610807649],[133.73519306081118,35.31691555940557],[133.72713444909562,35.317010278701446],[133.72472666720205,35.319649171072456],[133.7172058365802,35.319920278897825],[133.7132780538392,35.32348638668742],[133.70902277578057,35.3250597209294],[133.7049572240967,35.32429722533675],[133.6960616601176,35.326923892323805],[133.6915305581888,35.323888333280024],[133.69175610905722,35.32084417132148],[133.6835661090887,35.31875083828061],[133.67736194619692,35.3192933327212],[133.67396499368954,35.323372504637405],[133.6657388850416,35.324010278651485],[133.64917722384985,35.3363375053716],[133.64069250255704,35.33666110842347],[133.63890138758904,35.33894777501985],[133.631613332989,35.33950222504768],[133.6221913877224,35.336709440688196],[133.6180019463328,35.33960110820465],[133.61212888504008,35.34010138666969],[133.60976888502614,35.34172027876792],[133.60581138778537,35.34106250473087],[133.60363165957347,35.34312417084385],[133.596799441641,35.345020558651925],[133.59452832702073,35.34078583819593],[133.58934111480062,35.337858613284425],[133.58912277559568,35.33390417104073],[133.59244610870098,35.33081444133347],[133.5879330606623,35.3248908381417],[133.58117221832333,35.31922889179998],[133.58130610938952,35.31692750510035],[133.57678639377707,35.31441361309783],[133.57576444917004,35.300815000412],[133.5775527762397,35.29726110811367],[133.57394333281866,35.29220944081311],[133.5734111149311,35.28853166690294],[133.5705438909879,35.28708610833729],[133.57231778213998,35.281657504590214],[133.56884944234798,35.27749472090471],[133.5719155513617,35.27256944072718],[133.56780722432404,35.268488053780686],[133.56676972774085,35.265809720742084],[133.56818111476673,35.2570555589669],[133.5622227761603,35.25411638656203],[133.56180555098547,35.248877775389076],[133.55798221820487,35.245974720656875],[133.55491000009647,35.24180999983167],[133.54594693929982,35.243681387386175],[133.54149499389894,35.24217889184246],[133.53483082957916,35.23671694573051],[133.52835527917284,35.23666166710228],[133.52566888461138,35.23944889185293],[133.51722722375746,35.24073722464328],[133.5144925032265,35.235488613009124],[133.50817444929146,35.23324722457983],[133.5055411147307,35.22817250495717],[133.5074858366021,35.224712775274384],[133.5113119455899,35.221515558596195],[133.51541027216638,35.22053417071544],[133.5215136057684,35.210573054003305],[133.52068250269542,35.20601610825685],[133.52346221810694,35.19959361335464],[133.52303221806244,35.19645083803579],[133.52682082981755,35.19366944089205],[133.5261433327487,35.19069472098465],[133.52907555069612,35.18693694608322],[133.5262511146973,35.18304583769532],[133.51918194609004,35.18291055897515],[133.518780271992,35.18646277493718],[133.51634055787054,35.19051722538967],[133.51047027188565,35.19011389204252],[133.50805138786131,35.19309166694694],[133.50314082958573,35.191701108219604],[133.50041221814945,35.1923669455781],[133.49846000042874,35.18822889234957],[133.49438306062984,35.18658389203307],[133.49172472131886,35.1877697209959],[133.48543805372321,35.186400558938715],[133.4825622178721,35.18241250543281],[133.47484527928623,35.18201861316851],[133.47316083020826,35.17859389229437],[133.4669716599143,35.175156667246426],[133.46352082992246,35.17778138720132],[133.4598261091877,35.177787224700694],[133.45651527935672,35.17310861327195],[133.44755639411233,35.171296107929095],[133.44596389082096,35.172881666655655],[133.43805221843525,35.1730747214213],[133.42812416260006,35.17740917129629],[133.42217972841183,35.176113332764146],[133.42084944224803,35.18098361310331],[133.41557333294304,35.184724171383436],[133.41006888487118,35.184181667050325],[133.40743917008172,35.185882224784905],[133.40277583723514,35.18217777518424],[133.39610138826856,35.18059610782416],[133.39438527855782,35.17607250534189],[133.39694666735488,35.172461107694005],[133.39336194629686,35.16914472095215],[133.39402693919192,35.166570837873905],[133.3985152792568,35.163580558795786],[133.40072165977688,35.15843277465285],[133.40035944163503,35.15327138736467],[133.4045141628984,35.1486680536878],[133.40513805407795,35.14292777459718],[133.4112241629648,35.13875250472438],[133.41261778208502,35.13349305356161],[133.41182583729267,35.12114610830628],[133.4057636063054,35.11802389238875],[133.4033627761712,35.114320837636626],[133.39998832739946,35.11505805418591],[133.3947966671326,35.113569170780636],[133.3869938909554,35.113115279346744],[133.38275999967436,35.115011945944616],[133.3787877823304,35.11466610805451],[133.36668083015627,35.110154721063566],[133.35839639417827,35.10212610803353],[133.35487389091736,35.100771107600565],[133.347271388364,35.105595000009316],[133.3382225025665,35.10656277485225],[133.33235944173487,35.101271946343275],[133.32814027235577,35.09499805361736],[133.32551693915548,35.093469171065465],[133.3194277815669,35.09385610797307],[133.31632360604965,35.09656250525546],[133.30834138814464,35.09944694581992],[133.3028288848452,35.09958083778548],[133.29903221786265,35.10380444082233],[133.29093972778628,35.10035889164959],[133.28826250271243,35.095914171401944],[133.2883588848547,35.09206222489183],[133.29021944187377,35.09041083759013],[133.29066027155432,35.08442389244874],[133.28894472122192,35.080275279380714],[133.28885861203537,35.07444583790516],[133.2908238906101,35.07094389224687],[133.28876805390257,35.06861110841595],[133.28342055821224,35.065950278882326],[133.2769119460296,35.0661091711014],[133.2726305579539,35.05975055864144],[133.26913917033653,35.057678332688965],[133.26692749730626,35.052430559222955],[133.26896916969145,35.04997722486911],[133.27341861227922,35.04781333281909],[133.2744666669032,35.044976666939704],[133.28523610865955,35.04065861260494],[133.29100165959892,35.0359611082186],[133.29336944234592,35.03145722517087],[133.2958425033289,35.02949333335073],[133.2968780537792,35.02472889242449],[133.30299805361733,35.02065055867638],[133.30499832661155,35.01519333310591],[133.31570389132162,35.012431387398635],[133.31962166011158,35.008626387297966],[133.3212111147012,35.00362861277034],[133.319222503216,34.9983127750146],[133.32172583717772,34.98792555861769],[133.3194999998252,34.98318027864701],[133.31704416265802,34.98306722487257],[133.31327693857986,34.98007000033033],[133.31083805363335,34.974644161998526],[133.3030791697679,34.972044441397884],[133.30489250338644,34.96496194573723],[133.30141194630437,34.96333110794433],[133.30189306111595,34.96051027912614],[133.297261659598,34.9560038923658],[133.29811472141728,34.95298444107914],[133.3016538909144,34.95036805424235],[133.30279749670717,34.947327494967965],[133.308025836723,34.94108777468114],[133.3094455505718,34.937045000126716],[133.30572555079357,34.93215055860145],[133.30187333268816,34.92891361257324],[133.30463166042284,34.9217169461802],[133.30483944158698,34.91771694608025],[133.3029694416864,34.913084441094156],[133.2975527764395,34.90947444099271],[133.29846722418313,34.90677805406398],[133.29579389137507,34.904008332818364],[133.29694360626252,34.89934722489454],[133.29669416310526,34.894611386906035],[133.2980105583407,34.889339440562765],[133.30109944178582,34.88445000016742],[133.30569917008074,34.88206194580221],[133.30716778186775,34.876607775228706],[133.30940583740949,34.87404277475429],[133.3143236064493,34.87282082901811],[133.31455306127486,34.86931944093948],[133.316811115041,34.86717805442373],[133.32216583678405,34.86607027941989],[133.32402861243054,34.86435582895837],[133.32311472136735,34.85927249472991],[133.33116306102647,34.8557708287608],[133.33065749724574,34.849539440692695],[133.33446055840807,34.84742527935322],[133.33542333302046,34.84451777477551],[133.33259055760823,34.84074222477392],[133.3360911147132,34.83474527917133],[133.33903583683446,34.83407527885112],[133.3422297278197,34.830276666634916],[133.34828138817556,34.82974222472393],[133.3529863938071,34.830642775243916],[133.3564702720854,34.82648055903064],[133.35887972761736,34.81964416194859],[133.36331805368525,34.820136666673875],[133.36789722437743,34.81900610824533],[133.36855639416228,34.814882775120054],[133.37450749682364,34.81391166738962],[133.37808583719175,34.80835972072458],[133.37838972800364,34.80247222531301],[133.37664082991046,34.8009083330532],[133.37759221820636,34.79708277534985],[133.37510250267837,34.793334161842154],[133.36979666718253,34.78977389155193],[133.37047916987785,34.78539582905432],[133.37684722432004,34.781752775270434],[133.37238360571894,34.780018612568995],[133.3698388849566,34.77480861332691],[133.3673749943606,34.774331108393994],[133.36688165956105,34.76851638702169],[133.36465999955942,34.767114162288806],[133.367179728162,34.76119555932763],[133.36437527869623,34.759851107942325],[133.36184749666472,34.75560027882983],[133.36597805404404,34.754550000182405],[133.36723972823097,34.749813054229094],[133.37024527869676,34.74808749534168],[133.36935778183624,34.74407666740433],[133.36463861188247,34.7405205591765],[133.36086639386906,34.7345266667723],[133.36145666659195,34.727128613394825],[133.364543890788,34.724496386798876],[133.3691319458827,34.723553613108834],[133.37160583693992,34.71342972090497],[133.3697652790445,34.709779441068406],[133.37308306063483,34.70798666685124],[133.37246055800836,34.70342472087424],[133.3742119463243,34.70175444061499],[133.37417472068682,34.6953566671765],[133.38276111483367,34.69012944142065],[133.38641055830067,34.68537916211869],[133.38455527940266,34.68215527874315],[133.3854869392709,34.677538054137926],[133.40141055755123,34.67404527886657],[133.4033780538541,34.6719224948273],[133.4027869393658,34.66706555862868],[133.396427224337,34.65587389236629],[133.39648972811847,34.65207889182744],[133.39176583672406,34.649287774811],[133.39068583728158,34.643821666636654],[133.38848389131863,34.64343110815918],[133.38719027231332,34.63638194587014],[133.39191555136165,34.63113389181569],[133.38842749663172,34.627106667438795],[133.38497639414538,34.62536861337088],[133.3834261086281,34.62193166711279],[133.3847727759429,34.616757774751534],[133.39063027176974,34.61204222456905],[133.39248444899818,34.608008613207005],[133.39586083041308,34.60534582944655],[133.39811333266425,34.5978133328191],[133.39700610894488,34.5948841617747],[133.405780000047,34.58928499980294],[133.41089861198145,34.589614161564384],[133.4127202724227,34.58691527901698],[133.41652360607964,34.586088053820674],[133.42068805441022,34.58724444077836],[133.42316916972152,34.58554389203704],[133.42313250256302,34.57865972116923],[133.42755389079946,34.571693333380665],[133.4267327755972,34.56914472125192],[133.43119111517785,34.56626916239196],[133.43507722423453,34.5657727752934],[133.4403494421731,34.55934082941582],[133.44602972838936,34.55643361262116],[133.44734916962852,34.54731333324378],[133.44900749699843,34.54531805418492],[133.44966527912936,34.53860361326622],[133.453339169767,34.534970828840756],[133.45392972757497,34.530166386969256],[133.45037138812916,34.52674361312728],[133.44727221823837,34.51939861255596],[133.44916111469377,34.51320194641272],[133.44520832720264,34.50971527933672],[133.44494333296848,34.505886108157426],[133.4533747208667,34.506734999820424],[133.45638972770382,34.50010416167777],[133.45543888529642,34.49490138668972],[133.44880055759972,34.488550000282316],[133.44903639401446,34.485871667243714],[133.44587250261395,34.4830566669317],[133.44690847034974,34.48026766691936],[133.44921606956598,34.47751766690686],[133.4552233852511,34.47737391027778],[133.45498654968958,34.47113644099403],[133.45647928668984,34.47056108982247],[133.4563236446205,34.45453810814723],[133.46277993514593,34.45446620734964],[133.4801003633412,34.46368958590574],[133.48402407305264,34.46474545024239],[133.49029073882662,34.45996282862171],[133.48228575908058,34.454034513881766],[133.47601299590315,34.45215203588782],[133.47304866406466,34.447541531916215],[133.47380304777255,34.44145991874029],[133.47788477286406,34.44341558626036],[133.4890982746657,34.44096138675866],[133.49505364461004,34.44427091886786],[133.50093538256192,34.45172529678507],[133.5071672499687,34.45182599117658],[133.51440374823449,34.44918272989912],[133.52414549871582,34.45121589199988],[133.5274702455555,34.45388652324448],[133.5246289229865,34.45849635991914],[133.52802058388295,34.46829609868604],[133.5269742280782,34.471223468388416],[133.51938411188735,34.47313116157392],[133.5184932938305,34.4774125856224],[133.5147041631667,34.4801083331331],[133.51374277620823,34.48303861304163],[133.5083738910423,34.49100777458915],[133.50002922207102,34.50000000039972],[133.5015940990885,34.50446922537452],[133.5046398573436,34.50209217061723],[133.50453465644932,34.499046054431915],[133.5082388461459,34.497127730360546],[133.5147486382391,34.490050171078565],[133.51832211417434,34.48260003616281],[133.5183647078651,34.479116405198],[133.52497832668848,34.475019162304534],[133.52445915706448,34.47881422489661],[133.52949841821749,34.47705173894667],[133.52996224356275,34.47273957696996],[133.5320172762763,34.46894244144056],[133.5403844615737,34.46138355870431],[133.54639866426703,34.462158793193794],[133.55364675659257,34.464436359550405],[133.56065740631436,34.46830456760176],[133.56917168562484,34.46578650544291],[133.57663306116694,34.46576582912974],[133.57873788574489,34.4705182254358],[133.5921086120229,34.47073110755463],[133.59437805390417,34.46955638701769],[133.59979832723104,34.47526055922748],[133.59618216587432,34.475627532085014],[133.58872710806963,34.48248080224727],[133.5901865242887,34.48627174774299],[133.59415518841126,34.49106541393775],[133.6016679772954,34.495018359709604],[133.61155405997192,34.495375225086605],[133.61623036284107,34.494200748265996],[133.61940369622369,34.49194144084487],[133.6235269133365,34.49607099997672],[133.62534422825354,34.50099358578541],[133.63144233499588,34.502211829012765],[133.63814649756284,34.50137489203769],[133.64052364495035,34.50503710767646],[133.64716841808809,34.503757054044854],[133.65076180321466,34.508526134573515],[133.6480314398991,34.512122532428975],[133.65711544692044,34.51701213470233],[133.65859369584246,34.52034533337047],[133.66982130980568,34.51778322511581],[133.67687661536354,34.51840266734928],[133.67683060964498,34.51489555868312],[133.67035924828076,34.512746802223205],[133.67019499430364,34.507345892199226],[133.68407080412442,34.50707297313926],[133.6839937223325,34.512503612951434],[133.6904670037493,34.51237738680703],[133.69067481189313,34.51963863981143],[133.68430108902407,34.52357082923044],[133.68970693902406,34.52548658573738],[133.6908262784101,34.52282235137045],[133.7053341119797,34.52306349468461],[133.7040300518455,34.47782669374698],[133.71937658865875,34.473118224826294],[133.72000919606762,34.474514198371594],[133.73122457835166,34.471036386919764],[133.73332882016894,34.4745019550013],[133.73741396897958,34.47077046818259],[133.74339907860463,34.47060153233491],[133.73717666666994,34.49057527892603],[133.7190459663983,34.496405919197855],[133.72168953344533,34.500870224881],[133.72957352829576,34.49860169401302],[133.7350503114228,34.49859346791425],[133.73514277611832,34.50673330639705],[133.73707055835962,34.50863133276982],[133.7366309994211,34.517249494568546],[133.73792046715585,34.52482402730709],[133.73977027188062,34.525115108175726],[133.73904625198304,34.517642161956246],[133.7434797540874,34.51250502668569],[133.74288369602584,34.50121572102876],[133.74832856041485,34.48946646790324],[133.751145136339,34.48771653199242],[133.75957780756983,34.485846613030844],[133.75712469534847,34.481701332850264],[133.7570380285822,34.476795774805225],[133.7586745779695,34.47607955922433],[133.75962055774266,34.47020138708439],[133.7629662264103,34.470039081038806],[133.76663294405523,34.47231900002191],[133.767493748138,34.46250569408255],[133.77309944188585,34.46288772069181],[133.77535377425738,34.45905041424527],[133.77130533127604,34.45530233313622],[133.77476977970161,34.45272125188433],[133.77724968902203,34.44803397278969],[133.780578248987,34.445378360223174],[133.78164355440663,34.440174613067995],[133.78517255526924,34.43608041437966],[133.7884491443126,34.43580269383932],[133.7916769784099,34.43936469442514],[133.79665988264753,34.436722532119234],[133.8071321137561,34.435894802403254],[133.81432944205017,34.43140944089305],[133.81770542236745,34.43180463987227],[133.8183099484454,34.43613233314073],[133.8144057198482,34.43799113468316],[133.8112121661086,34.44538616184195],[133.8096357723731,34.44688058597029],[133.81045766458965,34.4506484683522],[133.80978616060293,34.455932694038665],[133.80859005238904,34.4588012246968],[133.80895658907536,34.46112649469205],[133.81476430562827,34.460098639740465],[133.81707944206266,34.466827081304814],[133.82516160792193,34.469543026689394],[133.82973747090762,34.47252794580811],[133.83647185519203,34.47457494577719],[133.83641406026072,34.47147341426671],[133.84041849491769,34.46893369373504],[133.84373338518765,34.47009358625007],[133.85555516234092,34.469436251981506],[133.85841849491771,34.46678291919642],[133.86271999992812,34.468037918615096],[133.86714399529922,34.46727619823798],[133.87468839175597,34.461019225357006],[133.88190360576687,34.45618805383566],[133.88762306105548,34.45685889232408],[133.89953999997113,34.456987495376666],[133.90685527884807,34.452068891765975],[133.9101730613378,34.45094138743514],[133.91625277604487,34.45206610836425],[133.91973250305261,34.45005055858644],[133.92765306074023,34.45092277506609],[133.92518389112377,34.45535527892304],[133.92845230892704,34.456126279404316],[133.9347458365512,34.45091249491577],[133.93666972832534,34.45370916164853],[133.9432194422235,34.45523389203055],[133.942306667219,34.45864416169877],[133.94361861170967,34.46429361285999],[133.94065444894375,34.46573889173652],[133.93431610900132,34.4732530538854],[133.93923405970418,34.47544687357441],[133.93802916961056,34.48116889193085],[133.94765271140352,34.48483248623029],[133.9502263552622,34.48780891035301],[133.95016797667085,34.49279883829581],[133.96163472126545,34.49203805411298],[133.96481055836068,34.49522000030282],[133.96202832664608,34.499834440607],[133.956477418698,34.505970828790794],[133.96021243805365,34.50936172076683],[133.96166007765055,34.51352616190292],[133.95693230927873,34.51469541366248],[133.9579584177468,34.517359333266654],[133.96233658906237,34.51915266686211],[133.95947379967618,34.52271508113614],[133.96879669271323,34.53006849486519],[133.9778445532836,34.53306602697563],[133.98736060990427,34.53067989176367],[133.990904034094,34.52524410782934],[133.99313505783675,34.51846577457587],[133.9993616992831,34.51624744116651],[134.00338505837385,34.511471720943234],[134.0051433849593,34.51291661311126],[134.0057297798055,34.51789808113159],[134.00151992200688,34.51734389190716],[133.99786491623297,34.52109789235391],[133.99797488982938,34.52479838673622],[133.99571761307743,34.5280848287519],[133.99877654999784,34.53078689220138],[133.99551089491194,34.53373722519285],[134.0011752793157,34.54552416171077],[134.0046045777391,34.54536127919971],[134.01021805421988,34.55079749480859],[134.0146577823308,34.5506727750286],[134.0162338909813,34.544775828641605],[134.01941972763836,34.54409972102536],[134.0220452785668,34.54647694575448],[134.02203444893075,34.55047666706457],[134.02859555094403,34.554839999566354],[134.03117610879042,34.562629440596254],[134.02937221805348,34.56422582895891],[134.03098169874647,34.57002372131774],[134.03307744466838,34.573154080596396],[134.04113922199758,34.576421802324376],[134.04072138798176,34.58748205425343],[134.0372062780474,34.59190541380383],[134.0348500515887,34.59045882911175],[134.03255561574917,34.59485582863363],[134.0326882225835,34.59778080164273],[134.0260595590015,34.59896072116038],[134.01447508415788,34.59772969407015],[134.00453691274834,34.59490274806342],[134.0029162516837,34.593024081396266],[133.9986894416645,34.59325110805224],[133.99642797676972,34.595011081296434],[133.98703958520878,34.59519510776806],[133.97384994821664,34.59447297284947],[133.96797411161606,34.59257072056238],[133.96044269777235,34.587584026581624],[133.95872165977687,34.58406144058307],[133.94808708215317,34.5936423059477],[133.94970221778317,34.594604387182756],[133.9460515557348,34.59899086463673],[133.95235425374585,34.60247327881882],[133.95718557725263,34.59696808071243],[133.96833807983853,34.59950905399967],[133.9727870817585,34.60321394606683],[133.97738230894652,34.60033705441157],[133.98458658899995,34.602854080551424],[133.98268992240207,34.607491612747765],[133.99167596627285,34.61253522482082],[133.99672897536198,34.61352258599862],[134.00287313908416,34.6129124679361],[134.01898250333988,34.60974216167148],[134.02557036288204,34.60688130582764],[134.02897372215966,34.606385532066724],[134.03247869043923,34.6091075766534],[134.04215124528378,34.60833333321682],[134.04743403385362,34.597617278814425],[134.0506233329005,34.60072163959205],[134.0484033069671,34.60305341438362],[134.05105147944232,34.605165802260046],[134.05364172478585,34.60378316206334],[134.05804092135145,34.60777249530446],[134.0640094160018,34.607540251681314],[134.06148983129071,34.60255569359043],[134.05792005156923,34.6034624683183],[134.0532066408739,34.59603486501703],[134.05292783395248,34.590270666658],[134.0543797543222,34.58643382875823],[134.06008766501384,34.584622225435396],[134.06897355408637,34.583812558602745],[134.0797500780037,34.586468612736326],[134.08448936399304,34.5810823328834],[134.09135105091036,34.580902053886746],[134.09667741882788,34.58281822498117],[134.10352406008735,34.589577134677086],[134.1137547207038,34.588321108232606],[134.11842675718913,34.58981163110195],[134.11996917004126,34.588631946307316],[134.1240308303586,34.59558916191037],[134.12797639359576,34.598547224574816],[134.13278805432526,34.59767166711379],[134.138378637664,34.59954589202937],[134.13824639415589,34.6020166669357],[134.13524832694884,34.60413582940504],[134.13436221774225,34.60782166663665],[134.13897466874607,34.61129513526231],[134.14132666659248,34.60784999977773],[134.14710114060517,34.611794179857554],[134.14704319099053,34.61703909887535],[134.15390610907968,34.61535694576651],[134.15750389099185,34.61683916159808],[134.16221972805806,34.61645055914602],[134.1666286121208,34.61304638688131],[134.17315444901863,34.617337305971944],[134.17454693859042,34.622898333091655],[134.17737472096667,34.62412138679264],[134.17866250337192,34.62994889202781],[134.18553138756351,34.63125694605128],[134.18307861168864,34.63671027935595],[134.1803338906966,34.63586277534688],[134.17907333256835,34.631743613277195],[134.1739330613617,34.63131861256397],[134.17456496819875,34.63408910812586],[134.17204527916635,34.64957972082749],[134.17052217925527,34.65287699967382],[134.17659999999012,34.65374944098397],[134.18399389130514,34.651280828947165],[134.18852639437762,34.65080582862612],[134.1952480541545,34.65826527871968],[134.19272639380813,34.66194555904036],[134.19279805358735,34.66496249492326],[134.20262194634586,34.66364889208273],[134.20668208770826,34.67014886537788],[134.2139022183128,34.675536666883715],[134.21790944176735,34.67580416213241],[134.22202306131533,34.682015828967394],[134.2169199995584,34.683798892305106],[134.22767785984547,34.687960279343486],[134.2263463937711,34.69175527898301],[134.23141360585328,34.69085777536611],[134.23542610922766,34.691503892390756],[134.23785527879818,34.697664162071476],[134.24528138832545,34.701052775165465],[134.24182138794674,34.70553944069269],[134.23550666689925,34.710805000050755],[134.2356091698274,34.71485861323447],[134.2281834631964,34.71449055039864],[134.2279944877555,34.71224074791223],[134.2232278084167,34.711302837755795],[134.22016321655929,34.708592954701146],[134.2135794813081,34.71011103639529],[134.20708712077408,34.709535982000034],[134.2055371473216,34.71072563128291],[134.2134174063882,34.71681824316744],[134.20440640722995,34.7170933781569],[134.20182304799528,34.714578090406576],[134.19758492900132,34.71525039568928],[134.19393597926205,34.72014979337831],[134.2043798052839,34.72276675668053],[134.20428241230354,34.72718911708415],[134.19548086884708,34.72978981075124],[134.18982609639727,34.73379230557049],[134.18048101168938,34.73518630600324],[134.17927599209338,34.736811207371375],[134.18594272397763,34.74230704533392],[134.18704046704397,34.737757721341836],[134.19728558965835,34.732828585770676],[134.2039469777709,34.73048496420978],[134.2079768092824,34.73003535984401],[134.21192889800034,34.73143111665274],[134.21460425428302,34.73043767605793],[134.22934003901162,34.73110421578696],[134.23233799020613,34.72622196367274],[134.23197901412027,34.722689081336114],[134.24143727580974,34.718413757389044],[134.24405686063562,34.71526508971215],[134.25172028506313,34.71842711681802],[134.25724789877154,34.71810236892924],[134.2685872633915,34.71917784658041],[134.27111487724983,34.726260648909886],[134.27626988294878,34.72823559519662],[134.27544967606173,34.734561847351415],[134.2790355383595,34.73394001831724],[134.28261402082046,34.729940820412594],[134.28566141404303,34.734033838291055],[134.29811003934685,34.73654473015523],[134.30204688725405,34.734805891878466],[134.31512975403496,34.732206864655154],[134.31961307408415,34.728173720940504],[134.32172944235992,34.72194610822635],[134.321046108691,34.72917889229211],[134.32365083042157,34.73104389196209],[134.3208194417639,34.73536527918435],[134.3175983274009,34.73519555912782],[134.31302693944178,34.73839722475219],[134.31661972831785,34.74412916173151],[134.3184486121138,34.75626110786391],[134.32153055818878,34.76170916214818],[134.33306639409886,34.76573694590337],[134.3347886120049,34.76888833313012],[134.33067444926644,34.77105138701194],[134.32959972794515,34.77423805374326],[134.32326805377772,34.77425582884348],[134.31582778172685,34.78104082877127],[134.31900389131658,34.78504333258377],[134.3192094421621,34.78818777524566],[134.31646527874966,34.79720972095191],[134.3163613881676,34.80257444135742],[134.31128527909243,34.80255222540495],[134.30634055827022,34.8086161084467],[134.30735082967715,34.81092333264576],[134.30153693927844,34.814627224666765],[134.2981419463938,34.81362110812768],[134.29560749678865,34.81805638729247],[134.28793138832293,34.82155944091551],[134.2884191698089,34.82693027940894],[134.28334666701517,34.82974500003178],[134.27253194619243,34.826525559307186],[134.26629527910393,34.825641387240296],[134.26382111465273,34.826682775189965],[134.2617302718346,34.83114861331791],[134.26178165999568,34.83576889202078],[134.26461138760556,34.83731277526442],[134.26096389117072,34.84696749475415],[134.25455749683113,34.849262495367896],[134.25400055837918,34.856958333160605],[134.25845499400282,34.86255444103466],[134.26016306107647,34.867313612833016],[134.2592877824053,34.87042277509107],[134.26336527888452,34.87111416218886],[134.26707527910094,34.87547777527914],[134.26416610897877,34.877935829275145],[134.26235389141902,34.881983053675015],[134.26439917008565,34.88514610780669],[134.26748832692476,34.88330138694948],[134.2692927761408,34.889091108068214],[134.27779082988297,34.89514082858642],[134.28914805413945,34.89769110805827],[134.29029972775027,34.90039277490666],[134.2941055507306,34.90280166656373],[134.29501499374703,34.907462494798324],[134.28735610909723,34.91282972071508],[134.2874074972583,34.91528138682662],[134.28401917014867,34.91696610839921],[134.2844916595625,34.92103472137535],[134.27823693858386,34.92167944085355],[134.2747994419408,34.92428027931152],[134.27609639383354,34.92968027922154],[134.27308666691624,34.9325505590611],[134.26288416317368,34.93765694561159],[134.25994360581285,34.934438891641605],[134.25372722383236,34.9390869459059],[134.25432639444762,34.94621833320957],[134.25776832744646,34.94777666675981],[134.25999000003856,34.95230638732994],[134.26295165999113,34.95218249492626],[134.26669861155176,34.95443138729871],[134.26734055842007,34.957456107713256],[134.27261916963903,34.96000277460843],[134.27695555125774,34.96333027876938],[134.27429555089907,34.965750829237436],[134.27457527872616,34.97122305370101],[134.27707527890107,34.97578861315401],[134.27193138792325,34.97893638690476],[134.27108888504404,34.98390222470795],[134.27783722410868,34.98710749481506],[134.28104333328326,34.99186666661342],[134.28236472065544,34.996593053626555],[134.27897111542472,35.00101500034202],[134.2657622176523,35.00496694606778],[134.2656536056295,35.01068055936037],[134.26443832656753,35.01669166658718],[134.2686225033259,35.01803027867447],[134.267598054107,35.0215375051518],[134.2726005581693,35.023696387078644],[134.27520805430834,35.02330972086696],[134.27782277560073,35.028958054170914],[134.28158805444525,35.033616107997034],[134.281171660244,35.03687555866014],[134.28658916995425,35.0363788918724],[134.29266693942782,35.039001386904545],[134.29778722410117,35.043106667039126],[134.30530527941517,35.0401691709705],[134.30760360572185,35.04180527879066],[134.30773555065525,35.045501945658316],[134.31193444931546,35.04528194630484],[134.31633194616245,35.04319972079054],[134.31717360637685,35.046817505423576],[134.31433499436457,35.05079194589166],[134.3152425029392,35.05756997337562],[134.3145402718161,35.0609044409872],[134.3171772243495,35.06564694565009],[134.32115944215457,35.06749722521681],[134.3190833329295,35.083442504567984],[134.3247830606898,35.085729720650136],[134.32820749737812,35.08564055916452],[134.33653944184186,35.08875083838052],[134.34213917038642,35.08995083796083],[134.3495511146923,35.09022277496115],[134.3500005580794,35.094251946370264],[134.35503082960918,35.0994277749719],[134.35332888512005,35.102055279227784],[134.35228389088888,35.11110027905471],[134.3534569386868,35.11434666706509],[134.3607302722843,35.1203491713772],[134.3601530613148,35.12295500017319],[134.3564302718396,35.12482417089882],[134.36051972840278,35.12930527861579],[134.36088639369223,35.13272861273532],[134.36329389140008,35.135526107743715],[134.3624755506063,35.14009250536486],[134.36739333313585,35.14696138685855],[134.37025444888377,35.14716861314105],[134.37471583716626,35.15086889168606],[134.37756389116066,35.149119999888114],[134.3830847212829,35.15249027940291],[134.38825749668615,35.15126277495716],[134.39153499404483,35.152558054110955],[134.3974719458737,35.152141387415156],[134.4070213880267,35.14733055855851],[134.4116322175529,35.151962505065626],[134.41316111539322,35.158618613258454],[134.41082972820948,35.16291083816469],[134.40618389077406,35.16577694604928],[134.40713306134182,35.16985333276517],[134.41263333296206,35.17764972105783],[134.41249360619508,35.18422333264073],[134.41108306093463,35.186966945668075],[134.399674163432,35.18762472060445],[134.3947500002124,35.191353891668825],[134.38369083016778,35.193933891935615],[134.38131639423625,35.20634694635453],[134.37998277608426,35.2093555590119],[134.38143832701724,35.21149277537131],[134.38115221760086,35.21788972143355],[134.3825169388058,35.2217244414299],[134.3929858370268,35.22551166732961],[134.3969977819222,35.22761833281987],[134.40012749728623,35.2365397208315],[134.4028144494274,35.24102444112509]]],[[[134.09242408600278,34.55878627866389],[134.09262688672152,34.55727733318241],[134.0937686902729,34.55772105418333],[134.09242408600278,34.55878627866389]]],[[[134.09337555074114,34.56261364040722],[134.09239005205927,34.562319613359534],[134.0914587806982,34.561702918554886],[134.09150442309067,34.56125133298269],[134.09337555074114,34.56261364040722]]],[[[134.1084861090468,34.56406519835025],[134.1078482486978,34.563186108352284],[134.10907552471576,34.561083387288534],[134.11035053225135,34.56275672074611],[134.1084861090468,34.56406519835025]]],[[[134.1041786118535,34.56772391922357],[134.1002447209172,34.56694358557809],[134.0951791051317,34.562159468384834],[134.09711538326837,34.559466640073424],[134.10175566828957,34.561589720888946],[134.10652408601777,34.56076277538182],[134.10701038901834,34.56343266738372],[134.1041786118535,34.56772391922357]]],[[[134.10313894880346,34.56778372144163],[134.1030413103083,34.5678235587103],[134.10301128374385,34.567682775239916],[134.10316594015603,34.56768127876808],[134.10313894880346,34.56778372144163]]],[[[134.0982395592083,34.565193468004225],[134.09566269757545,34.56818744059797],[134.09463958474907,34.56604635985167],[134.09575664075646,34.56447689179515],[134.0982395592083,34.565193468004225]]],[[[134.08139433188296,34.583482278984036],[134.08138221801505,34.58351380202038],[134.0808449684206,34.58351044125391],[134.0808456159325,34.58347889213724],[134.08139433188296,34.583482278984036]]],[[[134.10101433194598,34.58431022543658],[134.10061930024062,34.58446255890004],[134.1006047725922,34.58443674835729],[134.10101433194598,34.58431022543658]]],[[[134.0811827762642,34.58386499986989],[134.0789990271834,34.58514253180243],[134.07897555128068,34.585115080896344],[134.08115724990716,34.583836531830514],[134.0811827762642,34.58386499986989]]],[[[134.10658282703594,34.58830077456116],[134.10617394307303,34.588650162075396],[134.10614066096275,34.58862361318927],[134.10654953323444,34.58827410786381],[134.10658282703594,34.58830077456116]]],[[[134.0449268346058,34.600894559436426],[134.04422880691402,34.60087741386161],[134.04454819664204,34.600702919304354],[134.0449268346058,34.600894559436426]]],[[[134.0131822826363,34.6077916130925],[134.01282761340372,34.607753721057406],[134.01287466863107,34.607056413722546],[134.01327163387884,34.60712066668549],[134.0131822826363,34.6077916130925]]],[[[134.03958697775693,34.6078461353909],[134.03964189395833,34.607979414018814],[134.03947620016652,34.60793980158064],[134.03958697775693,34.6078461353909]]],[[[134.0206370823355,34.60883876569653],[134.02044061014612,34.60862272066208],[134.01998221760527,34.60864777487495],[134.02000824938125,34.608573359572915],[134.0204211407231,34.608548999636696],[134.0206370823355,34.60883876569653]]],[[[134.01991302196848,34.608842864806434],[134.01992204936312,34.60890961338799],[134.01960189431202,34.60903436014763],[134.01954247700382,34.60897272061459],[134.01991302196848,34.608842864806434]]],[[[134.0196339173715,34.60851913495014],[134.01932111517738,34.60868286462255],[134.0190435277367,34.60940497256149],[134.0190107258644,34.609393892014566],[134.01929513556217,34.608664387151805],[134.0196339173715,34.60851913495014]]],[[[133.965413060964,34.592064386961965],[133.96527883265207,34.59187374777531],[133.96562503206962,34.591908531753404],[133.965413060964,34.592064386961965]]],[[[134.03615461714196,34.59184461333831],[134.03646836632208,34.59205633263372],[134.037332996121,34.59217013464405],[134.0373252529581,34.59220122510652],[134.03645516157655,34.59208694555616],[134.03615461714196,34.59184461333831]]],[[[133.98918169927606,34.605611467595224],[133.98805433164216,34.604700892332346],[133.98919994831897,34.60139572103577],[133.9910228660125,34.60179797339782],[133.98918169927606,34.605611467595224]]],[[[133.98933241216116,34.605840161594244],[133.98944766477803,34.60602097298954],[133.9892614403633,34.60607525157167],[133.98933241216116,34.605840161594244]]],[[[133.83749055774308,34.42229797307306],[133.83739408566862,34.422511694259356],[133.83723182908568,34.42235327868093],[133.83749055774308,34.42229797307306]]],[[[133.83677832705825,34.42547077495635],[133.83366902720388,34.42371146810984],[133.8273728016136,34.422759333376575],[133.83092044092564,34.417598973114195],[133.834494383609,34.421215198322784],[133.83677832705825,34.42547077495635]]],[[[133.81719455258656,34.42596713507527],[133.81521503234796,34.42542910756731],[133.8157431394344,34.424473468176075],[133.81860269755646,34.42476499960509],[133.81719455258656,34.42596713507527]]],[[[133.764460752162,34.42788008120084],[133.76385983056684,34.4286526132276],[133.7638218935656,34.42863438666768],[133.764460752162,34.42788008120084]]],[[[133.76116533131506,34.431292802420955],[133.7600636060506,34.42691969428853],[133.76216428025737,34.42601219830436],[133.76217321682054,34.42189894567986],[133.76397466859612,34.41977069376259],[133.77005180314825,34.418779801846426],[133.77447868983973,34.42174580192727],[133.7749637481785,34.42649925223873],[133.76890060977541,34.42575263957269],[133.76437499371104,34.42729141376776],[133.76116533131506,34.431292802420955]]],[[[133.80541208839725,34.434660559337374],[133.80571070018868,34.43453419829467],[133.80635296991375,34.43459186462292],[133.80635000035227,34.434632414154635],[133.80571988316615,34.434576693959286],[133.80541208839725,34.434660559337374]]],[[[133.7992129437224,34.43533649518315],[133.7986168092184,34.435401494583346],[133.79860891137218,34.43535638728747],[133.79920236139992,34.43529136000831],[133.7992129437224,34.43533649518315]]],[[[133.79796350211404,34.43546849497511],[133.7973237477928,34.435544585714126],[133.79731588771813,34.43549946762636],[133.79795561595893,34.43542566656129],[133.79796350211404,34.43546849497511]]],[[[133.80267802886794,34.43555722478612],[133.80203358008566,34.43558353175462],[133.80202786039752,34.435542585621874],[133.80267535698215,34.435514667068276],[133.80267802886794,34.43555722478612]]],[[[133.7988568085949,34.435731613223425],[133.79783596565733,34.43584436032904],[133.79782810558265,34.43579925213385],[133.7988568085949,34.435731613223425]]],[[[133.80263063639484,34.43604997322774],[133.80425871596708,34.43540333279765],[133.80428019537476,34.43544849495214],[133.80263063639484,34.43604997322774]]],[[[133.79416308675707,34.436775000366026],[133.79416472082528,34.43694180212253],[133.79287333303796,34.43766861261645],[133.79286808009783,34.437641532231],[133.79340333319738,34.43731933302087],[133.79412133573112,34.43692133265341],[133.79416308675707,34.436775000366026]]],[[[133.75934422755415,34.44318038656564],[133.7575089747594,34.444297667403475],[133.7564729179909,34.44370589191345],[133.7584761353654,34.442571441219116],[133.75934422755415,34.44318038656564]]],[[[133.81285736697396,34.44377038679397],[133.8126073932167,34.44459649503227],[133.81253930014861,34.444607467660546],[133.8131366406435,34.44260625217686],[133.81319907877457,34.442626801685606],[133.81285736697396,34.44377038679397]]],[[[133.81338785996184,34.444649386859794],[133.81338335885494,34.445375108274675],[133.81332080381208,34.4453748645584],[133.81331985682596,34.44464910806994],[133.81338785996184,34.444649386859794]]],[[[133.69441936406247,34.44666769395894],[133.69436830055668,34.446411306236826],[133.69472325577374,34.446361251770384],[133.69484144018043,34.44655919794866],[133.69441936406247,34.44666769395894]]],[[[133.69365007768897,34.44676574794096],[133.6927395590834,34.446682279163895],[133.69305374803207,34.44635016223026],[133.69365007768897,34.44676574794096]]],[[[133.81129588759518,34.44812494640922],[133.81126425394223,34.44883935974872],[133.81117719776955,34.44883674811746],[133.81120885930147,34.448122332979324],[133.81129588759518,34.44812494640922]]],[[[133.75330166024344,34.44856874834909],[133.75199880699938,34.44947808074886],[133.7513895585813,34.44893146831265],[133.7529456941885,34.44719961327161],[133.75330166024344,34.44856874834909]]],[[[133.69702272421944,34.44908477484256],[133.6963277173503,34.44889913498713],[133.69642116680347,34.44834753221289],[133.6969645012108,34.44840877514491],[133.69702272421944,34.44908477484256]]],[[[133.8533423094001,34.450217252424295],[133.85125557738309,34.44840325240824],[133.8528768868589,34.44511666740033],[133.85528997385325,34.44799302665689],[133.8533423094001,34.450217252424295]]],[[[133.8652492217742,34.450677413931544],[133.8652178597165,34.45093649512319],[133.86502596597563,34.45094080197646],[133.8650935284436,34.45078725173033],[133.8652492217742,34.450677413931544]]],[[[133.8113961089433,34.445553720827604],[133.8116433325738,34.44650591941269],[133.8115517249322,34.44811253216767],[133.81136066126555,34.45039719777253],[133.81131172465643,34.45039246823785],[133.81158785969205,34.447114225341295],[133.81160238734037,34.44652827925671],[133.8113961089433,34.445553720827604]]],[[[133.8646545531651,34.45122669375695],[133.86454238702163,34.45106235974015],[133.86470975355235,34.45081282934865],[133.86488902710698,34.451003829163426],[133.8646545531651,34.45122669375695]]],[[[133.6978350836223,34.4514890538768],[133.6977372238938,34.451130558928185],[133.69810197092932,34.45120872080588],[133.6978350836223,34.4514890538768]]],[[[133.75014577190996,34.448870639968106],[133.74874182857263,34.45051861344331],[133.74804819676694,34.44996599983108],[133.75014577190996,34.448870639968106]]],[[[133.7748008036143,34.45079305415618],[133.774202671716,34.451578198275286],[133.77417518843424,34.45156705387649],[133.77477499397082,34.45077961288888],[133.7748008036143,34.45079305415618]]],[[[133.74820360591173,34.45168127856823],[133.74824907923164,34.451764251818815],[133.74815719819617,34.45193861327641],[133.74804992166662,34.4518099193923],[133.74820360591173,34.45168127856823]]],[[[133.7475305577891,34.45282608135864],[133.7474355767905,34.45268219792513],[133.74770172485478,34.45256589220219],[133.74784333300352,34.45279430561277],[133.7475305577891,34.45282608135864]]],[[[133.7701768610733,34.45438658587227],[133.77006347634847,34.45448289157224],[133.76989360610514,34.45436344092013],[133.77015516223105,34.45424736002769],[133.7701768610733,34.45438658587227]]],[[[133.74683941620617,34.45526097331532],[133.74575533114364,34.45460494576167],[133.74713994805018,34.45393389233533],[133.74771061015656,34.45450533325459],[133.74683941620617,34.45526097331532]]],[[[133.81231752283543,34.45833333261726],[133.81409547262797,34.458691666587185],[133.81408438398716,34.45872316174456],[133.81231752283543,34.45833333261726]]],[[[133.8099601947073,34.4590234678588],[133.80893775637242,34.45933461260233],[133.80892703015843,34.45930753221688],[133.80994674444673,34.45899410769198],[133.8099601947073,34.4590234678588]]],[[[133.774276614874,34.45896925222928],[133.7739607262066,34.4602299731348],[133.77386019459232,34.46020697297348],[133.7741733070526,34.45895299968123],[133.774276614874,34.45896925222928]]],[[[133.77313099909634,34.460657721276846],[133.77275603126589,34.46132502722827],[133.77258752259615,34.46126008088805],[133.7729626073385,34.460592864868886],[133.77313099909634,34.460657721276846]]],[[[133.7731698830837,34.46241186511554],[133.77316586311417,34.462346918775324],[133.7733266412116,34.461694386886506],[133.77335302192444,34.46169994559608],[133.7731698830837,34.46241186511554]]],[[[133.76063775572788,34.464280640139464],[133.76105111471725,34.461957225445644],[133.76273085584444,34.46303791916466],[133.76063775572788,34.464280640139464]]],[[[133.69115810576204,34.46449477501392],[133.68946158238623,34.461835612823336],[133.6924545270548,34.46159944096149],[133.69115810576204,34.46449477501392]]],[[[133.8180997795812,34.46515091858009],[133.81770922200303,34.465947054213245],[133.81750608313928,34.46588027865198],[133.81790330739182,34.46507877496555],[133.8180997795812,34.46515091858009]]],[[[133.71524516163493,34.46436453159788],[133.71147272418693,34.46614277456945],[133.71004605678013,34.461995666966516],[133.71438247706976,34.46211974822785],[133.71524516163493,34.46436453159788]]],[[[133.82891230875612,34.47124435963951],[133.83019197118256,34.47205200029964],[133.82982022022702,34.47187241378094],[133.82887949429335,34.471273531848055],[133.82891230875612,34.47124435963951]]],[[[133.74897442293138,34.48852994630005],[133.74881680864883,34.48857644124979],[133.74861033689763,34.48810572080242],[133.74876438356955,34.4880631082259],[133.74897442293138,34.48852994630005]]],[[[133.74698452721418,34.490435694251914],[133.74682547311716,34.49081836027915],[133.74671024568136,34.490785359656684],[133.7468759655534,34.49039816194568],[133.74698452721418,34.490435694251914]]],[[[133.6159679505605,34.493780081385694],[133.61540680867733,34.49382638657852],[133.61541795127744,34.493794892320466],[133.615965446848,34.493755278982974],[133.6159679505605,34.493780081385694]]],[[[133.6079640859739,34.49433036035788],[133.60705688676603,34.49423735966644],[133.60706516232744,34.49418582941257],[133.6079640859739,34.49433036035788]]],[[[133.74311730212185,34.499259054361914],[133.74304241197774,34.4992314946378],[133.74392433214223,34.49733202665175],[133.74400089502535,34.49736097313047],[133.74311730212185,34.499259054361914]]],[[[133.66335396931026,34.49621005405078],[133.6586445776852,34.50117977512656],[133.65858313870092,34.50114219785422],[133.6632887549721,34.496168586311285],[133.66335396931026,34.49621005405078]]],[[[133.63981968892756,34.501817495181285],[133.63981878061225,34.501837945764635],[133.63925732756366,34.50183474777543],[133.63925674390362,34.50181366676736],[133.63981968892756,34.501817495181285]]],[[[133.68441632905046,34.50426672143209],[133.6746916081313,34.50416249540291],[133.66919302184056,34.50202802737164],[133.66905778179125,34.49071200015874],[133.68354002605145,34.490525053588385],[133.6837406099413,34.500939945721996],[133.68441632905046,34.50426672143209]]],[[[133.65830972771187,34.50153446774152],[133.65429066108516,34.505785251887914],[133.65423211432073,34.50575146795592],[133.6582552269972,34.50149963969665],[133.65830972771187,34.50153446774152]]],[[[133.6518544489237,34.51041425221604],[133.65114027210598,34.51142438692597],[133.65110555108038,34.51140753183216],[133.65181972789821,34.510397387229716],[133.6518544489237,34.51041425221604]]],[[[133.65000000010002,34.51143619772239],[133.65073399527773,34.51098930571192],[133.65074953286467,34.511007865020986],[133.65000000010002,34.51143619772239]]],[[[133.65333044144677,34.51261200014375],[133.6532854465662,34.512668829203164],[133.65142197124703,34.51165602710404],[133.65146700389914,34.51159922502427],[133.65333044144677,34.51261200014375]]],[[[133.6561794936888,34.514150865170336],[133.6561159143181,34.514230467761934],[133.65367730186608,34.512897387404564],[133.65374089472652,34.51281777492045],[133.6561794936888,34.514150865170336]]],[[[133.6579115052118,34.51509686472855],[133.6578517767382,34.51517172069839],[133.65649102514078,34.514428558731026],[133.6565506609843,34.51435369376799],[133.6579115052118,34.51509686472855]]],[[[133.65833333311684,34.5153292252636],[133.66017824912694,34.516337359881334],[133.66012291833806,34.51640682891207],[133.65833333311684,34.5153292252636]]],[[[133.66516277574158,34.51368849492815],[133.6648885859396,34.515491278599654],[133.6648033589879,34.515494946035005],[133.66508147882723,34.51367869411649],[133.66516277574158,34.51368849492815]]],[[[133.66079613463398,34.516666667332856],[133.66250136164854,34.51761919776783],[133.66245435768258,34.51768161341579],[133.66079613463398,34.516666667332856]]],[[[133.66357508382316,34.51746516188774],[133.66277963707068,34.51832427884244],[133.66247350155095,34.51789997330519],[133.6627469781905,34.517468197998994],[133.66357508382316,34.51746516188774]]],[[[133.92527775606368,34.41881955008222],[133.92399775639137,34.421675531600556],[133.92009827531524,34.41850149494809],[133.92527775606368,34.41881955008222]]],[[[133.9398429438968,34.48088246775171],[133.9397698047328,34.48091694596036],[133.93903163400273,34.48019089179627],[133.93908844417638,34.48014227894305],[133.9398429438968,34.48088246775171]]],[[[133.96432211407432,34.50219567628949],[133.9643785726131,34.502689036270056],[133.96391018230918,34.50287252314848],[133.96361953311498,34.50239648590917],[133.96432211407432,34.50219567628949]]],[[[133.96373291783993,34.503036027091014],[133.96355202280768,34.50325589244551],[133.96353627837664,34.50352553167801],[133.9633918940208,34.50346169420186],[133.96350875462542,34.50314805383965],[133.96373291783993,34.503036027091014]]],[[[133.96326255532279,34.50372489159054],[133.96308180328265,34.5040118922351],[133.96281321715628,34.50369205374534],[133.96326255532279,34.50372489159054]]],[[[134.0238825026754,34.50683861341133],[134.0181308300738,34.50703666660894],[134.01363194635735,34.50316555914327],[134.01175111502198,34.5031786128028],[134.0075580538612,34.498035828890465],[134.0119555507082,34.49617277535333],[134.016848326689,34.496512774844746],[134.01898917001427,34.49821027938094],[134.01944499409126,34.50336582916975],[134.0238825026754,34.50683861341133]]],[[[134.0064469387753,34.51184097268282],[134.00613282716836,34.51169772057341],[134.00628727583717,34.51126380218278],[134.00663005243507,34.51144072131228],[134.0064469387753,34.51184097268282]]],[[[133.99717583679546,34.51239277510655],[133.99698165967595,34.512357224906054],[133.99704639377615,34.51216972075605],[133.99719722357304,34.512249999637845],[133.99717583679546,34.51239277510655]]],[[[134.0165355505752,34.51344666722997],[134.01534555055673,34.512573332893055],[134.01608666656648,34.512156107718226],[134.01731555057222,34.512830279094146],[134.0165355505752,34.51344666722997]]],[[[134.01715138832594,34.514604440942264],[134.01717527881613,34.51484944144863],[134.01705972762443,34.51484444121803],[134.01693055799888,34.51464138689056],[134.01715138832594,34.514604440942264]]],[[[133.95827250327352,34.516616945615624],[133.9590760313339,34.5163564677768],[133.960270414648,34.51608282925923],[133.96108147902714,34.515934972620926],[133.95827250327352,34.516616945615624]]],[[[134.02405055808686,34.54617666661994],[134.02399610863358,34.546086666966175],[134.02413221832728,34.54600777483898],[134.02420693939882,34.54614861316804],[134.02405055808686,34.54617666661994]]],[[[134.0238105578111,34.54601582916723],[134.02349221759187,34.54641361279806],[134.02317055797494,34.54610610761085],[134.02351778172033,34.54582999955488],[134.0238105578111,34.54601582916723]]],[[[133.52917666686972,34.29964694584993],[133.5292105578211,34.299787775185735],[133.5289928922083,34.29987408132382],[133.5290008296247,34.299674919262145],[133.52917666686972,34.29964694584993]]],[[[133.53813055817875,34.30356649529756],[133.53810115394515,34.30359794638815],[133.53762236118314,34.303289306256545],[133.53765177710784,34.30325794599747],[133.53813055817875,34.30356649529756]]],[[[133.5385440079997,34.30371955901052],[133.53839976663596,34.304153972927566],[133.53786080383304,34.30446574809582],[133.53783062258526,34.30442975722758],[133.53835564229917,34.30413367612829],[133.5385440079997,34.30371955901052]]],[[[133.53824138792982,34.309725558987395],[133.53725062281808,34.30794949507322],[133.53202000032286,34.30720444093225],[133.52745819733798,34.308082360012975],[133.52597138776935,34.30449582861962],[133.52850972784177,34.300477774629655],[133.53353389117615,34.29832805409649],[133.53698666730088,34.300616945615616],[133.5368120099663,34.30423535078086],[133.54057165995425,34.30775694572651],[133.53824138792982,34.309725558987395]]],[[[133.53782220493088,34.309618540563235],[133.53717116681594,34.309840963589636],[133.53714334628842,34.30978497269837],[133.53779438440336,34.30956255866522],[133.53782220493088,34.309618540563235]]],[[[133.53709738014004,34.31033804496485],[133.53707373516477,34.310357179840025],[133.53631461742577,34.30971341364318],[133.53633815807962,34.30969417984255],[133.53709738014004,34.31033804496485]]],[[[133.51746138833244,34.32132194625086],[133.5162938911502,34.320611667094795],[133.51737194625832,34.319728054406255],[133.51790250309807,34.32062861302012],[133.51746138833244,34.32132194625086]]],[[[133.50921464294152,34.34357259459961],[133.50818507118413,34.343857035773624],[133.50817180258673,34.34382394611828],[133.50920137524338,34.34353950494426],[133.50921464294152,34.34357259459961]]],[[[133.4983540728822,34.34424349514126],[133.4979879642732,34.344577089661016],[133.49794027232576,34.34454115275207],[133.49830639442462,34.344207468300056],[133.4983540728822,34.34424349514126]]],[[[133.4985021525523,34.34482058560161],[133.49816199657892,34.34543004536033],[133.49813243766198,34.345418667137835],[133.49847259363537,34.34480920737906],[133.4985021525523,34.34482058560161]]],[[[133.4982741627225,34.350626107808694],[133.49901682196878,34.34557589201387],[133.49724832674895,34.34032444122005],[133.50209011656568,34.33908374821647],[133.50287155637727,34.33651030580603],[133.50690610932952,34.33519722457231],[133.50947693920943,34.34055610837777],[133.50657080429926,34.345215414060135],[133.49999461705795,34.34731132365869],[133.4982741627225,34.350626107808694]]],[[[133.51666666733286,34.352275441058794],[133.51681972834785,34.34834333257879],[133.51953233544896,34.34650435119488],[133.51891333298397,34.34361610829683],[133.52288905318733,34.34342405357728],[133.52252610929258,34.3481855591163],[133.51666666733286,34.352275441058794]]],[[[133.55231722406074,34.3542958291892],[133.55118277606437,34.35399138709289],[133.55148166035042,34.35298861333388],[133.55235111501202,34.35355222475545],[133.55231722406074,34.3542958291892]]],[[[133.55221221831926,34.35447500022116],[133.55225610883247,34.35470722495853],[133.55204917033302,34.35465527921781],[133.55221221831926,34.35447500022116]]],[[[133.5522152787122,34.354836945868385],[133.5521880544352,34.355022774581414],[133.5519911145983,34.355017224865094],[133.55207639371065,34.35482444079537],[133.5522152787122,34.354836945868385]]],[[[133.58305680882472,34.363226035952835],[133.581399741405,34.363265269776434],[133.5813981972691,34.36321936927851],[133.5830552529976,34.36318013455559],[133.58305680882472,34.363226035952835]]],[[[133.587135550865,34.3637283333959],[133.58155782063693,34.3618764233583],[133.58069975409046,34.35665980240799],[133.57840495492485,34.35508347702091],[133.57438447456389,34.356534350579864],[133.5733466928956,34.3595801978679],[133.56708769114414,34.35105155908224],[133.57245635507684,34.34807172113307],[133.5808727755582,34.35113444060198],[133.58410610900978,34.35782861260043],[133.5906002717852,34.35863444112658],[133.59125888488973,34.361310828931664],[133.587135550865,34.3637283333959]]],[[[133.58331778218997,34.37184222463901],[133.5833652789845,34.37206194610201],[133.58312749733625,34.3719097205572],[133.58331778218997,34.37184222463901]]],[[[133.5929569389117,34.37388194639476],[133.5922777816943,34.37240000035979],[133.5934458373556,34.37223110767951],[133.5940097275669,34.3731608286094],[133.5929569389117,34.37388194639476]]],[[[133.58635389071958,34.37219166701186],[133.58732555063375,34.37324499975699],[133.58585138823105,34.37573555884899],[133.58362306065578,34.37358333280463],[133.58635389071958,34.37219166701186]]],[[[133.51378888534884,34.3789911082531],[133.51412713386026,34.37919769421825],[133.5141148383292,34.37937730591801],[133.51366749665772,34.37928694563607],[133.51378888534884,34.3789911082531]]],[[[133.5888280542714,34.38121582864761],[133.58299527900897,34.38086138694348],[133.58221306128382,34.37866555906834],[133.58596000025386,34.37696416226635],[133.5888280542714,34.38121582864761]]],[[[133.49544247728852,34.384831972917254],[133.49686511033667,34.382180829082074],[133.49844469486686,34.38323041435217],[133.49788555127725,34.38473055906809],[133.49544247728852,34.384831972917254]]],[[[133.49721277564913,34.38714444106313],[133.4972553567494,34.387366332590204],[133.49711778206006,34.38744666722994],[133.49692749720634,34.38727749486054],[133.49721277564913,34.38714444106313]]],[[[133.55395211419875,34.39041099996774],[133.55393817110973,34.390437513780284],[133.55323680873175,34.390182865347015],[133.55325075182077,34.39015644956055],[133.55395211419875,34.39041099996774]]],[[[133.51593927407828,34.3909377481786],[133.51599499427368,34.39106138697349],[133.51581639431117,34.391103612841505],[133.51582055817232,34.39097444141737],[133.51593927407828,34.3909377481786]]],[[[133.4890541629194,34.391363332551805],[133.488920388765,34.39174922534653],[133.48865999995905,34.391532495028684],[133.4890541629194,34.391363332551805]]],[[[133.55847360597215,34.39304305389385],[133.55846221785714,34.39324138678063],[133.55830360622656,34.393263612625674],[133.55826333278662,34.393100559243464],[133.55847360597215,34.39304305389385]]],[[[133.50899277569613,34.39582638727802],[133.50889749702196,34.39593916226261],[133.50874360593275,34.39587333278814],[133.50886944177137,34.39569222461654],[133.50899277569613,34.39582638727802]]],[[[133.53625009106895,34.39845383757461],[133.5362078598049,34.398479801901374],[133.53484415033734,34.396953991433634],[133.53488636811142,34.396928036100064],[133.53625009106895,34.39845383757461]]],[[[133.54263839194834,34.40202263073985],[133.5376177296746,34.401236577406166],[133.53717463010514,34.39583910818834],[133.52749722431747,34.388042144329575],[133.52356485143684,34.39159743237565],[133.51914610900576,34.389515775232894],[133.51617306093806,34.38436110767901],[133.51761333328875,34.382512775144505],[133.5306841626441,34.37642722473669],[133.53269499367912,34.3729674950539],[133.5359013879388,34.37390833340294],[133.5391416596599,34.37033082940428],[133.54571778214995,34.36655555909181],[133.54778509690482,34.369033954853194],[133.5523849942722,34.36744249477539],[133.55861805417987,34.367023613049355],[133.56022111461277,34.370483613428064],[133.5573202722129,34.375469999840675],[133.55151988333603,34.376551341970924],[133.54849368443604,34.3754180361135],[133.5449955249236,34.377374513922746],[133.5447868093638,34.380222918652805],[133.55042784736736,34.387830315316876],[133.55114780772521,34.39191571234028],[133.55427807976957,34.3930036941652],[133.5499281192873,34.39644774776542],[133.5471347602611,34.40053126070916],[133.54263839194834,34.40202263073985]]],[[[133.54575722371692,34.402336387114644],[133.5460155512767,34.402550558861265],[133.54581165968045,34.40266889165605],[133.5456419459191,34.402432225167104],[133.54575722371692,34.402336387114644]]],[[[133.5244069388292,34.40584805444422],[133.52445639434723,34.40597082899063],[133.52435944203467,34.40598666695115],[133.52430527856586,34.405885279182314],[133.5244069388292,34.40584805444422]]],[[[133.51207865090907,34.40672632426049],[133.51181267191737,34.40672932439884],[133.51156588805532,34.406671495293324],[133.51146684841638,34.40655598187311],[133.51088277561962,34.40643106334295],[133.51088717330447,34.40640423386833],[133.5114870822631,34.40653285580669],[133.51158581073662,34.4066480994303],[133.51207865090907,34.40672632426049]]],[[[133.53615138777639,34.40808944107488],[133.53604944242784,34.40842749533272],[133.5357777824188,34.40826972097091],[133.53615138777639,34.40808944107488]]],[[[133.50939306124087,34.40861277455997],[133.5094677823124,34.40871999982818],[133.50926199674382,34.40884922521161],[133.50922778203653,34.40868861258946],[133.50939306124087,34.40861277455997]]],[[[133.5182676125603,34.41150272976722],[133.5177270300784,34.4114978653343],[133.51680717291276,34.41121081073038],[133.51682335891098,34.41116872065999],[133.51773581105886,34.41145681128285],[133.5182676125603,34.41150272976722]]],[[[133.5140261094175,34.41106972059117],[133.51410466879554,34.41151199997887],[133.51348250341482,34.41131222457955],[133.5136311145843,34.4108336125812],[133.5140261094175,34.41106972059117]]],[[[133.52479416262054,34.41642305378093],[133.51976027221883,34.414135279219806],[133.5186672371034,34.408475802416376],[133.51442684822052,34.41010287384859],[133.5121966275724,34.40662100015908],[133.51024223079435,34.40627530616052],[133.5082038912966,34.40725472092868],[133.50583944233642,34.4066358290803],[133.50516083010825,34.403354999733494],[133.50939972791514,34.396679162213616],[133.50884040176322,34.39392195503427],[133.51376700394417,34.389689494574554],[133.51914922155936,34.39456318874022],[133.52023844444875,34.397561080579464],[133.52595639427227,34.39988389182821],[133.52350888482727,34.405931387423664],[133.52585250279083,34.410596946092255],[133.52479416262054,34.41642305378093]]],[[[133.51421066109322,34.41666666663343],[133.5138280544212,34.41627694632405],[133.51421832691437,34.416155000053266],[133.51421066109322,34.41666666663343]]],[[[133.5166688850611,34.420855559436575],[133.51553914411625,34.420561134888544],[133.51706861212676,34.4200294413057],[133.5166688850611,34.420855559436575]]],[[[133.49590610927953,34.42121249496074],[133.49589250343638,34.42176472096514],[133.49562722411713,34.42179861281579],[133.49551461730584,34.42137505371579],[133.49590610927953,34.42121249496074]]],[[[133.51679966267432,34.424146053797415],[133.51385121915848,34.42394319822006],[133.51266194579227,34.421951108157145],[133.51627972772735,34.42330361297144],[133.51679966267432,34.424146053797415]]],[[[133.51712277559568,34.424639161967775],[133.5170365890674,34.424881918665676],[133.5168574971758,34.42471805409497],[133.51712277559568,34.424639161967775]]],[[[133.4957294419603,34.425032775442276],[133.49587221832826,34.42520194601303],[133.49575077837574,34.42536658579934],[133.49553221793758,34.425258332606006],[133.4957294419603,34.425032775442276]]],[[[133.4967083270277,34.4296816669754],[133.49695036336868,34.429966802426065],[133.49655944156507,34.43002472056446],[133.4967083270277,34.4296816669754]]],[[[133.4908672240432,34.43213249491873],[133.48894277558873,34.43148944098499],[133.48998669333128,34.43055802663167],[133.4908672240432,34.43213249491873]]],[[[133.50777472132643,34.43450777531365],[133.5073438912077,34.43435389231831],[133.50735749705086,34.434049720917926],[133.50786749718736,34.43423555862421],[133.50777472132643,34.43450777531365]]],[[[133.51807917041742,34.43484666684026],[133.51809000005358,34.43498389169332],[133.5178522184052,34.43495722499597],[133.517956666567,34.43482582864914],[133.51807917041742,34.43484666684026]]],[[[133.51215319121684,34.435256774780385],[133.51136367099673,34.43207568474509],[133.5067491956189,34.433357558604484],[133.50131527867723,34.42880194565333],[133.49975111482217,34.42618999966879],[133.50600444904615,34.424638892171174],[133.5117036057369,34.426091387207805],[133.51637693904456,34.43194277483923],[133.51215319121684,34.435256774780385]]],[[[133.4995125030996,34.43593361264618],[133.49619166021705,34.430881666555706],[133.49849693918247,34.43033582933509],[133.50038749668568,34.43336777490293],[133.4995125030996,34.43593361264618]]],[[[133.50076138802774,34.44036610840925],[133.50065472123845,34.44007666700463],[133.50105780817137,34.43996816200115],[133.50117639367568,34.440253333424664],[133.50076138802774,34.44036610840925]]],[[[133.5017049935907,34.44012222486083],[133.50171761287754,34.44038049486397],[133.50151639406636,34.44028166656574],[133.5017049935907,34.44012222486083]]],[[[133.50347778217395,34.44050944055829],[133.50189000032333,34.44003389165084],[133.5021622179121,34.43810110827957],[133.50412277594546,34.43755110809724],[133.50347778217395,34.44050944055829]]],[[[133.50935400818105,34.448861395836786],[133.5091543056268,34.449261864843265],[133.5091177427896,34.449249350776995],[133.50931756225577,34.44884889166309],[133.50935400818105,34.448861395836786]]],[[[133.5104158880829,34.44960906340759],[133.50978599212988,34.44876757676229],[133.5098236062745,34.448749711729874],[133.5104158880829,34.44960906340759]]],[[[133.51068636818138,34.44967091877794],[133.5107630093055,34.44963528763844],[133.51177150455135,34.44971193685643],[133.51176551236858,34.449746153362355],[133.51068636818138,34.44967091877794]]],[[[133.4791878599318,34.454259107871565],[133.47913110191894,34.45427575702064],[133.47894858630832,34.45384914382299],[133.4790053443212,34.45383250456649],[133.4791878599318,34.454259107871565]]],[[[133.47968927424063,34.45545433295115],[133.47963654968703,34.45546973923712],[133.47923843060914,34.454530730109184],[133.47929125768542,34.454515323823216],[133.47968927424063,34.45545433295115]]],[[[133.4800355123291,34.455590712441506],[133.48129978016084,34.45615306301352],[133.48127417556282,34.45620959529663],[133.47999124500006,34.455651440961276],[133.4800355123291,34.455590712441506]]],[[[133.48275200989735,34.45679198186451],[133.48269686077163,34.45685282010163],[133.4818038258859,34.45646011674103],[133.48185147916251,34.456386883148184],[133.48275200989735,34.45679198186451]]],[[[133.48333333256733,34.457042288370985],[133.48419725010308,34.45742489234493],[133.48414213964804,34.457493296578434],[133.48333333256733,34.457042288370985]]],[[[133.4849596629581,34.4577678919747],[133.48490499407023,34.457824766000215],[133.48439569360642,34.45760423424804],[133.48442548634716,34.45753213470033],[133.4849596629581,34.4577678919747]]],[[[133.48624891125826,34.45833333261726],[133.4869566021655,34.45865170341341],[133.48693526574993,34.45868427865656],[133.48624891125826,34.45833333261726]]],[[[133.48847887200236,34.45934819776119],[133.48845652384955,34.459383288408105],[133.48769374766835,34.45904183831021],[133.4877173665633,34.45900963988305],[133.48847887200236,34.45934819776119]]],[[[133.55820395594787,34.46433098238896],[133.55776939004534,34.46433589178804],[133.55776880728467,34.464305413763896],[133.5582034631194,34.464300505264134],[133.55820395594787,34.46433098238896]]],[[[133.5583333333168,34.465141197808066],[133.55922608311732,34.466433234006615],[133.5591774190027,34.46645843211098],[133.5583333333168,34.465141197808066]]],[[[133.52637722392979,34.47346499980995],[133.5253294418004,34.472784721138],[133.5262422177043,34.472243612552745],[133.52676888497615,34.472610829126495],[133.52637722392979,34.47346499980995]]],[[[133.52000841765437,34.47571758569808],[133.51998224378553,34.47588377501626],[133.51979732788448,34.475849278821215],[133.51987208762682,34.47573700026243],[133.52000841765437,34.47571758569808]]],[[[133.50364979190442,34.497662711864734],[133.50251195796056,34.4986231167635],[133.50249086885856,34.49859763986922],[133.50362451376031,34.497642351213585],[133.50364979190442,34.497662711864734]]],[[[134.28867389108723,34.68433110839396],[134.2886805577616,34.68455666735639],[134.28848152969886,34.68454436013417],[134.28852494177272,34.68438030580654],[134.28867389108723,34.68433110839396]]],[[[134.29864260707075,34.68614245001413],[134.29760490274418,34.686417747780865],[134.2975879900937,34.68638889213372],[134.29863421459743,34.6861136042595],[134.29864260707075,34.68614245001413]]],[[[134.29166666668334,34.68566138736321],[134.29034055787054,34.68468722463575],[134.2968286115513,34.6800880539206],[134.29790891136724,34.68362006301555],[134.29166666668334,34.68566138736321]]],[[[134.290613333039,34.6873927747568],[134.29070888510705,34.687533613085805],[134.2904699999906,34.68758999967878],[134.29047722424457,34.68742577537927],[134.290613333039,34.6873927747568]]],[[[134.25367250278384,34.6913258293236],[134.25258832688985,34.69093833303771],[134.2529563285717,34.69049941441648],[134.2539319464023,34.690678892117205],[134.25367250278384,34.6913258293236]]],[[[134.32113027174466,34.69246472087025],[134.3202816597709,34.69224082925092],[134.32066666673336,34.6915802790067],[134.32113027174466,34.69246472087025]]],[[[134.31938970227304,34.692798640045226],[134.31842814534275,34.6926158744231],[134.31844178985682,34.692569721215705],[134.31938970227304,34.692798640045226]]],[[[134.28526933930857,34.69638605367351],[134.28536927377309,34.69650738660664],[134.28516863772256,34.69650491886699],[134.28526933930857,34.69638605367351]]],[[[134.26379344970803,34.69616636008948],[134.26346749672769,34.695946667404826],[134.2639266932623,34.695448918732666],[134.26408832661502,34.695980559255474],[134.26379344970803,34.69616636008948]]],[[[134.2826432559815,34.69705090987162],[134.2826088982821,34.69702439605908],[134.28318290496713,34.69651951396446],[134.28368184164378,34.69651845006649],[134.28368127057422,34.69656389191016],[134.2832446560161,34.69656181987216],[134.2831195333398,34.69662784719742],[134.2826432559815,34.69705090987162]]],[[[134.32153063642977,34.698395586087486],[134.31945583661764,34.695695829399085],[134.32132007815915,34.692883080989475],[134.32422027214795,34.69582972136459],[134.32153063642977,34.698395586087486]]],[[[134.31917221832327,34.69923916185786],[134.319138327372,34.69938000018692],[134.31899177744867,34.699295161742384],[134.31917221832327,34.69923916185786]]],[[[134.3184448637395,34.698748613158045],[134.318039728151,34.69963916231757],[134.31734082991545,34.69961889159862],[134.31756372238794,34.69861425174639],[134.3184448637395,34.698748613158045]]],[[[134.31619778170227,34.700129720909956],[134.31608194632486,34.7003663873989],[134.31582306118537,34.70021416185415],[134.31583338540247,34.70005961336051],[134.3160994417359,34.699951387146825],[134.31619778170227,34.700129720909956]]],[[[134.29166666668334,34.7014951076132],[134.29181082980597,34.70167861337734],[134.29160888524189,34.701669441191825],[134.29166666668334,34.7014951076132]]],[[[134.29218610880196,34.70161082877678],[134.29225686116524,34.70175469422384],[134.29203658931726,34.70171994621859],[134.29218610880196,34.70161082877678]]],[[[134.32492944243984,34.703956667166494],[134.32494880664217,34.70411530577678],[134.32484418940783,34.704116694330025],[134.32479722411267,34.704009720871966],[134.32492944243984,34.703956667166494]]],[[[134.2862874968705,34.7041774947956],[134.27949111512294,34.70291833331447],[134.28377614815076,34.69856717133791],[134.28857778233885,34.69632444112011],[134.2909516597913,34.6974741623028],[134.28984194584916,34.70373222516213],[134.2862874968705,34.7041774947956]]],[[[134.310361946047,34.7037161084117],[134.31064499417118,34.704249440559295],[134.31012306093055,34.70425722509094],[134.310361946047,34.7037161084117]]],[[[134.2737694421062,34.70372638676338],[134.27351555090206,34.704372224998224],[134.27309389117022,34.704425278703695],[134.27352917023507,34.70377472082674],[134.2737694421062,34.70372638676338]]],[[[134.27084749711435,34.70453366679533],[134.27078027189214,34.704614441203546],[134.270657950604,34.704590585786946],[134.270691388297,34.70448499998281],[134.27084749711435,34.70453366679533]]],[[[134.25900610934457,34.70702666664738],[134.2503908298729,34.70577805421391],[134.2528533328151,34.70139638723356],[134.25021577234008,34.69939172105114],[134.24966138796276,34.69552972101985],[134.25532119301874,34.690230748250485],[134.2610674966677,34.69243138659925],[134.2630036057319,34.69716389170031],[134.26668027167727,34.697643054083755],[134.26867916960805,34.701193612595205],[134.26220527935027,34.704011387315745],[134.25900610934457,34.70702666664738]]],[[[134.33215999978427,34.70712416215042],[134.33226221762732,34.70744527857681],[134.33199639421832,34.707755279382695],[134.33172832700075,34.707335278900075],[134.33215999978427,34.70712416215042]]],[[[134.32380564241657,34.7090241076765],[134.3237766932399,34.70933397268476],[134.32365083042157,34.70934166728415],[134.3236644488553,34.70913861295668],[134.32380564241657,34.7090241076765]]],[[[134.20781387820796,34.71176609922617],[134.2076891440388,34.71136776610956],[134.20832149244302,34.711427377671384],[134.20843627831164,34.71168478432537],[134.20781387820796,34.71176609922617]]],[[[134.2135503891392,34.7127258557137],[134.21397277642257,34.71196854111531],[134.21498277623425,34.71147820735342],[134.21509040170076,34.71249026121666],[134.2135503891392,34.7127258557137]]],[[[134.22444155593314,34.71257920686497],[134.22484289188606,34.71282081063197],[134.2248209079586,34.71326470340341],[134.22431021984085,34.71324224283529],[134.22444155593314,34.71257920686497]]],[[[134.26470165975388,34.71399805376723],[134.2584440861258,34.71351813505396],[134.249485071379,34.711453099181256],[134.24989098578044,34.70980819779015],[134.26124871635523,34.707926693761976],[134.26350221775317,34.7093736130019],[134.26922503200967,34.71003558597357],[134.26470165975388,34.71399805376723]]],[[[134.38165977967515,34.72018231466217],[134.38164972795266,34.720043468331426],[134.3819321141758,34.71986757712705],[134.38165977967515,34.72018231466217]]],[[[134.21304080359027,34.72588719823568],[134.21194243819298,34.722015631216436],[134.21468029825724,34.72016851366601],[134.21906055779857,34.722770684919226],[134.21304080359027,34.72588719823568]]],[[[134.27144932612555,34.7256870990804],[134.27383722400873,34.726599179808375],[134.2738235543136,34.726623784360186],[134.27144932612555,34.7256870990804]]],[[[134.29834499442597,34.730201666973414],[134.29285185532888,34.72971225231862],[134.28529083040758,34.7240449999768],[134.2868783271731,34.71852389196408],[134.28296277611128,34.719386386772385],[134.28031778184027,34.722336946393],[134.2765596885788,34.72160261307016],[134.2770688847213,34.71876027876391],[134.27470194643774,34.71345722487109],[134.28190583708476,34.70670555921424],[134.2875266673219,34.70614749481109],[134.2926497282025,34.7068469461297],[134.2950033331374,34.70869527866421],[134.3028683271117,34.708165828889946],[134.3016333331119,34.71233082940432],[134.3066777815544,34.71211972074855],[134.31304639357631,34.70353916230255],[134.32138221771527,34.70314500024165],[134.3249091699223,34.70428916181544],[134.32297165971443,34.70835805358138],[134.32396055783352,34.71115361324871],[134.32721444888773,34.71219610826381],[134.3318122175599,34.70844305390386],[134.3343222181959,34.711497774802524],[134.33690111499448,34.71119889231505],[134.341758327285,34.703190558997164],[134.3427880537257,34.70643110770948],[134.34696138825757,34.708129999899654],[134.34284250317899,34.714016667035594],[134.33923360564643,34.71687972082253],[134.33880888462238,34.71972916157159],[134.3317777816194,34.72303389220042],[134.32303944161697,34.714101107979786],[134.31839080369275,34.716085197673806],[134.3109642669874,34.727232522862664],[134.29834499442597,34.730201666973414]]],[[[134.11572535743937,34.587193360185495],[134.1150821137486,34.58804825212519],[134.1150146690918,34.58801002734094],[134.11572535743937,34.587193360185495]]],[[[134.1166666670331,34.58817935978965],[134.11797084317993,34.58885042310857],[134.1179451486497,34.58888292820461],[134.11669066094532,34.58827364021636],[134.1166666670331,34.58817935978965]]],[[[134.1899958371382,34.5962747214013],[134.19005861161565,34.596423332570794],[134.18994944201324,34.59658416192957],[134.18983499428964,34.596469440812086],[134.18986277614624,34.59632916186138],[134.1899958371382,34.5962747214013]]],[[[134.1540572239618,34.59805222513012],[134.1538791698879,34.59847194592362],[134.15335527882314,34.5982266666274],[134.15343722414866,34.59779110787338],[134.1540572239618,34.59805222513012]]],[[[134.1521147207178,34.59865916229057],[134.15207472067186,34.59881277458993],[134.15184165956498,34.598748053979534],[134.15192194564133,34.59862999997455],[134.1521147207178,34.59865916229057]]],[[[134.1634902722583,34.59883749515433],[134.16351610888137,34.59893110828409],[134.1633647206054,34.59895110830706],[134.16336583666407,34.59884582917175],[134.1634902722583,34.59883749515433]]],[[[134.20143666686874,34.59918027894679],[134.20153333319683,34.59933555858919],[134.20140306100257,34.599425559142276],[134.20136221829182,34.59921694610523],[134.20143666686874,34.59918027894679]]],[[[134.1562913881371,34.598708613311885],[134.15604610884088,34.599283612848524],[134.15535778213598,34.59917749464569],[134.15543277570214,34.5986411084005],[134.1562913881371,34.598708613311885]]],[[[134.15935105081041,34.60056990957372],[134.15957111491514,34.59696555901337],[134.16293000001951,34.59986249475838],[134.15935105081041,34.60056990957372]]],[[[134.19085165987622,34.60230055862394],[134.1896700001704,34.597495828969386],[134.19547610873553,34.59659249504767],[134.20067869036927,34.59871294624554],[134.19085165987622,34.60230055862394]]],[[[134.1435557720813,34.60898900014229],[134.1435360832237,34.60904805412446],[134.14311894888044,34.60894213467185],[134.14313700366984,34.60888510776158],[134.1435557720813,34.60898900014229]]],[[[134.14431277641359,34.60920963981306],[134.14428321659727,34.609271414244404],[134.1439412188123,34.609149891554296],[134.14395805412096,34.6090799728625],[134.14431277641359,34.60920963981306]]],[[[134.20970277556273,34.61274333333819],[134.20303832705724,34.609925000138674],[134.20359693914747,34.608904721076044],[134.20579111496806,34.61013944078263],[134.21062905298845,34.61215930640691],[134.20970277556273,34.61274333333819]]],[[[134.14908337229986,34.61210443157432],[134.14913713377177,34.61314172131341],[134.14910233540456,34.61314383831751],[134.14904717278887,34.61210410781837],[134.14908337229986,34.61210443157432]]],[[[134.21010917020214,34.61346110834353],[134.2098502715728,34.6134666670531],[134.2097554470563,34.61324625221283],[134.2100138906286,34.613235559273676],[134.21010917020214,34.61346110834353]]],[[[134.16337203569094,34.61408644113641],[134.16285255490152,34.61448074798818],[134.15513007829054,34.614828225342364],[134.15512552502298,34.61476972084597],[134.16281972784827,34.614415441019844],[134.16337203569094,34.61408644113641]]],[[[134.17126891063174,34.613800595221335],[134.1710824380042,34.614176081061316],[134.1710013101624,34.61537416238775],[134.1709143061504,34.61536941396736],[134.17099871561834,34.61417099989177],[134.17126891063174,34.613800595221335]]],[[[134.17214708242193,34.615364350784205],[134.17311050634487,34.61645338661458],[134.17304902689114,34.61649455937646],[134.17214708242193,34.615364350784205]]],[[[134.19898333341416,34.61720638716508],[134.1977852790675,34.61625444128947],[134.18844861201387,34.61474333293853],[134.18562749721127,34.6114069461737],[134.18200888520198,34.61113582935508],[134.17750999968678,34.608806107715736],[134.17319083019277,34.61028499965306],[134.1679100003463,34.61025110780241],[134.1647770303357,34.60689122534984],[134.16435306114488,34.60390472072635],[134.1679074966337,34.60220222495275],[134.18365805387612,34.606131387253754],[134.18486082966365,34.60478582880302],[134.19077917002278,34.605489161595585],[134.19467527864128,34.607071387434644],[134.20186389070602,34.61585861278479],[134.19898333341416,34.61720638716508]]],[[[134.1943213882215,34.631100559343395],[134.19449111457334,34.63147222486333],[134.1940413878998,34.63142805376174],[134.1943213882215,34.631100559343395]]],[[[134.2032380538932,34.637754721403326],[134.20269416280541,34.63737999998705],[134.20316778176777,34.637257225440635],[134.2032380538932,34.637754721403326]]],[[[134.19786499407428,34.64017361262216],[134.19739778188216,34.64001889235806],[134.19745360639888,34.639630558803276],[134.19815693919145,34.639661386663704],[134.19786499407428,34.64017361262216]]],[[[134.21309888540532,34.66352833256656],[134.2129708300398,34.66361861280876],[134.21283583730406,34.66345082899261],[134.2130886124496,34.663383054284566],[134.21309888540532,34.66352833256656]]],[[[134.2153608296386,34.66404110801079],[134.21531444890275,34.66423389208052],[134.21512250300123,34.66413305379746],[134.2153608296386,34.66404110801079]]],[[[134.21122805363188,34.66435472139335],[134.21131527887712,34.664470278880344],[134.21121683458932,34.66451108112153],[134.21108472058347,34.66439055937684],[134.21122805363188,34.66435472139335]]],[[[134.21548416266398,34.66434110835553],[134.21533749672813,34.66453444101171],[134.21527527893102,34.6643469458549],[134.21548416266398,34.66434110835553]]],[[[134.2151661093285,34.667108612772324],[134.2133944493944,34.66682666721698],[134.21373527896003,34.66473582889546],[134.215584162779,34.66457972097737],[134.2151661093285,34.667108612772324]]],[[[134.20625192038983,34.66701372080661],[134.20621999985315,34.667173053693546],[134.20608888499407,34.66711610772222],[134.20625192038983,34.66701372080661]]],[[[134.21575082963716,34.667296946097224],[134.21587610879544,34.66733389204552],[134.21582027168824,34.66744110832053],[134.2156594423294,34.66742277474134],[134.21575082963716,34.667296946097224]]],[[[134.22497408588538,34.66754574803787],[134.2248952791938,34.66767861297768],[134.22477250284874,34.66762916195631],[134.2248411148256,34.667545278591774],[134.22497408588538,34.66754574803787]]],[[[134.22587832722309,34.66778110781195],[134.2258638913056,34.66794666670535],[134.22573277644653,34.66792972078002],[134.22577639356575,34.667805000100714],[134.22587832722309,34.66778110781195]]],[[[134.25145000011753,34.67684222528851],[134.25110250297814,34.67587889219715],[134.25208444933799,34.675185558966405],[134.25266444910505,34.67543916238748],[134.25145000011753,34.67684222528851]]],[[[134.25567277577807,34.677546945735],[134.255774448632,34.6777774950354],[134.2555977822119,34.677828892189666],[134.25542722398723,34.67756389166033],[134.25567277577807,34.677546945735]]],[[[134.27237661528864,34.67898546800501],[134.2723677821475,34.678883919257544],[134.27255105139,34.67884016184405],[134.27247980529887,34.67898346791276],[134.27237661528864,34.67898546800501]]],[[[134.24213749694798,34.67832361284451],[134.23517666696966,34.67807694589436],[134.22885778206103,34.67892805438623],[134.22735972826888,34.676233612691135],[134.22177277639253,34.676919441079406],[134.21849333290106,34.67575138721679],[134.2211052788856,34.67089555898292],[134.22460416325157,34.66780166721321],[134.23167917025762,34.67162610795856],[134.23504832741844,34.67011527929674],[134.2373558367026,34.67324416188859],[134.2441625291774,34.67224244123571],[134.2457841633086,34.67512416225031],[134.24213749694798,34.67832361284451]]],[[[134.22546666705307,34.681738612946674],[134.22391832676942,34.68149582926918],[134.2252077819137,34.67961944058476],[134.2263388853313,34.68076416243622],[134.22546666705307,34.681738612946674]]],[[[134.2668497282324,34.68375444061502],[134.26698832724958,34.68380166671358],[134.26692027195304,34.68395944107539],[134.26673722394378,34.68391527896699],[134.2668497282324,34.68375444061502]]],[[[134.24209693932232,34.68716110759908],[134.2418988852254,34.68690722538821],[134.24215832704522,34.6867608292489],[134.24239027209342,34.68689610796906],[134.24209693932232,34.68716110759908]]],[[[134.25693333300694,34.687352225225084],[134.25410277622223,34.68686333307642],[134.2444063938401,34.68081027877139],[134.24958083029117,34.679761666567686],[134.25097944244737,34.67801444121352],[134.25640221768822,34.6796486127933],[134.2628627763961,34.6750274950229],[134.2661158373761,34.677551945965604],[134.27348610889692,34.68082033319189],[134.27285680919442,34.68345582882347],[134.2656038911067,34.681716666790805],[134.26108166009055,34.68608000019191],[134.25693333300694,34.687352225225084]]],[[[134.24322111526237,34.705443054053774],[134.24319944160106,34.70586499976997],[134.24268888478423,34.70589389228934],[134.24289111533278,34.705365278884585],[134.24322111526237,34.705443054053774]]],[[[133.59026555131425,34.4827038287188],[133.58989564217018,34.48226955869325],[133.58992705638866,34.4822510002835],[133.59026555131425,34.4827038287188]]],[[[133.59962680942976,34.480718441303054],[133.59385700379778,34.48524113457074],[133.5938237999285,34.48521333292905],[133.59903830117673,34.481125558997405],[133.59962680942976,34.480718441303054]]],[[[133.59218403366629,34.486609972871975],[133.59217160773358,34.48679253165005],[133.59370533133608,34.48864355855346],[133.5936739953587,34.48866553168898],[133.59212914444447,34.48680705390245],[133.59218403366629,34.486609972871975]]]]}},{"type":"Feature","id":"JP-33-capital","properties":{"Kind":"capital","PrefectureCode":"33","PrefectureName":"Okayama","CapitalName":"Okayama","CapitalNameJapanese":"岡山市","PointKind":"prefecture-representative-point"},"geometry":{"type":"Point","coordinates":[133.935028,34.661739]}}]}
