{"type":"FeatureCollection","bbox":[135.09129805366229,34.27235166739558,135.74658861197497,35.05086917067575],"displayBbox":[135.09282669339723,34.27235166739558,135.74658861197497,35.05086917067575],"DataVersion":"2019-boundaries-v1","Attribution":{"BoundarySource":"MLIT National Land Numerical Information, via Fabio Crisci / piuccio","BoundarySourceURL":"https://github.com/piuccio/open-data-jp-prefectures-geojson/tree/513fb852832c99470e16b95a30ddd68bf3469dc0","BoundaryDate":"2019-01-01","CapitalSource":"Geospatial Information Authority of Japan (GSI), prefecture representative points","CapitalSourceURL":"https://maps.gsi.go.jp/","CapitalSourceRetrieved":"2026-10-04","Notice":"Simplified and enriched by Ashiato Kai. Modern geographic context, not historical immigration-era boundaries. See GEOLOCATION.md and THIRD_PARTY_NOTICES.md."},"features":[{"type":"Feature","id":"JP-27","bbox":[135.09129805366229,34.27235166739558,135.74658861197497,35.05086917067575],"properties":{"Kind":"prefecture","PrefectureCode":"27","PrefectureName":"Osaka","PrefectureNameJapanese":"大阪府"},"geometry":{"type":"MultiPolygon","coordinates":[[[[135.3493570039227,34.62006963970214],[135.35863593989677,34.62759127881452],[135.35329044070136,34.63241089224891],[135.34398172457702,34.6227253332076],[135.34567547264498,34.617279440893526],[135.3493570039227,34.62006963970214]]],[[[135.39883763904584,34.657239828555305],[135.39835975369976,34.65745536007688],[135.39829230904286,34.65735333289007],[135.3987701952883,34.65713772132881],[135.39883763904584,34.657239828555305]]],[[[135.39892658919075,34.65737358562251],[135.39921785981642,34.65773897297527],[135.3987938906256,34.65801074809758],[135.39844749695453,34.65766522497023],[135.39892658919075,34.65737358562251]]],[[[135.4003953313795,34.659590053837974],[135.40065352763827,34.660052531998815],[135.4002180543198,34.66024153172134],[135.39991338469497,34.65988338660907],[135.4003953313795,34.659590053837974]]],[[[135.40091697773641,34.66036261284438],[135.40041705630222,34.66058830580573],[135.4002807523549,34.660382198279876],[135.40077878071622,34.66015755932398],[135.40091697773641,34.66036261284438]]],[[[135.3796252791833,34.660918080904764],[135.37290007787635,34.652076162385015],[135.37893891120189,34.64318919772336],[135.39202396873122,34.642313134843334],[135.39534975428785,34.64442602723943],[135.40452344979747,34.6537181346842],[135.3997226070128,34.656945135109936],[135.3794676127402,34.66011038718466],[135.3796252791833,34.660918080904764]]],[[[135.40275594023456,34.67308274797051],[135.38804533112716,34.66783769405441],[135.3868493901873,34.66267966663338],[135.401997198412,34.66054486495358],[135.4097760310391,34.65904074793224],[135.41094968857738,34.6656441081891],[135.40938905276266,34.6687864950008],[135.40275594023456,34.67308274797051]]],[[[135.4075128268555,34.672365973011324],[135.40586189371152,34.67343502680512],[135.4058643317735,34.67433725186271],[135.40578247727956,34.67433686515426],[135.40578077756095,34.67342858586062],[135.40747724967537,34.67232808097623],[135.4075128268555,34.672365973011324]]],[[[135.3712455510414,35.04528889176902],[135.36762666743687,35.043992224961244],[135.3620386120923,35.04735027909214],[135.35947805426883,35.050111946009565],[135.34948444864847,35.05086917067575],[135.34908555075765,35.04619861267588],[135.3378950059498,35.04264972060815],[135.33374306089365,35.03964944106889],[135.3335797278222,35.035158054100975],[135.33801861236918,35.03047583818943],[135.3398027755777,35.02587722505393],[135.3465586122902,35.02667055929891],[135.3547191702536,35.02461138700596],[135.35576360600567,35.016517504779074],[135.35370778188872,35.0132011081447],[135.3546902723383,35.006598053657285],[135.3515102722813,35.00427805368929],[135.35355167307137,35.0008027747283],[135.35256277585154,34.9903888916341],[135.35573610923416,34.9857186133234],[135.35953277621672,34.98251555914578],[135.3522441631377,34.97952722530124],[135.34852416335957,34.97577527890604],[135.34874888505306,34.97196972122572],[135.345068611927,34.966846108161405],[135.3509477823144,34.963291386688184],[135.35424805410446,34.96261722520484],[135.36072527904844,34.954421946215916],[135.36392360638933,34.956235278935026],[135.36930333288262,34.95574638678636],[135.37315138802614,34.953548333089145],[135.37532693888716,34.9551327748577],[135.38188583666215,34.95622972112477],[135.38547749688905,34.95425861314453],[135.38753722406375,34.950983891993076],[135.38717055787504,34.946606666764296],[135.39235194608545,34.94136582886995],[135.3959566671665,34.94443944092751],[135.40729138768745,34.94366582881497],[135.410413332909,34.93992472104907],[135.4157558373621,34.94079389242427],[135.41848472129288,34.933894441175596],[135.4233705581048,34.93445610826285],[135.4253463938211,34.936427495032945],[135.43232389093487,34.93702110783789],[135.43498194606002,34.938298054311815],[135.43854805384967,34.9369416671243],[135.44159250269195,34.93937916171899],[135.45024999993757,34.9325911076935],[135.45281861208935,34.92971889161362],[135.45711805405506,34.92914166715428],[135.4610122183393,34.92627472110155],[135.46715250328543,34.92878666697118],[135.46852360607966,34.925432495213556],[135.46594250324404,34.92420305362805],[135.46540722406417,34.919588053945574],[135.46207639421027,34.91793555867912],[135.45671027176172,34.91790555909432],[135.45144861186407,34.91989666709753],[135.43930277570257,34.9205044406275],[135.43452472083925,34.91676805430234],[135.43029916987086,34.91634749534069],[135.4245052785958,34.91350805415345],[135.42256722429806,34.91064194626887],[135.41910027215988,34.90975333334973],[135.41996888505605,34.906478333408415],[135.42568250284535,34.906740829325884],[135.43108221767022,34.89724166736909],[135.43050306056784,34.893516386771864],[135.43260917027703,34.891738613246446],[135.4355897276838,34.89498361270364],[135.43946944166146,34.896016108156914],[135.4435791698429,34.898938892216165],[135.4458177820651,34.896520278887806],[135.44394306072377,34.891390278838344],[135.44093824860136,34.89045653164368],[135.4374311147542,34.87991916173996],[135.43751805401507,34.876814441233535],[135.4340127763686,34.87221249521053],[135.4348016733586,34.87008333317931],[135.43005749685608,34.86105555896694],[135.43135834011537,34.85641527934172],[135.4186372238289,34.8494691622721],[135.4206897276489,34.84682082881824],[135.42422861206092,34.83821999965329],[135.42379944209063,34.829947494980956],[135.4223822175653,34.82690861294219],[135.4161858374065,34.820457495317214],[135.41599055771815,34.817692775201465],[135.41973639411935,34.80882944112585],[135.42374027209598,34.80205333279514],[135.42910722371948,34.80152277505607],[135.44169583659368,34.78886305368701],[135.44249111517286,34.78433582873555],[135.44513027194455,34.780741946283854],[135.4461791701326,34.77528722532526],[135.44469666741736,34.768529161891365],[135.45040888496214,34.76632249538693],[135.45006944215106,34.7600327745929],[135.45935221823038,34.752031946117484],[135.46016834039665,34.7478850003925],[135.45933444942534,34.733487494752126],[135.4489869389961,34.734097225206824],[135.4456355506402,34.730033613360604],[135.44810610880995,34.721688892228656],[135.44581277643852,34.718086387077165],[135.43697888526742,34.714951387296765],[135.42957888485773,34.71134722469469],[135.42456583714375,34.70589666669787],[135.41286472113006,34.70199666671283],[135.40729749678212,34.69710082943976],[135.41026958527323,34.69212735998974],[135.4175726981216,34.687730532238334],[135.422259728104,34.67963297268358],[135.4088705324492,34.675501360399494],[135.40824727619088,34.67182472143378],[135.4166666671331,34.6732101351397],[135.4173936449008,34.663759198428295],[135.41436024602865,34.65205974795907],[135.4192057716291,34.65336316238012],[135.42353783380406,34.657138494745766],[135.4280071729927,34.65488794582211],[135.42813102492687,34.65114949465351],[135.4441218936106,34.64446013492733],[135.44992116732806,34.64667972109231],[135.4512384178188,34.64252697294148],[135.44709596600615,34.64126319793826],[135.44824466915622,34.63487686477555],[135.45266552499402,34.63493833343739],[135.45357425394877,34.62922455916612],[135.448145304862,34.630707891955694],[135.44846275025577,34.62500000014995],[135.4475677170766,34.617879649326426],[135.44291372189082,34.61812089156592],[135.44129916992085,34.62617591858384],[135.4312873925992,34.621806801642606],[135.43296099855127,34.61302491916473],[135.4266255508286,34.61304489220805],[135.42611739340305,34.61797594603314],[135.4234251361612,34.61898422544169],[135.42340547338392,34.610771414169506],[135.4375035281654,34.6107653869131],[135.43697379960122,34.60470997278708],[135.4465658372436,34.60186116156342],[135.44382786026756,34.59766074844481],[135.4333245782667,34.60079319774792],[135.43397613529044,34.60224858590357],[135.42354211367763,34.604917360048205],[135.42554936361228,34.593344775141304],[135.43680968861634,34.58902341399943],[135.4442983918574,34.589434693756175],[135.45177469524606,34.59190297304383],[135.45258603122045,34.58996808076239],[135.44938997376835,34.58697074830144],[135.45174700422092,34.57715091867999],[135.44942535669497,34.5680465321218],[135.44529741904068,34.567410586429446],[135.44150936396602,34.58294925170668],[135.43439269766498,34.58266241383939],[135.43375927367163,34.58668286542195],[135.4261898832566,34.58962369437802],[135.42942949397604,34.57070416186764],[135.42081710762352,34.56967905434493],[135.41576247705677,34.59372866694446],[135.40275722356705,34.59999058609674],[135.4020660046425,34.599672558841576],[135.40970407268492,34.56385539640945],[135.4105390401446,34.56074731513655],[135.43048724958692,34.56076966688664],[135.44478603125037,34.55722078381217],[135.44215021995672,34.54785497332841],[135.43194211433718,34.53233213521992],[135.41863169929354,34.519265135177875],[135.410364332448,34.52291249491577],[135.40647530509136,34.5169857746738],[135.40991508421382,34.51362027865298],[135.40527133590354,34.51035253174399],[135.40564830112828,34.51505619828498],[135.40102883271447,34.51676266726332],[135.39731272430288,34.51393702707219],[135.40049447533988,34.51081905415606],[135.3970157717605,34.50902927917792],[135.39269394297116,34.51221666716549],[135.38752457779708,34.514369054188535],[135.38418216557454,34.50987191875407],[135.3817431133541,34.511680864580285],[135.3860199220818,34.517465080948796],[135.38448983084106,34.51881661269658],[135.380783475577,34.530144946232326],[135.37833482489236,34.531893062814675],[135.3671613878878,34.517044639798314],[135.378581102436,34.508540072266555],[135.3737463552102,34.50727438710334],[135.37086464318884,34.502728612735325],[135.3708981447337,34.4956287754477],[135.37244306129833,34.49436422522888],[135.3702775621598,34.490189000322175],[135.37737211413184,34.48651161312051],[135.37581386511783,34.482347612652234],[135.3768789493041,34.478630801870054],[135.37431855965383,34.475884161724764],[135.36614369617473,34.48070219774826],[135.36380435808474,34.47761510755123],[135.3684851099,34.47142882857764],[135.37016927389288,34.46775313479941],[135.36211705635708,34.4684034678458],[135.35618141394116,34.46419430612241],[135.3575823607374,34.46093119791652],[135.36080486365358,34.46154686479605],[135.35346530487993,34.451353865088834],[135.35021749684006,34.451884865294346],[135.34650238667587,34.448035694092084],[135.34352136162158,34.45009010807206],[135.33715522723196,34.445763919369426],[135.3360942538468,34.441561694116956],[135.3324950582005,34.43496161278824],[135.32887457829918,34.43417891932171],[135.32489983116238,34.43693727943196],[135.32103688684288,34.43297158577013],[135.32497513589385,34.43031102693237],[135.32277230859518,34.42806727868202],[135.31799844367333,34.430926252244774],[135.31377221821333,34.42662066701024],[135.3196309209303,34.42265363965379],[135.31540581062973,34.421109332829474],[135.30954191972387,34.41706886503613],[135.30644053210494,34.419471973153065],[135.30210263332992,34.41581674794463],[135.29452836589144,34.41506719809274],[135.2933837996227,34.414051666551245],[135.29295474656442,34.40709897273945],[135.2863421655586,34.4010371617357],[135.28837472061696,34.39813544069807],[135.28695066124408,34.39625261286784],[135.28283291830462,34.39860086503796],[135.2772182493228,34.39378894620296],[135.27640836575358,34.39155089156043],[135.27247905326578,34.389248747631655],[135.26379041519556,34.381079081334576],[135.25708946770487,34.38167398196873],[135.2524049288445,34.37750373031298],[135.24720594000223,34.37495491943406],[135.2458303630808,34.371901224661826],[135.23495962438722,34.361125675609514],[135.22557014284791,34.34947761330125],[135.22151435780142,34.34646255880011],[135.21599875543825,34.34395055897119],[135.20279688676692,34.342574919097274],[135.19528263288726,34.338557278795406],[135.18263880703535,34.33626116212298],[135.17668177694247,34.33785816202459],[135.1709407001532,34.33505116208153],[135.1687464200113,34.335421802374356],[135.16381771701413,34.33151261311667],[135.15737717271838,34.33197100026149],[135.1529408953062,34.3311473058036],[135.1481357978289,34.323327494668206],[135.14333997416054,34.32107569388819],[135.1413195329701,34.31821838676916],[135.1301390533747,34.320480332801196],[135.13309756210288,34.32322438739561],[135.13055658881558,34.32617369426066],[135.12104669255086,34.32371983829995],[135.11012878081863,34.3218703330495],[135.10146160776708,34.31928655922735],[135.09923807987354,34.31523702716714],[135.09282669339723,34.3120118020031],[135.09708250295523,34.307944720572436],[135.10273111504898,34.31093444117158],[135.10591778178025,34.30885555933662],[135.10641277582897,34.30580082944476],[135.10313527936967,34.301854440629995],[135.09693416338098,34.29710361274158],[135.09977944206764,34.29268361305833],[135.09869693891267,34.28903638731947],[135.10907250279388,34.28266582916473],[135.10735693897163,34.27846389169531],[135.11029555109883,34.27378638733194],[135.11413221812745,34.27438638712209],[135.1170127763187,34.273066945882874],[135.12098693889618,34.273913612623176],[135.1259719457488,34.27739305364656],[135.13208778172577,34.27235166739558],[135.13661555076715,34.27350638701023],[135.13940444915602,34.279383053685024],[135.1429394422015,34.280423053980826],[135.14648221798006,34.28364833310417],[135.15482360622457,34.28088110837649],[135.15335306089514,34.27867389238628],[135.15740666688419,34.27708416170475],[135.17152444919407,34.28059416169128],[135.18066167269808,34.27988777480101],[135.18957861176364,34.282775828841466],[135.1916113880552,34.2864649998599],[135.1957983401213,34.28602666669735],[135.19850583727464,34.28799694640202],[135.20265277580506,34.287621946195884],[135.20435834006537,34.290549440904044],[135.20534944242286,34.30053444091175],[135.20846610862407,34.30282166688647],[135.20822500577947,34.30602138727727],[135.21143416275652,34.306445279126365],[135.2218119461644,34.30384805414445],[135.22500555116528,34.300861386743634],[135.2355233329355,34.30363555873407],[135.23622583655322,34.30541666694569],[135.24140861241756,34.30839638708363],[135.24659583722814,34.31328610806747],[135.25423639369467,34.31575333334973],[135.25792444865442,34.31567861317751],[135.26166583700888,34.312540829096065],[135.27273666676388,34.31220749537965],[135.27742778236632,34.3156224945825],[135.28281221770976,34.31791000024634],[135.28660277559766,34.312576387390436],[135.2869822175553,34.30675222493528],[135.29163555084006,34.299548053699766],[135.29755194596555,34.3007824946165],[135.3026436061176,34.30487805397905],[135.30449472115447,34.30992916190138],[135.30396749720228,34.31371472135737],[135.31316027182913,34.31409361292992],[135.32419861177652,34.319131945982576],[135.32809861176156,34.31861389241726],[135.3280280536518,34.324028613329915],[135.33444277571357,34.325609440723156],[135.3391355505653,34.32942972120475],[135.33871749711489,34.33404055882477],[135.34219944185088,34.33511055870537],[135.34619389133513,34.33050305397279],[135.35897722362006,34.333039721306136],[135.3617055508705,34.32934610763681],[135.36821888539328,34.33116499996481],[135.37413805402798,34.33096305360209],[135.38034472063237,34.32844416226834],[135.38677972780226,34.32912472062941],[135.3882430605688,34.332416108017014],[135.39113000034934,34.33300555875957],[135.3944486120139,34.330811107746456],[135.40542749688154,34.33385444142937],[135.409221387657,34.34193805429783],[135.41564027178117,34.33990277519297],[135.42478666657144,34.33997027920509],[135.42694416264305,34.341120000387775],[135.42869693861292,34.34556249481335],[135.43622138810667,34.34858833308516],[135.44148000020186,34.347368613171],[135.45341917035853,34.349861107604056],[135.45758500634304,34.347335000110206],[135.46348944228396,34.34825110800227],[135.4700941632151,34.350472775198455],[135.47163500585089,34.35230499997584],[135.4777397280061,34.35355389209849],[135.47928805390063,34.35811610787215],[135.48537610892038,34.36283249532346],[135.48869861195146,34.35636666658843],[135.5017450058274,34.350202224952795],[135.50235082962718,34.34542749488304],[135.50489527879415,34.34121722519484],[135.50349583656362,34.33654138727525],[135.50903834034716,34.33684222488881],[135.5120400003458,34.33832889236453],[135.52146555099444,34.34550138677963],[135.52706972758597,34.35118194638977],[135.53485944200975,34.35236194594711],[135.53828805425042,34.35645638655302],[135.54145833983057,34.35763055940282],[135.547874448647,34.35668777492094],[135.5515944493244,34.359665828615164],[135.5544394420267,34.359434720835736],[135.56078972766386,34.365369161757485],[135.56340306130232,34.369329161811436],[135.57244693877522,34.37191249496573],[135.5771208296626,34.376049441128885],[135.58343360637593,34.37688749506191],[135.58671972823288,34.37529972130517],[135.59498693859643,34.37538082936186],[135.59594972759794,34.37921361311783],[135.60136693873335,34.38008166663565],[135.6041152785973,34.377391387002945],[135.61326555126425,34.376581107731965],[135.61544944243792,34.378066386654496],[135.6177877822804,34.38327166715379],[135.61991111490613,34.3844824945715],[135.6319472238854,34.38304389226187],[135.6363577815864,34.381485279022456],[135.6389830609196,34.383467775117765],[135.64378805407546,34.38388527908239],[135.6511286119959,34.3832063871651],[135.65471472070783,34.38383472099565],[135.65988500588833,34.39167916186386],[135.6659125032595,34.39706110788387],[135.6755527760398,34.39945805384616],[135.6760438913126,34.40557999981718],[135.68017888504755,34.40890361261171],[135.67555639401246,34.4137366673134],[135.66942194566627,34.41367527869119],[135.6670519460905,34.41690944131773],[135.66532944220012,34.424240559054624],[135.66915221830027,34.42685777506631],[135.672227224307,34.42587389156688],[135.67400583689994,34.42875500014321],[135.67861194588465,34.432356667126555],[135.6815241629099,34.43790749503489],[135.6817327759469,34.44334527906142],[135.68673610918415,34.448757495362145],[135.68697805379418,34.451460828654376],[135.68240805438825,34.45604527926628],[135.68191834025924,34.46104138735018],[135.68335082987699,34.47612166728118],[135.68121194617447,34.48023499994537],[135.68480555073563,34.48359805430681],[135.68108221806995,34.488482224674954],[135.67897639434523,34.49305582856368],[135.68003472102566,34.49529861274084],[135.67830138839838,34.49949972103536],[135.67301250332446,34.50290138688956],[135.67683416336604,34.506659161790935],[135.67735306139468,34.51818916200028],[135.6758030609626,34.52231666708059],[135.67692749680657,34.525531387263754],[135.67255527900295,34.52947416170326],[135.66794888493314,34.53104861290319],[135.66283472104556,34.52962944134572],[135.66187194643328,34.534991667031875],[135.6597022177832,34.53857610840072],[135.65915805420093,34.54383722510789],[135.65365082992196,34.54140389167634],[135.65033527865023,34.54424916226907],[135.65577306087812,34.54919916211168],[135.65778027214196,34.56131916165003],[135.65692277576557,34.56227972123219],[135.6645166673104,34.567617495251284],[135.6733541629643,34.571631387178854],[135.67060027158539,34.57620110779493],[135.6715447207124,34.57991110801129],[135.67573999960132,34.57972610757383],[135.6808725033634,34.58259527944864],[135.6817588850646,34.58477833335343],[135.6777363938196,34.58816305418168],[135.6791072241192,34.59099916158209],[135.67645138762146,34.59620666700414],[135.6749074971833,34.601715278937036],[135.66953888541127,34.60295889203928],[135.66116861184207,34.601912494865815],[135.65228610871702,34.60394666690519],[135.6509872241811,34.60995333327975],[135.65679583735812,34.61173666731338],[135.65949444920955,34.62094361255771],[135.65888834032467,34.6231297205602],[135.6631961091132,34.62952082912301],[135.66264749658478,34.6402605590776],[135.6653099997568,34.643842225138656],[135.6642636061805,34.64997694597935],[135.66951666676084,34.65728055885074],[135.67115472071384,34.66106222514162],[135.6710536063389,34.666919720968394],[135.6738677819726,34.66974416236326],[135.6787047208462,34.67775944114533],[135.67837805380418,34.683169440617235],[135.67599250315152,34.68754638705616],[135.67309805403204,34.6901461076568],[135.67406360575092,34.698394441250514],[135.67340360589174,34.70225472087873],[135.67700916963759,34.704837494654726],[135.67968666720594,34.70880000021987],[135.68307888478273,34.71129222485632],[135.68752333343514,34.71135444085479],[135.68941027206643,34.71373889163658],[135.70169167293238,34.721680828907154],[135.70273639376967,34.72510361264165],[135.69968749688053,34.73256305374201],[135.70003805441274,34.73574194583421],[135.6975699999556,34.73965916244043],[135.69679333284614,34.74369499962461],[135.69903416279647,34.746289441204794],[135.69782778162687,34.749474161803164],[135.7022550055641,34.75071749521629],[135.70680221794805,34.74864555884551],[135.71019472060993,34.75590527940517],[135.70894360626244,34.75907833309867],[135.70857472144633,34.768758891909386],[135.70661500607775,34.77233749487954],[135.711968885156,34.78133194561286],[135.71562749721124,34.77993638665498],[135.72023333280208,34.774621946445734],[135.72775277577,34.77657861311258],[135.72863472111555,34.77799805356739],[135.73229444922947,34.782748612558464],[135.74067444896673,34.78836722506742],[135.73948138765593,34.791176666669855],[135.7430602721139,34.79365166659119],[135.74658861197497,34.801244441178085],[135.74290833974817,34.80543166663813],[135.7418819461949,34.808396108193904],[135.73681360636294,34.8147063865905],[135.73508527936224,34.819889999723785],[135.7318750063265,34.82266944084205],[135.72426888490122,34.823218333059685],[135.72315216613958,34.82683725173786],[135.71935221843023,34.83106166686247],[135.71568693880124,34.837862494858314],[135.71216555069964,34.840051108371995],[135.71017111520484,34.84662972108481],[135.70530360567693,34.85099027917812],[135.7022566666119,34.85173000033927],[135.69565250326048,34.8481688918809],[135.69164277609332,34.85329222525604],[135.69187778243372,34.85894138683557],[135.69106000011902,34.8684841623143],[135.68255221841025,34.872151387176814],[135.68351861189444,34.87763277483276],[135.67992221763632,34.88134138739514],[135.68269444888972,34.887842224938765],[135.67921167318025,34.89032472070937],[135.6746372239288,34.90017805367427],[135.66881083025567,34.90382222531548],[135.662032775792,34.9036969461572],[135.65408583739156,34.909344999771974],[135.64850221840277,34.90954749472115],[135.64953693877874,34.916764721414836],[135.65231972807305,34.9170750001112],[135.64853555087507,34.92598610797256],[135.64488749686052,34.927590558757345],[135.64276500600033,34.93066222468195],[135.6365738913721,34.93103777527318],[135.63297306075822,34.93462222473596],[135.6237502721574,34.934908053563845],[135.61911138827998,34.9319633332413],[135.61519944170095,34.927624721303914],[135.60765306133976,34.92833805365831],[135.6053711152848,34.92738972125869],[135.60111111488607,34.92971694638004],[135.60344805358488,34.935820000292836],[135.60761944198373,34.93692361323423],[135.61080138817363,34.939740000300844],[135.61152306084068,34.94389833324152],[135.61879250307163,34.958816387166564],[135.6156666673828,34.962804161882616],[135.6132636060306,34.971195279038966],[135.6076438909529,34.969329441200784],[135.6033188848587,34.97114861321796],[135.59598555119226,34.968870000050515],[135.59209666682773,34.96611194570977],[135.5892422177542,34.96722110836748],[135.5846674969075,34.97513999961137],[135.57703583743398,34.97392416207049],[135.57092666723202,34.969788332865335],[135.57123111472424,34.963915559355655],[135.57383194598754,34.96086166673257],[135.57836027170924,34.960461945962095],[135.57857778173934,34.955885000192666],[135.5743391699168,34.954847224819616],[135.56313138780342,34.95366389237478],[135.56124360560796,34.94666277456747],[135.56231000010644,34.94364833340393],[135.55718666673135,34.938691666886996],[135.56184360629743,34.9377647212649],[135.5623941631602,34.94159527919885],[135.5660166674353,34.940127775376595],[135.56468389104884,34.93302416183565],[135.571915550962,34.93908166688544],[135.57645972813395,34.93876555878359],[135.58105333294498,34.937035828840465],[135.58058416292886,34.93043416200703],[135.58125805371628,34.922451667110806],[135.57398138813062,34.91833972120122],[135.57267472086176,34.916502774983144],[135.56740944209218,34.91628805375075],[135.5627374973377,34.91779082898364],[135.557815550947,34.91746889237555],[135.55332834043065,34.91554833258954],[135.54431000010652,34.917450828592905],[135.54106027201397,34.91530972086696],[135.53600722425404,34.92091638678187],[135.53699360607015,34.925525000378514],[135.53025610923214,34.92725249460699],[135.52256277605136,34.930284162284295],[135.52124527914634,34.933288054400236],[135.5172713881641,34.933479720612695],[135.51502111533227,34.936922495376905],[135.51470221843272,34.94372582888394],[135.507668885111,34.944602774898215],[135.50402888542476,34.94628694608576],[135.4996747206119,34.941344999672026],[135.49461167329014,34.94084305386389],[135.49041778205503,34.94179444126053],[135.48834194622395,34.946386386822326],[135.48404805397456,34.94766666708307],[135.48085944200966,34.95029138703791],[135.4847755506512,34.95456027903373],[135.48435444939844,34.960467494779095],[135.48116583743354,34.96239944088154],[135.48193639364968,34.9652297206751],[135.48845555128275,34.966571667448534],[135.48672194616097,34.97379999987015],[135.48316277574156,34.98186833325701],[135.4866788848227,34.985291946166456],[135.49305583715727,34.98767000007052],[135.48744917034298,34.99225055931589],[135.48298389069407,34.992773053733515],[135.4818855513771,34.995145558820525],[135.47657833991855,34.99417638733047],[135.47122167294197,34.99480472116102],[135.45987306059328,35.00158694578096],[135.45196972762085,35.00175138681709],[135.44679055803783,35.00545055919599],[135.4361883398201,35.008406666734345],[135.43348693917096,35.007920279197606],[135.42281778171537,35.0021094410979],[135.41810389078205,35.003221666846514],[135.4134394418768,35.00907694584441],[135.4097672239783,35.01152555875757],[135.40324722368052,35.006691945576904],[135.39747389090735,35.010641667279174],[135.39415555083804,35.008750000012526],[135.389063605601,35.01140805423836],[135.38155083020672,35.01037527909591],[135.37769306058635,35.02063861298166],[135.37997555073116,35.022118333194555],[135.38168888513405,35.02619250488027],[135.38190444903114,35.03190944116784],[135.37990221821292,35.035178054123946],[135.3800444486924,35.03910638725],[135.37597527903597,35.04413500043],[135.3712455510414,35.04528889176902]]],[[[135.43005691319604,34.64978002682682],[135.42917055757528,34.65018002728647],[135.4291465888441,34.650144585903945],[135.43005691319604,34.64978002682682]]],[[[135.45132680858546,34.63284755896774],[135.45271978019377,34.63249097327986],[135.4527515820199,34.63262633293897],[135.45132680858546,34.63284755896774]]],[[[135.44386511018672,34.62520772105955],[135.44338822308805,34.625254666569674],[135.44338308705983,34.6252095592738],[135.44385907933315,34.62516461295655],[135.44386511018672,34.62520772105955]]],[[[135.3896586636165,34.62827635986616],[135.39944160844357,34.620655467975496],[135.40266518784824,34.61211163964049],[135.417023113426,34.6120864945961],[135.42042756178262,34.61291636020189],[135.41842958475763,34.619546387156106],[135.40596949399696,34.61972291867778],[135.3995011147847,34.62071889176349],[135.3896586636165,34.62827635986616]]],[[[135.41691289161668,34.64467716202148],[135.40181150459728,34.63963177468668],[135.39850900068984,34.638168612791276],[135.39850321714982,34.63133810806727],[135.40449749716186,34.63154338731755],[135.41228306121434,34.63720208081145],[135.41480296968132,34.63482302686123],[135.40748408632157,34.62950033267424],[135.41042983097202,34.625865747806074],[135.42056946760692,34.62585366721305],[135.4221015301615,34.621950613130366],[135.43179033665479,34.62441677541392],[135.4406957203313,34.627935613038176],[135.44169600476687,34.629206829032],[135.43930046714286,34.641212801729466],[135.43234680925787,34.6440203061922],[135.42421883283293,34.642655000427965],[135.41691289161668,34.64467716202148]]],[[[135.43892050627642,34.603993278766836],[135.43895788569796,34.60393535972912],[135.44300830089242,34.60273291938876],[135.4430268871812,34.60277577478223],[135.43892050627642,34.603993278766836]]],[[[135.4224528916876,34.60075797310202],[135.42104581061574,34.6015983868561],[135.42152758822772,34.60102225237512],[135.4220584436423,34.600697305736105],[135.4224528916876,34.60075797310202]]],[[[135.40526190741116,34.54723393659697],[135.39916586281436,34.536489558946016],[135.40109389057068,34.53425800010666],[135.40438642009724,34.536202468369254],[135.40738564203377,34.53503822493417],[135.40459858635575,34.53013641436411],[135.41771450142312,34.524241918629684],[135.42146858640615,34.52481399986624],[135.43066924808738,34.534003251848674],[135.44081396858985,34.54925777542604],[135.44095866411112,34.55425855908527],[135.43679114099837,34.555532026981496],[135.43492810634712,34.55269677483636],[135.43066289167916,34.553816107927105],[135.42023167325317,34.5379781977357],[135.41132535697966,34.54199858636571],[135.41587652368264,34.54998719755116],[135.40945010413907,34.55443360402768],[135.40526190741116,34.54723393659697]]],[[[135.3955618288154,34.600000000199884],[135.39518786013173,34.60174100044685],[135.3894244486794,34.60444405404991],[135.38942510968116,34.604353639808664],[135.39511247715916,34.60168616158717],[135.3955618288154,34.600000000199884]]],[[[135.3675187164157,34.47091889229307],[135.36707866374945,34.471488360099784],[135.36693033676568,34.47140897334549],[135.3673694937072,34.47084310822294],[135.3675187164157,34.47091889229307]]],[[[135.36951763862817,34.47905127899338],[135.3690029179504,34.47932738704935],[135.36898697836648,34.47930566662325],[135.36951763862817,34.47905127899338]]],[[[135.37266228273825,34.48397522457702],[135.37306108889823,34.48530089182276],[135.37301941611327,34.4853086943408],[135.37266228273825,34.48397522457702]]],[[[135.3736095854141,34.48710910829874],[135.37356221812195,34.48710886458247],[135.3730987552035,34.48557669410917],[135.37314058357117,34.48555905390725],[135.3736095854141,34.48710910829874]]],[[[135.35478011730868,34.4887038652912],[135.35474341058,34.48271219780975],[135.35217156896283,34.47933123434905],[135.35305223097578,34.47923624255861],[135.35056376100886,34.47582565812769],[135.35173261976468,34.47430104465752],[135.34910177722531,34.46806791909921],[135.35108763858375,34.46569680166613],[135.35486666716304,34.46742125168947],[135.35957088229043,34.47370230571687],[135.35294518826993,34.48016610827932],[135.3548360047779,34.48270853217309],[135.35478011730868,34.4887038652912]]],[[[135.36697380010082,34.492317135327596],[135.36684155569333,34.492239639847526],[135.36426464279907,34.48368299977068],[135.36434708185243,34.483679828761126],[135.36697380010082,34.492317135327596]]],[[[135.4011088588868,34.52742028821581],[135.39753114084954,34.53161297256071],[135.3946422828152,34.53249130622885],[135.38835739317926,34.52400486543223],[135.3950432563413,34.51732258606853],[135.4004298311719,34.51932582862412],[135.40269494191807,34.52556269356353],[135.4011088588868,34.52742028821581]]],[[[135.3345430869939,34.440393973003495],[135.33503992195494,34.44143958596817],[135.33498722438094,34.44145733318942],[135.3345430869939,34.440393973003495]]],[[[135.3390746691607,34.46929833285185],[135.34078671933173,34.466929161551604],[135.3280728021182,34.44979422482368],[135.33300894880404,34.44472669438147],[135.3421269133264,34.45084413474905],[135.3459686642226,34.45468597287942],[135.3472077564329,34.458686026938665],[135.3390746691607,34.46929833285185]]],[[[135.31290978006234,34.421732359760654],[135.31264082971063,34.42164377474046],[135.31198233531654,34.42123849526041],[135.312046251933,34.42116686515874],[135.31290978006234,34.421732359760654]]],[[[135.31449092131902,34.423191532263445],[135.31361652398346,34.42251555864618],[135.31367005163168,34.422475440789015],[135.31449092131902,34.423191532263445]]],[[[135.31788566778937,34.43588191871561],[135.3177833330344,34.435944748051725],[135.31528050629038,34.43341197298423],[135.3154004407778,34.433406333335654],[135.31788566778937,34.43588191871561]]],[[[135.25890396864327,34.44415266701202],[135.25891680916345,34.44409027924303],[135.2595376390509,34.44346208121016],[135.25956252868787,34.44347627880728],[135.25890396864327,34.44415266701202]]],[[[135.24160424104298,34.43730009022704],[135.23305749710585,34.43159497282977],[135.2321159662789,34.43327549456848],[135.25241521439068,34.44692681112349],[135.2454594421996,34.45126877483415],[135.24158255479108,34.455224414075474],[135.23577761264676,34.45038769373713],[135.20810080400895,34.43180991889267],[135.20116450124078,34.42809180229489],[135.20617094703164,34.42310672079856],[135.22162594028498,34.43348722465572],[135.2258995851978,34.429101278701125],[135.21912275021486,34.422223721447665],[135.22768717302472,34.41347582884646],[135.23377839185935,34.41848580177839],[135.25651788559196,34.43375833338041],[135.26513252924292,34.43779905388328],[135.25959374775334,34.443453026835755],[135.25175900067745,34.44412241381838],[135.24160424104298,34.43730009022704]]],[[[135.19403769058704,34.33889780169227],[135.19380632919876,34.33919019826908],[135.192923553779,34.338785360356155],[135.19296180284493,34.33846844106574],[135.1940541122076,34.33854372061626],[135.19403769058704,34.33889780169227]]],[[[135.09140603076378,34.313896027379826],[135.0913105578361,34.31380172087279],[135.09129805366229,34.313391450155336],[135.09156372238795,34.313180008750464],[135.09162470811384,34.3132340004488],[135.09136989600393,34.31341057693663],[135.09140603076378,34.313896027379826]]],[[[135.13892997403912,34.32216510833314],[135.13790094727096,34.32160036016853],[135.13801972792817,34.321526747961116],[135.13892997403912,34.32216510833314]]],[[[135.1195277304205,34.324676494824416],[135.1185787675961,34.32423495467947],[135.1186926721292,34.32421202736322],[135.11950044139235,34.324590990881575],[135.1195277304205,34.324676494824416]]],[[[135.1450345532021,34.3228815316574],[135.14426823639008,34.324580865414646],[135.1441865113984,34.32459264923142],[135.1449669133924,34.322854802007555],[135.1450345532021,34.3228815316574]]],[[[135.1706694286513,34.338009242732426],[135.1699542670758,34.33769128832233],[135.16999542185135,34.33762726108927],[135.17066171156875,34.33792388268108],[135.1706694286513,34.338009242732426]]]]}},{"type":"Feature","id":"JP-27-capital","properties":{"Kind":"capital","PrefectureCode":"27","PrefectureName":"Osaka","CapitalName":"Osaka","CapitalNameJapanese":"大阪市","PointKind":"prefecture-representative-point"},"geometry":{"type":"Point","coordinates":[135.520035,34.686344]}}]}
