{"type":"FeatureCollection","bbox":[129.73688555062768,32.95236777455318,130.54195916968,33.61767416163332],"displayBbox":[129.75896749695244,32.95651141437031,130.54195916968,33.5534680543073],"DataVersion":"2019-boundaries-v1","Attribution":{"BoundarySource":"MLIT National Land Numerical Information, via Fabio Crisci / piuccio","BoundarySourceURL":"https://github.com/piuccio/open-data-jp-prefectures-geojson/tree/513fb852832c99470e16b95a30ddd68bf3469dc0","BoundaryDate":"2019-01-01","CapitalSource":"Geospatial Information Authority of Japan (GSI), prefecture representative points","CapitalSourceURL":"https://maps.gsi.go.jp/","CapitalSourceRetrieved":"2026-10-04","Notice":"Simplified and enriched by Ashiato Kai. Modern geographic context, not historical immigration-era boundaries. See GEOLOCATION.md and THIRD_PARTY_NOTICES.md."},"features":[{"type":"Feature","id":"JP-41","bbox":[129.73688555062768,32.95236777455318,130.54195916968,33.61767416163332],"properties":{"Kind":"prefecture","PrefectureCode":"41","PrefectureName":"Saga","PrefectureNameJapanese":"佐賀県"},"geometry":{"type":"MultiPolygon","coordinates":[[[[130.0390263286023,33.4700144676936],[130.0355396633248,33.46576341375061],[130.03642046743073,33.46181727944395],[130.04070241218665,33.45773689164429],[130.03827230911986,33.45314553244043],[130.02664968863223,33.447605667267794],[130.01615092122813,33.44609322522223],[130.0082542540307,33.44604438663919],[129.99890985730417,33.44678574816379],[129.99307933934006,33.44819561263745],[129.9855416599197,33.452210775307094],[129.9738907260762,33.454928000426946],[129.9707253831699,33.45477555904489],[129.96305513558605,33.45943827855376],[129.96611830111874,33.46109146809681],[129.95997024603014,33.4687145588299],[129.9669322442278,33.470094332887186],[129.96669616139877,33.472133720994464],[129.97114946837337,33.47547355935734],[129.96902966288872,33.47955197314508],[129.96521664083537,33.48317846771215],[129.95966077762284,33.48313149522238],[129.9566324122561,33.47618322517576],[129.94771152966348,33.472441081390855],[129.9424941119138,33.474556613297125],[129.9374194939146,33.48163786519535],[129.94562968905893,33.48475453229588],[129.94635846996744,33.48754241355158],[129.9439576650143,33.49302533275295],[129.95138291838703,33.499989919199436],[129.95347422795328,33.503623945588686],[129.95832674398412,33.50584210812684],[129.96166805363782,33.50453394618472],[129.96472693929684,33.505756864987404],[129.96929399522173,33.51146497263045],[129.96829050560245,33.513396585983685],[129.96049202278869,33.514564081367325],[129.95706450142563,33.51751382890012],[129.9579523085523,33.52067464012259],[129.95587705638115,33.52508505393217],[129.95788871569175,33.52898794613685],[129.95275413719378,33.52968108061742],[129.94924466870657,33.527966801926425],[129.94594072588382,33.528372972634656],[129.9413480293881,33.53123519814591],[129.92951089541157,33.53683655896009],[129.92894433241509,33.53878825237598],[129.93063457762378,33.54524855927366],[129.9328663549984,33.548751612896694],[129.92810885863696,33.55064002731547],[129.92846977995646,33.54601558565082],[129.92261452703883,33.54434533327054],[129.91935472114358,33.542116666650884],[129.9141382234003,33.54237764001613],[129.9101174714442,33.545376279192],[129.90925216625453,33.54935338704922],[129.90530080418887,33.54866246759883],[129.90602005228368,33.54502627923944],[129.90104805412443,33.54544189192984],[129.89765335891548,33.54924080182161],[129.89091972826293,33.54609477455426],[129.89105900087225,33.54162280215064],[129.88610131002747,33.541673081447584],[129.88192108938688,33.534322441227744],[129.88319686134616,33.530781919150286],[129.88225333312494,33.523164999565154],[129.8800879122274,33.52280161320391],[129.8742805581013,33.516133613275656],[129.8742227757606,33.52019777460765],[129.87800972826642,33.52351305428408],[129.88064236135597,33.52822925197847],[129.87760722409416,33.53669027883336],[129.87324333311335,33.53617027913515],[129.86575778199608,33.53931027914609],[129.86493693928833,33.54185805400601],[129.85842333317032,33.54380305376799],[129.85941221779967,33.547129162181136],[129.85802583732254,33.55142444118508],[129.85140055788952,33.5534680543073],[129.84970888455746,33.5488991619668],[129.8472866667463,33.5474391620877],[129.84809416261555,33.542613333438624],[129.85098111498655,33.5414183331896],[129.8519241629698,33.539724720919196],[129.84807416259264,33.53788389232784],[129.85645277557524,33.53319722477215],[129.85114944199324,33.52341305416917],[129.84806778190273,33.52227416172326],[129.84882805437132,33.51561666677583],[129.8524080539886,33.51343499962559],[129.85707527910097,33.513491666807056],[129.85464966275185,33.50680382873378],[129.85211888507854,33.50739749459876],[129.85045263288282,33.51239344979791],[129.84314360609255,33.51746166732215],[129.8404574966163,33.51650166711829],[129.83776610901873,33.51861555866117],[129.8307477817848,33.51979361298493],[129.82861444869786,33.51749333335073],[129.83312306128028,33.5118619459721],[129.83334627840804,33.50741822487123],[129.8296374967731,33.505209441362695],[129.83329610882845,33.502627774652126],[129.83417666741934,33.499752775170464],[129.8403680536428,33.4946961076393],[129.83673805441776,33.487220828578415],[129.8444908300878,33.48093722497299],[129.83449972817994,33.47603638657006],[129.8351383268723,33.4720563873924],[129.84297000006552,33.471058891754524],[129.84814688716915,33.47551261331648],[129.84918634157646,33.47310415333408],[129.8530366666089,33.47056582944953],[129.85262644625357,33.46823241429456],[129.85721791157744,33.46479446799037],[129.856690142636,33.458613612828],[129.85062083038713,33.452811386636256],[129.85265041498474,33.448582197910184],[129.84327499434562,33.44490055871387],[129.84162639404292,33.449394999779486],[129.8349394418019,33.450841667209204],[129.83652616065388,33.45636246765383],[129.83891758837603,33.45837416203801],[129.83926639402887,33.46221389215742],[129.8373705584046,33.46426582940455],[129.82603221811246,33.46841694618519],[129.8236522180755,33.47355749528225],[129.8266097276569,33.47931499998731],[129.8154749938759,33.48340944059328],[129.81284333295355,33.47948749535169],[129.80643333323178,33.48566416237122],[129.8038186119395,33.47907389174674],[129.79994360591274,33.4745830542646],[129.7963230612603,33.47558444126901],[129.79377527920587,33.47229222470645],[129.7947366670636,33.468244720617406],[129.79851499417168,33.46363361320073],[129.8062100261718,33.46192009893349],[129.80841308729418,33.45881338732801],[129.8035228024354,33.45499905406314],[129.80080858644715,33.45477055881429],[129.79753360629093,33.457697774732594],[129.79048194568531,33.459078612687904],[129.78449221804146,33.456034440836845],[129.783289740829,33.45068088281653],[129.78849690001198,33.44684771235211],[129.7914289749673,33.442363748388345],[129.79568802927918,33.44373569384726],[129.8017666665985,33.44041833313963],[129.80275472115352,33.43611749542612],[129.80786360602065,33.43474222517358],[129.81163412521482,33.43513492763486],[129.8154099998717,33.427048613203],[129.81890749658373,33.424471261439635],[129.82499250290175,33.42401027885131],[129.8272296887992,33.42027141399461],[129.82342749728127,33.41933722523282],[129.82212917032507,33.41443833296273],[129.82380138772396,33.41189027931301],[129.8282163943711,33.41189666719748],[129.83315194570582,33.41397666688971],[129.83797861162373,33.41074610784665],[129.8378261090877,33.40775916165603],[129.84262583671307,33.408288332640495],[129.8472597275545,33.40578582875304],[129.8549646431038,33.405652414327506],[129.85997610891036,33.40658277467537],[129.86054236074142,33.41232058602628],[129.8640827757995,33.410657225150885],[129.86866333324633,33.400945000311594],[129.86578221837476,33.39862666678732],[129.87182535675493,33.393630440892196],[129.86898800289407,33.39177308096299],[129.86476674438984,33.385158197692704],[129.86689189364608,33.37594761289205],[129.86280822332094,33.37592877479318],[129.85914027180615,33.369755161871296],[129.85388608257676,33.36572455874142],[129.84928505835887,33.36501922495734],[129.8510461350711,33.35932027870797],[129.8454429441366,33.35399691902262],[129.8508668606172,33.3516971349149],[129.8478281971137,33.349231162388264],[129.84397975436218,33.34862133300817],[129.84474972781777,33.345769559417704],[129.84782542180585,33.3435611617183],[129.83696891128625,33.33845674828035],[129.83282308701587,33.33941989161474],[129.8304845007592,33.33585638736241],[129.83335422841492,33.3289113872508],[129.84097783356026,33.33235994555508],[129.84683416296627,33.32782644063775],[129.84181019478467,33.323398467565255],[129.84311963736138,33.319604693701706],[129.84104102532308,33.316858558975355],[129.83774325634624,33.32274086529873],[129.83612085599282,33.31886119808587],[129.83609552478867,33.31175733273477],[129.82823958518873,33.31243405368866],[129.82819980457737,33.30978533262703],[129.83107866394926,33.304222414233095],[129.83892856010505,33.304409892302715],[129.84660953300363,33.30088633323771],[129.85361413658325,33.29370849505108],[129.85094224358977,33.28978555875659],[129.84779919577636,33.29248499978297],[129.84406313860302,33.293177332967616],[129.84242561614928,33.28681666735537],[129.83782044066083,33.288141613344806],[129.83552503175486,33.29155841388973],[129.83136581118333,33.293662613438926],[129.83128274979913,33.29660219773331],[129.82138944196925,33.31051025184672],[129.81810683466279,33.31224664037023],[129.81783691304315,33.31495333263024],[129.81312002556876,33.31692819797803],[129.80912036271468,33.32242861259044],[129.8072801690446,33.32690953234908],[129.80433377418444,33.32881994598375],[129.80281655044348,33.33200180224145],[129.80718496771215,33.335772198228426],[129.80415442328808,33.33835974830379],[129.7941994156705,33.33725046783485],[129.79081434500608,33.34039906266668],[129.7821066673888,33.337099999565396],[129.77657944218754,33.33285722478115],[129.7758316604029,33.32979138736266],[129.76911055820574,33.319055829363094],[129.76994221795906,33.31709472094468],[129.76635111531175,33.31155999989414],[129.7669255509735,33.30809110791836],[129.76434999965284,33.30639444065099],[129.76156722384837,33.29661527927175],[129.75896749695244,33.290851107892365],[129.76386194567237,33.28987805402903],[129.76824972804263,33.28578944102992],[129.7724716601391,33.280264161961554],[129.77616666685822,33.27248972072408],[129.7800991701406,33.26716333302147],[129.79094999964286,33.25736138731821],[129.79839972806508,33.253312494675924],[129.8031483274334,33.2495469460348],[129.81004749719432,33.24264610803152],[129.8136038914065,33.24302055875182],[129.81544250316904,33.23910389163137],[129.81252138825153,33.23188582856818],[129.80991360612813,33.23036361269061],[129.8130747213214,33.221206107675755],[129.80959693864781,33.21861944073464],[129.80689666664796,33.211169440717185],[129.81003277619175,33.20234722544416],[129.81410527873572,33.19859194616146],[129.8169891698144,33.19226638738394],[129.8156361092191,33.18884749501592],[129.81714778234436,33.184535558769085],[129.82111832694932,33.18185166702085],[129.827793061001,33.179714161979064],[129.8301491696485,33.177083612618674],[129.83733055835864,33.174194440720896],[129.84286778222247,33.17684666733987],[129.8483780543038,33.17752944073118],[129.8534849939374,33.17633805395809],[129.85777194611853,33.17092833327604],[129.86312972825442,33.17102055875182],[129.86936610935857,33.16907861308755],[129.87436666728797,33.164669999720786],[129.8789825033399,33.162038053713275],[129.8860738905977,33.16145638660299],[129.88812444918403,33.15616722543717],[129.89100277615728,33.15851333272417],[129.8951699997957,33.15972582928367],[129.89873916977695,33.15793416213194],[129.90594027162626,33.158098053682295],[129.91153165985827,33.16216638696926],[129.91407722418467,33.16258916186041],[129.9177463942807,33.16003749473464],[129.9200908297281,33.16200861260745],[129.92800888460238,33.164022774731336],[129.9336463936662,33.16327249462995],[129.93861527927174,33.1653749998564],[129.9433319464123,33.164271386915004],[129.9414469386254,33.15994555884055],[129.9433383271022,33.1542952794037],[129.9448772236051,33.14626361317528],[129.94741444941735,33.143243892092016],[129.94885360570936,33.13407082880576],[129.95342832655604,33.13239582890441],[129.9562847208632,33.128627495062915],[129.95669277565116,33.118226667426825],[129.9512852789925,33.10996416231632],[129.940726667102,33.11286472142979],[129.93284221809392,33.11108222466498],[129.9296430606788,33.1075747211965],[129.92527250302362,33.105900000085],[129.92676306096655,33.10185582888346],[129.92235666712656,33.090493332801145],[129.9280016603484,33.09001972103334],[129.9330744491266,33.088344161753696],[129.9351433331983,33.08114333329826],[129.93967027216536,33.07776361270061],[129.93883306089708,33.07416389185016],[129.9425719464382,33.07169389215943],[129.95474666702512,33.06597027930502],[129.96402861213085,33.064351108416986],[129.9780374973327,33.057416667245434],[129.98328805420044,33.05679916215166],[129.9875861094115,33.05133166722271],[129.99412306103045,33.04798333296452],[129.9963936063799,33.04450610787063],[129.99377165993417,33.041586108112426],[129.99449917010065,33.037126666862264],[129.99969703029376,33.0317621083347],[129.99919619964498,33.02922100014911],[130.00110221829277,33.025694720634874],[130.0060747209717,33.02464833335398],[130.00820250344282,33.01982166743608],[130.01495194597555,33.017478892137206],[130.02738250300013,33.020314162268846],[130.02924832734845,33.01614916175447],[130.02801389092838,33.012445559315154],[130.0313816604354,33.01022055923147],[130.0379158367465,33.00867027911016],[130.04236583691386,33.00397166675907],[130.04707250269394,33.00154444062349],[130.05403236140444,32.99167764031091],[130.06122693867235,32.985851108142185],[130.06490861204293,32.98705805408599],[130.06948778183573,32.986438333062665],[130.0760605579485,32.98756082906908],[130.07743888499658,32.98475027860252],[130.0817769393543,32.98275138696698],[130.08580499380548,32.97921666731537],[130.08615250263597,32.97538277469533],[130.08886610888385,32.974057225260765],[130.09504610879094,32.97537916211871],[130.1030261089678,32.97473999955139],[130.10919083029262,32.97175916155612],[130.1145113876904,32.97240638744489],[130.1191972242725,32.97036249463349],[130.12271027206145,32.970891667416595],[130.13091972796315,32.968320558746825],[130.13904861180401,32.96861749510134],[130.14405610890242,32.9716844413839],[130.1468247212839,32.96936055904263],[130.14966250322198,32.962790828933635],[130.15507666655503,32.963363054061745],[130.16165666692166,32.96123027855458],[130.1676694423909,32.96108805437024],[130.17306083039307,32.96214777499989],[130.17819138802224,32.960376946039275],[130.18741778200513,32.9588969461372],[130.19303916982187,32.95945305361556],[130.20116111539323,32.95906194565231],[130.20358641967755,32.957120386696545],[130.21031230896597,32.95651141437031],[130.21387610909517,32.95931777489545],[130.21866917004627,32.95995555880205],[130.22437477307733,32.96215435983589],[130.2250016598988,32.96682944142566],[130.22268306107446,32.97376833334198],[130.21523944174692,32.97992166655172],[130.20935555081803,32.97953389237529],[130.2080919457867,32.98202389208899],[130.21012082981247,32.98607305362856],[130.2007830610895,32.99161249522052],[130.19566221793707,32.98856999970576],[130.19105121933842,32.99142408095662],[130.1933980541769,32.99418889190389],[130.1924688854308,32.999510279375954],[130.18942666690725,32.999783891813195],[130.18746105108676,33.00531089218396],[130.1879780542439,33.01096861261141],[130.18287383865675,33.01293380215327],[130.17896360618556,33.02964361316225],[130.17149221759178,33.03545582902336],[130.17088888491412,33.04149833338141],[130.16894805440927,33.04450472111603],[130.17002404737195,33.04905118886131],[130.16505221828527,33.054803892086],[130.161533332997,33.054912495115616],[130.15912306088057,33.05740277541781],[130.15896083037808,33.060577775244155],[130.1558522176058,33.06188222478488],[130.15309138795726,33.06585582888346],[130.14987277640762,33.06724055910456],[130.14911944220853,33.07137499975647],[130.14505666673188,33.07268722483559],[130.1461794424274,33.07686777462817],[130.14293099856684,33.0795235859448],[130.14300208817588,33.083081386696676],[130.1456574453349,33.08619322533713],[130.14049588807484,33.09445580239344],[130.13572469503868,33.0954091350236],[130.13046308730168,33.09180910840371],[130.1292120233163,33.09410827917378],[130.1352404406938,33.097832747683185],[130.13199693860793,33.10428110798682],[130.1276568868559,33.10357900007085],[130.128679468183,33.112108972551084],[130.12605863779595,33.117184559120176],[130.1306312452358,33.1180382252839],[130.132846939135,33.11689055905214],[130.14888055799145,33.112439720716566],[130.14984882026693,33.11260140533062],[130.16882111510245,33.129736252126406],[130.19225683518482,33.14159964001141],[130.1901248124102,33.14607169425335],[130.22221778242476,33.16502733274524],[130.22334489015464,33.16639408102208],[130.2322097665675,33.183253648936784],[130.2316166672755,33.1886032337523],[130.22951166013502,33.19040690055806],[130.23344661496935,33.194207558731875],[130.24672114076805,33.191744586343646],[130.24750082959963,33.192370027055176],[130.24642972804952,33.202901197931965],[130.25389669287813,33.20242944056628],[130.2591131906213,33.197165134863155],[130.25548544689593,33.197109558559305],[130.25141961102634,33.19018053220583],[130.2599895331905,33.1799935588557],[130.27858447519338,33.168888532379924],[130.27877155576277,33.163798640295056],[130.28572533055967,33.16170282872264],[130.28397442338098,33.15601638664697],[130.28737661533864,33.14740727922259],[130.28851955923028,33.14669369415873],[130.30720596588264,33.14600066669749],[130.34077374761046,33.141462134569906],[130.3451036064463,33.14166666738282],[130.3557840989571,33.14035694601631],[130.3559263941878,33.153817494781606],[130.3535763937357,33.161793892274375],[130.35212111529734,33.16950555903435],[130.35312000038778,33.180462225251574],[130.3470563943372,33.181955000023265],[130.3427469393199,33.188210559170045],[130.34055499381793,33.18844582901187],[130.3394222176613,33.20036777535262],[130.33970221798302,33.20501722536471],[130.3426861091766,33.20828138667673],[130.35502917026008,33.20923110762959],[130.35814138841442,33.2107969460223],[130.36205861221526,33.21520277508807],[130.36738194582017,33.21755027902219],[130.37617472088675,33.21992167614451],[130.3788352527448,33.222150350858044],[130.379048261668,33.22917884672643],[130.3706477169187,33.23608634241083],[130.3701291048743,33.23976466670604],[130.37329629139083,33.24426475731275],[130.37741849496763,33.243616188736155],[130.37868543468517,33.24146590972401],[130.3853907133108,33.240540359849774],[130.39030819726554,33.245303693710525],[130.39107346277012,33.249358693648844],[130.3889653961362,33.257119243058696],[130.39197955940915,33.26022869399907],[130.39500538329185,33.26066757664739],[130.40001815761195,33.259099802014305],[130.40133622558642,33.25682174822515],[130.40209623905025,33.24865146769116],[130.41135121888374,33.25015452261317],[130.41489592730522,33.2526489640785],[130.41950924795344,33.26160340487331],[130.41705923479594,33.267250071733486],[130.4208428400251,33.27185062200863],[130.4263233850163,33.27061479343803],[130.42972783427217,33.27459979284623],[130.43094614764664,33.280532287635026],[130.42987198390495,33.28622367598189],[130.42687031131584,33.290143675989896],[130.4337800256277,33.29245034170998],[130.43849501912985,33.28937690142294],[130.43787474682222,33.28379700922466],[130.43592809320705,33.28130144990206],[130.43508420177454,33.27588367579108],[130.43622976719007,33.26979423401673],[130.4390825552158,33.26583783844552],[130.44245810565712,33.26402700943896],[130.4497461476667,33.26509755880534],[130.45059058408822,33.270056170555904],[130.44820280221757,33.274749225096684],[130.44872530472912,33.27840783805135],[130.4529547335742,33.28294811666228],[130.45828140096592,33.28300866711635],[130.4648647342202,33.28485645016508],[130.46801003933194,33.287778387062986],[130.4662264462935,33.290330332978556],[130.45623448823108,33.29379145031521],[130.45484422807874,33.295779505120095],[130.45561119330205,33.30081089180925],[130.45801813163155,33.30327422482566],[130.46671090838174,33.3047514503192],[130.47825590118896,33.30434117060861],[130.48490117974575,33.30621700890788],[130.4893947862405,33.31592922475397],[130.48751090800204,33.31970867601461],[130.48302312641624,33.32061839602221],[130.4769917511685,33.32600367582904],[130.47811841823045,33.32917117081291],[130.48409730184903,33.33291839576742],[130.48705092096327,33.33270950483984],[130.49035452743954,33.329670621901755],[130.49945562877429,33.32557590070729],[130.50564980469483,33.33106673933861],[130.50674398194928,33.34115923441118],[130.5120959400756,33.34406229723726],[130.5195512191135,33.34049063073809],[130.52680121890114,33.340215072167894],[130.5319148377996,33.34460729718904],[130.53597845684033,33.34296229687254],[130.53796910529002,33.355298747938946],[130.54025805436584,33.36521723408811],[130.54195916968,33.366341395638926],[130.54168221806003,33.40390305398279],[130.54106416258105,33.421222775310866],[130.53736778169787,33.42629861279079],[130.5351513881261,33.434389162130174],[130.537002218078,33.43826582920468],[130.53368499406724,33.44145999987916],[130.52473666686376,33.444316386991716],[130.52181805386022,33.44604666731988],[130.51113221757782,33.44911277543429],[130.50963166007307,33.443798613115575],[130.5035358367096,33.44692582926365],[130.49591000034627,33.44476694643748],[130.49111639440616,33.43970610785067],[130.4872816600207,33.44029055926194],[130.48575360574432,33.43807666670483],[130.48007194626337,33.43612722519134],[130.4765933326163,33.43846389229486],[130.47437610897032,33.435465000409465],[130.46906778235234,33.432990828763764],[130.46307333326774,33.428020828898184],[130.45800944238192,33.4250149996426],[130.45826082987344,33.41997527893602],[130.44668389134858,33.41857527912589],[130.4422138911582,33.41563361290099],[130.44122917039,33.41020110789486],[130.4370358367346,33.40485222455055],[130.43834999985268,33.40033833294774],[130.4287572238668,33.39687582885648],[130.42187555131568,33.39849999997506],[130.4190058371497,33.401120279077645],[130.41374861180907,33.39833527924981],[130.41094583688096,33.395449162348996],[130.40768306142422,33.398604162152424],[130.4077038906221,33.402056108202885],[130.41094778211448,33.40373000013943],[130.41509333299098,33.40928889226859],[130.41415416288442,33.410983332814624],[130.40745861222524,33.415493892429254],[130.4047661085691,33.41624138733022],[130.40113389071655,33.4216186128088],[130.39846000032878,33.42206861287622],[130.39795138784632,33.42658582927265],[130.38873749713787,33.426330278819364],[130.384081387646,33.42776222524657],[130.37843499417966,33.42505222528001],[130.37529805366228,33.43020194566333],[130.3705794421876,33.43320527930024],[130.36349306055638,33.43489527899396],[130.35578693901607,33.433239720636664],[130.35212221786617,33.436794441210566],[130.34542805396154,33.44502138712738],[130.33637277578305,33.44522916199628],[130.3349991701756,33.45037222469847],[130.33197221764374,33.45127055928896],[130.31965693931636,33.45873222531202],[130.31378416310872,33.45809666722744],[130.31112055826725,33.461975559224754],[130.30567444921655,33.46314333339819],[130.3032569393563,33.46130333308241],[130.29588166041037,33.46355249525152],[130.29118555087257,33.46942389189917],[130.28824639375614,33.46961361287799],[130.2767066673789,33.47888138736619],[130.27111916961405,33.47992666668239],[130.26455972774932,33.47743444114661],[130.2575047207663,33.4760730537285],[130.2523702717707,33.47096361308036],[130.24640832688283,33.471459162010774],[130.24420055780956,33.47440555866967],[130.23823138776834,33.47402610771877],[130.23647778172426,33.47778249496622],[130.2334274971813,33.47886916198229],[130.22680221774817,33.476695279363696],[130.22334221826884,33.478279441443135],[130.21817472098667,33.478186386792345],[130.2163063938251,33.479837224608275],[130.20558666659144,33.481404161972534],[130.19795499362817,33.47934416230328],[130.19453138791323,33.476108891712045],[130.18866999982072,33.47470444115709],[130.18863027226928,33.470823612919446],[130.18279916974598,33.46664805436427],[130.17593472101066,33.46592305420563],[130.17483000010452,33.467385558696606],[130.16885165967642,33.467620829437806],[130.1648605583681,33.46918000025687],[130.16392917009523,33.472345559000416],[130.1567672238284,33.47672249464745],[130.14849666708756,33.477289721343595],[130.14568555094752,33.47438472137782],[130.14254472086225,33.474312225229085],[130.13880055809932,33.47043555905384],[130.12973972840575,33.47555361340858],[130.1179947209797,33.47506194595212],[130.10928861178002,33.476165558893456],[130.10770499379055,33.477798332926795],[130.1031302720445,33.475886667435816],[130.1020344490306,33.471737774678616],[130.09841749716986,33.46984110808074],[130.08892082993236,33.46867416218288],[130.08580639404988,33.46970805428333],[130.0799033331723,33.46846889192585],[130.07636555132922,33.470044162408215],[130.07355472117354,33.46915361324869],[130.0680691696565,33.4725041616378],[130.06059861203642,33.47036444066646],[130.05062138756705,33.46935055938087],[130.04492499359367,33.46743722474815],[130.0390263286023,33.4700144676936]]],[[[129.86265250301062,33.39761749525127],[129.86208832681484,33.39745416217988],[129.86218916959456,33.39711027941593],[129.86293472106058,33.397403333397165],[129.86265250301062,33.39761749525127]]],[[[129.86452610919264,33.39826027938841],[129.86316972830036,33.39753861301665],[129.86383472119553,33.39708749509185],[129.86452610919264,33.39826027938841]]],[[[129.859650557927,33.3992580538162],[129.85948944168445,33.39899305418618],[129.8598925034363,33.39900416171275],[129.859650557927,33.3992580538162]]],[[[129.85639999976024,33.40087582895637],[129.85643360562642,33.401073053878406],[129.8562255510684,33.400977224819144],[129.85639999976024,33.40087582895637]]],[[[129.85704499443102,33.40139999971029],[129.85706499355467,33.40164249470541],[129.85679639393845,33.401495828769555],[129.85704499443102,33.40139999971029]]],[[[129.86648082972658,33.40281638696672],[129.86529832735596,33.40367777470959],[129.8637202716733,33.40144555936513],[129.86648082972658,33.40281638696672]]],[[[129.85687666742433,33.40488972088394],[129.85575572005052,33.40337405386953],[129.8585827757745,33.40209916234653],[129.8592272236575,33.40374499993186],[129.85687666742433,33.40488972088394]]],[[[129.86047639367075,33.40521666671583],[129.8597864463875,33.4048516669709],[129.86019444901467,33.40447249480985],[129.86092610865308,33.40473749533919],[129.86047639367075,33.40521666671583]]],[[[129.86220749687857,33.40736786483512],[129.8617294163795,33.407435865273044],[129.86171824859832,33.40737253231657],[129.86219352770922,33.40729982932373],[129.86220749687857,33.40736786483512]]],[[[129.82240491595417,33.4205744954167],[129.82225075237034,33.42129480201356],[129.82217208777172,33.42128425206664],[129.8223262522548,33.42056130595955],[129.82240491595417,33.4205744954167]]],[[[129.82333622598605,33.42147946790317],[129.82326700426893,33.42183830639277],[129.8231851884458,33.42182774835197],[129.8232607261017,33.421463666814816],[129.82333622598605,33.42147946790317]]],[[[129.821144721152,33.42257277461391],[129.82115832699526,33.4227024946245],[129.82096999996554,33.42267999988212],[129.8209902715838,33.42257277461391],[129.821144721152,33.42257277461391]]],[[[129.81021999975326,33.424730559367845],[129.81015055770217,33.424888892208685],[129.81003083005885,33.424772494754905],[129.81021999975326,33.424730559367845]]],[[[129.81057693887465,33.42741527939171],[129.8105836064483,33.42711638701172],[129.8108322177327,33.427015000142205],[129.81089250288676,33.42729694569755],[129.81057693887465,33.42741527939171]]],[[[129.81075805424086,33.428305828551174],[129.81046221775716,33.42789416208598],[129.81088583711175,33.42785472141833],[129.81075805424086,33.428305828551174]]],[[[129.8135747209966,33.43089333276117],[129.81333277638657,33.43089889237007],[129.81344693902508,33.43075777525115],[129.8135747209966,33.43089333276117]]],[[[129.8129561088374,33.43172194561134],[129.81285527864827,33.43180666714403],[129.8126805583612,33.43175027875242],[129.8128486119739,33.43166555901837],[129.8129561088374,33.43172194561134]]],[[[129.80455306127487,33.432336107925096],[129.8043647207553,33.4316541619101],[129.8054202721279,33.43125972105935],[129.80594472077235,33.43137805385413],[129.80455306127487,33.432336107925096]]],[[[129.80758472085824,33.43300138680462],[129.80740333299752,33.43276472121494],[129.80768583703184,33.432646386621514],[129.8079211149676,33.43288305400978],[129.80758472085824,33.43300138680462]]],[[[129.8110451879851,33.433036053870865],[129.81101830095383,33.43309994620563],[129.81004138809965,33.43275425220702],[129.810063774024,33.4326941352262],[129.8110451879851,33.433036053870865]]],[[[129.7859706998879,33.44698666660145],[129.78564459132485,33.44803031544677],[129.7855534891023,33.44801600003842],[129.78587579802968,33.44696438679705],[129.7859706998879,33.44698666660145]]],[[[129.9812920880595,33.45466402692335],[129.98099955928228,33.454930801815124],[129.98083377375974,33.45465594561546],[129.9812920880595,33.45466402692335]]],[[[129.8461300000995,33.45495916193585],[129.84552527886854,33.453031108099196],[129.84727972757742,33.45190916157861],[129.84857055778502,33.4534538919836],[129.84693027171477,33.453679441053396],[129.8461300000995,33.45495916193585]]],[[[129.847555278953,33.454863332876585],[129.84748805373079,33.45528610776773],[129.84721250325447,33.455477774879455],[129.84694360596268,33.45543249491374],[129.84727972757742,33.45499277499664],[129.847555278953,33.454863332876585]]],[[[129.8395329962508,33.4559128291138],[129.83812044100557,33.45365469440867],[129.83819108904754,33.453625080633],[129.8395329962508,33.4559128291138]]],[[[129.84467166036893,33.45579333259627],[129.84413360588132,33.455511666730104],[129.8439119463793,33.4546547207388],[129.84504805362485,33.45545527923781],[129.84467166036893,33.45579333259627]]],[[[129.79956389056122,33.45622638673842],[129.79958389058413,33.456378613182494],[129.79942944191532,33.4563447213319],[129.79956389056122,33.45622638673842]]],[[[129.84867111458038,33.45661082892667],[129.8478511154367,33.455663892274856],[129.84943083036865,33.455680829206926],[129.84867111458038,33.45661082892667]]],[[[129.84996861236164,33.457456386802846],[129.84999555065417,33.45758610771276],[129.84988138801566,33.457670559448786],[129.84979389117518,33.45758610771276],[129.84996861236164,33.457456386802846]]],[[[129.9789042801085,33.456609333354095],[129.97883413658622,33.45689882871801],[129.9783047209861,33.45725997306937],[129.97617083031957,33.45782916208623],[129.976154358337,33.45777858601298],[129.97830302216676,33.457196532194246],[129.97869221817143,33.45696561327247],[129.9789042801085,33.456609333354095]]],[[[129.97510883260657,33.45811553230601],[129.97445108914656,33.45814408128439],[129.97252756159776,33.45792810819569],[129.9745304669076,33.45810716231574],[129.9750451624044,33.458084585735094],[129.97510883260657,33.45811553230601]]],[[[129.978052775915,33.46752658588326],[129.97534114098096,33.46598249489625],[129.97678802874464,33.464985612596024],[129.978052775915,33.46752658588326]]],[[[129.97623649791615,33.46700244120973],[129.9746529176981,33.46869805357238],[129.97460858561783,33.46867025193063],[129.97589027241816,33.467279667122966],[129.97623649791615,33.46700244120973]]],[[[129.99100308712286,33.47134325198954],[129.99100061038996,33.471387585868456],[129.98990166043336,33.47134463964346],[129.9899041119852,33.471300305764544],[129.99100308712286,33.47134325198954]]],[[[129.96987350216045,33.472281440935774],[129.96983980456343,33.47223499994533],[129.9732197796692,33.4701509461093],[129.9732565241693,33.4701911619926],[129.96987350216045,33.472281440935774]]],[[[129.782327224322,33.47709472134437],[129.78154055765071,33.47673389175577],[129.78193722432354,33.47638999999856],[129.782327224322,33.47709472134437]]],[[[129.79190639356523,33.480455000398024],[129.7919590533677,33.48056694620766],[129.79171805394515,33.48066916225207],[129.79170472059639,33.48051138699094],[129.79190639356523,33.480455000398024]]],[[[129.99166666718304,33.48034449530229],[129.98798499381246,33.48059736037993],[129.98522450140968,33.477998999554245],[129.9864693897506,33.4733664406088],[129.99423941621615,33.47285241420758],[129.99462561567964,33.476199558662756],[129.99166666718304,33.48034449530229]]],[[[129.81491027179163,33.48369138704794],[129.8149172235511,33.48385499980844],[129.81478250330997,33.483950828867705],[129.814695278964,33.48380416203253],[129.81491027179163,33.48369138704794]]],[[[129.7760552786283,33.48489638685879],[129.77609555116885,33.48499222491131],[129.77590055836413,33.485189721428526],[129.77579306060136,33.48500361302638],[129.7760552786283,33.48489638685879]]],[[[129.80628527874273,33.48578249516606],[129.80635944223457,33.485838891651554],[129.80623832693732,33.4859291620013],[129.80619805439676,33.485821945726286],[129.80628527874273,33.48578249516606]]],[[[129.95697766468754,33.48822086480112],[129.9570406999684,33.48804694580997],[129.96063328110108,33.48485972059967],[129.9606793902417,33.484902198277894],[129.95697766468754,33.48822086480112]]],[[[129.7722499997377,33.49251249525548],[129.77241138757552,33.492557494632706],[129.77243832676743,33.49271527888709],[129.77225666731147,33.49265333268522],[129.7722499997377,33.49251249525548]]],[[[129.77485166017607,33.495229721274654],[129.7732988853354,33.49285082920244],[129.7766047212309,33.48959889237506],[129.78007481200302,33.49058455923006],[129.7782061089249,33.4936680539376],[129.77485166017607,33.495229721274654]]],[[[129.84646583662914,33.53863916186788],[129.84664749698447,33.53888694577597],[129.8464725033034,33.539433891860654],[129.84608221821986,33.53876305427161],[129.84646583662914,33.53863916186788]]],[[[129.88190447531133,33.54131661267161],[129.88190316499913,33.54163425231894],[129.88146053217793,33.54152602700458],[129.88152250266148,33.54130441426736],[129.88190447531133,33.54131661267161]]],[[[129.84643221817237,33.54204972111779],[129.84598805380574,33.54195944087553],[129.84555055791202,33.54155333311991],[129.84573917002672,33.541485829107785],[129.84643221817237,33.54204972111779]]],[[[129.84624983116487,33.54166666658347],[129.84691405963622,33.5421858020332],[129.84685674404352,33.54224116160037],[129.84624983116487,33.54166666658347]]],[[[129.84881416344297,33.54203833300272],[129.84859674424445,33.54231863999331],[129.84832277567557,33.54208916178544],[129.84852472113903,33.54191416180919],[129.84881416344297,33.54203833300272]]],[[[129.88097433170014,33.541738559287126],[129.88136038907078,33.54219455873198],[129.880733671322,33.542200162407596],[129.88097433170014,33.541738559287126]]],[[[129.9737562000886,33.54356644123834],[129.9683501432446,33.54198655903252],[129.97177469504618,33.539211440955285],[129.96917930018458,33.53706849501509],[129.96902600534588,33.5342031623461],[129.96464089486142,33.52916874763963],[129.96687817069107,33.527212919140936],[129.97399518772784,33.52867133261594],[129.9776157197897,33.53348297266109],[129.97800910483636,33.538426054019226],[129.9737562000886,33.54356644123834]]],[[[129.86562702956383,33.549999999600345],[129.8612832564172,33.54982463989529],[129.86130907865117,33.549634161687266],[129.86562702956383,33.549999999600345]]],[[[129.8499108300208,33.55015638720755],[129.8499377818033,33.550404440912246],[129.84982333318032,33.55044944118879],[129.84981666740532,33.55022972062517],[129.8499108300208,33.55015638720755]]],[[[129.8562627758065,33.55219694623213],[129.856397496947,33.55249000021337],[129.85628306091462,33.55259166677206],[129.85617555056126,33.55227027875043],[129.8562627758065,33.55219694623213]]],[[[129.84820138788382,33.553330000279345],[129.84845722432146,33.553065279439124],[129.84867916980795,33.55320055905861],[129.84820138788382,33.553330000279345]]],[[[129.89301092091728,33.553684225246855],[129.8944302201786,33.5528558021536],[129.89449344971297,33.552971945998536],[129.89301092091728,33.553684225246855]]],[[[129.84452082967266,33.55647555899992],[129.8445544490287,33.556328892164686],[129.84470917019212,33.55635722530576],[129.84468221840973,33.556470000290346],[129.84452082967266,33.55647555899992]]],[[[129.84557722370994,33.5562894407052],[129.84545610931207,33.556593891794705],[129.8451466669851,33.55635138690701],[129.84557722370994,33.5562894407052]]],[[[129.89181328115808,33.55738205403861],[129.89100980525836,33.55798761343766],[129.89096878088458,33.557946386716424],[129.89181328115808,33.55738205403861]]],[[[129.9041764196062,33.55926236016984],[129.90354308734368,33.55951777482551],[129.90228916980936,33.55807436024361],[129.90339944223058,33.5579220807395],[129.9041764196062,33.55926236016984]]],[[[129.7497111150759,33.5639427747393],[129.7497447209422,33.564004999731026],[129.74967055834964,33.56415138687703],[129.74958306060978,33.564128892134704],[129.74960333312742,33.563999162231596],[129.7497111150759,33.5639427747393]]],[[[129.89677252872923,33.5648110000277],[129.89604282691505,33.56447369400581],[129.89651752326517,33.564198585995996],[129.8972252528432,33.56447413467362],[129.89677252872923,33.5648110000277]]],[[[129.74943499442952,33.5655947214193],[129.74959666735242,33.565673612647174],[129.74949555117882,33.56573582864564],[129.74943499442952,33.5655947214193]]],[[[129.75105591359954,33.56635133274784],[129.75022917043998,33.56620361280653],[129.75000027229476,33.56584861262343],[129.7510433329835,33.56605138726178],[129.75105591359954,33.56635133274784]]],[[[129.75121832666446,33.5674888923985],[129.75124527934622,33.5675622249168],[129.75113082982398,33.56768055861096],[129.75108389060915,33.56755082870785],[129.75121832666446,33.5674888923985]]],[[[129.88189236144342,33.56775441363533],[129.87909250301664,33.563962864694474],[129.87387847031516,33.559451802358865],[129.87582627776055,33.55074282881856],[129.87348547287638,33.544323585864845],[129.88105933921724,33.5445104407043],[129.88063807968365,33.54703316225067],[129.88524491622002,33.54831202697852],[129.89045769076984,33.552211658241504],[129.88954761283208,33.55997049534216],[129.88575722401674,33.56297346835095],[129.88189236144342,33.56775441363533]]],[[[129.73768639421178,33.5756963868788],[129.73688555062768,33.57551610788215],[129.7372758366106,33.57522861261043],[129.73760555055583,33.575268332967255],[129.73768639421178,33.5756963868788]]],[[[129.9037422179291,33.5792566670616],[129.90354027156638,33.57908777528064],[129.90376221795202,33.579014440963704],[129.9037422179291,33.5792566670616]]],[[[129.90423306070727,33.57905972092942],[129.90440138771396,33.579262494668455],[129.9041188845789,33.579245829331626],[129.90423306070727,33.57905972092942]]],[[[129.9043608300883,33.581122774696325],[129.9043744494213,33.58132555922725],[129.90420610892488,33.58135389236827],[129.9041725030586,33.58120166682352],[129.9043608300883,33.581122774696325]]],[[[129.9115205577276,33.58148361327818],[129.9113591698898,33.58166944109189],[129.91101583661168,33.58159610767427],[129.91123778209806,33.58141582867762],[129.9115205577276,33.58148361327818]]],[[[129.9103015051104,33.5817535321998],[129.9105688070049,33.58186877492409],[129.91043630359263,33.58203225188697],[129.9103015051104,33.5817535321998]]],[[[129.91170888475733,33.581878054128936],[129.91173583743898,33.582081107557144],[129.91155416269453,33.582019162254596],[129.91170888475733,33.581878054128936]]],[[[129.91096328113053,33.58236616206875],[129.911052802345,33.58240074819605],[129.910979339425,33.58251966734883],[129.91083756220382,33.58243655919989],[129.91096328113053,33.58236616206875]]],[[[129.76065861180552,33.58267027861052],[129.75642610907778,33.58146972055124],[129.75396360613558,33.577810828806776],[129.74897749671413,33.58038166678057],[129.7474969392324,33.582585558876474],[129.74253082983398,33.57958082859244],[129.74443527916492,33.57728666704611],[129.74020306062278,33.572855558936965],[129.74560639431968,33.569653612724096],[129.75036389068111,33.56894333266871],[129.75415221825028,33.566524999928845],[129.75536333255184,33.56388110822661],[129.76292666693223,33.56368944111489],[129.76598786025158,33.56894180202261],[129.77303306102704,33.57198777521569],[129.77351778212005,33.57539277485671],[129.7712094418623,33.57986889223565],[129.76867944210267,33.58205610820289],[129.76065861180552,33.58267027861052]]],[[[129.8379866668513,33.58289110803827],[129.83753583670955,33.582727774966884],[129.8378991700107,33.582581108131706],[129.8379866668513,33.58289110803827]]],[[[129.83520055815927,33.582716386851814],[129.83529499416875,33.58281222490433],[129.83519389058563,33.582953333029934],[129.83508639372212,33.582795278979006],[129.83520055815927,33.582716386851814]]],[[[129.91095983133118,33.58282089167085],[129.91085150529284,33.58293849511551],[129.91052172479783,33.582864107692444],[129.91079180289944,33.58258797265688],[129.91095983133118,33.58282089167085]]],[[[129.9101947214093,33.583242224948776],[129.9100669394378,33.58334916243393],[129.90983138810816,33.5832477746651],[129.90996610924856,33.58315749532221],[129.9101947214093,33.583242224948776]]],[[[129.91085444877388,33.583693054191144],[129.91061888485376,33.58374389196712],[129.91051111459637,33.58360277484826],[129.9107130609591,33.583450828992625],[129.91085444877388,33.583693054191144]]],[[[129.90913861155775,33.58382833291131],[129.90912499402327,33.58396944103691],[129.90895027193756,33.58395249511159],[129.90893666699367,33.583783332634766],[129.90913861155775,33.58382833291131]]],[[[129.91008055787154,33.583569161787466],[129.91008055787154,33.5841047206564],[129.90973055791892,33.58401444131346],[129.90973055791892,33.58359166732163],[129.91008055787154,33.583569161787466]]],[[[129.84088775566545,33.58433364038524],[129.84062311306627,33.58449608132912],[129.84057311255913,33.58443702734701],[129.84083189427656,33.58426966711153],[129.84088775566545,33.58433364038524]]],[[[129.86855639396242,33.5851469458749],[129.86860360567198,33.585304721136026],[129.86846888543073,33.58535555891194],[129.868381387691,33.58550777456418],[129.8681458372606,33.585541667314146],[129.8682469390451,33.585361107729],[129.86855639396242,33.5851469458749]]],[[[129.90872272367483,33.585416612986364],[129.90871263328143,33.58585902727236],[129.9083874447249,33.58570991877781],[129.90872272367483,33.585416612986364]]],[[[129.8687208296027,33.59079000015845],[129.8687141629283,33.59000055907859],[129.86963027171976,33.590406387145094],[129.8687208296027,33.59079000015845]]],[[[129.84563277573204,33.59201222468448],[129.84206972833533,33.590969162197155],[129.83996861166213,33.588060558647896],[129.83685693939628,33.58959944076162],[129.83515555068823,33.5857324953584],[129.84414499399634,33.5848588921242],[129.84780138832343,33.59038305423462],[129.84563277573204,33.59201222468448]]],[[[129.85566722406315,33.592672495239526],[129.8556874965808,33.59274000015091],[129.85554610876602,33.59280194635278],[129.85553250292276,33.59266666673335],[129.85566722406315,33.592672495239526]]],[[[129.8916757460389,33.59410633294095],[129.8914400256367,33.59403127912026],[129.89160732831556,33.59340046765749],[129.89192697794772,33.59385469363923],[129.8916757460389,33.59410633294095]]],[[[129.8638038906371,33.596974162127935],[129.86391832666948,33.59712638677337],[129.86372972804463,33.597109440848044],[129.8638038906371,33.596974162127935]]],[[[129.86299555120377,33.59712055916651],[129.86310999982675,33.597216387326455],[129.86296861201185,33.59727249512957],[129.86299555120377,33.59712055916651]]],[[[129.86137888492772,33.59828166666563],[129.86156083036803,33.598490278803354],[129.8613519457358,33.59844527942613],[129.86137888492772,33.59828166666563]]],[[[129.9032251356316,33.59971099966293],[129.9030385595819,33.599622802250565],[129.9032604412165,33.59956786536475],[129.9032251356316,33.59971099966293]]],[[[129.89439671863374,33.60171561278537],[129.89417555106093,33.60166989215185],[129.89411800344317,33.60151016176462],[129.89439671863374,33.60171561278537]]],[[[129.90365732822318,33.602007000322885],[129.90350260705975,33.602058026956456],[129.90330658902792,33.60183864004125],[129.90343316500866,33.60178105375269],[129.90365732822318,33.602007000322885]]],[[[129.89557136182896,33.60301638679687],[129.89540444855652,33.60298505441676],[129.8954890792577,33.60288636011745],[129.89557136182896,33.60301638679687]]],[[[129.89603788603972,33.60299197290129],[129.8960037738551,33.603166586169095],[129.8958425811702,33.60304100034193],[129.89603788603972,33.60299197290129]]],[[[129.90018027220185,33.603630559003136],[129.90008583709175,33.603822495012196],[129.89999832676142,33.60375472120347],[129.90018027220185,33.603630559003136]]],[[[129.89839442276445,33.60416244144358],[129.8942044489762,33.6012473870573],[129.8929777557189,33.597799999670315],[129.89519481209095,33.594346252277774],[129.9032217766637,33.59577127932113],[129.9013396368149,33.59727144112418],[129.90300472079127,33.59930738662666],[129.90310868961444,33.602150279411944],[129.89839442276445,33.60416244144358]]],[[[129.85034583659115,33.60463472131539],[129.84949749711188,33.60431333329376],[129.85009666682777,33.60397527903598],[129.85034583659115,33.60463472131539]]],[[[129.862954448589,33.61767416163332],[129.85600360558203,33.615948892327594],[129.85867111527978,33.613372775333346],[129.8524002721549,33.60700249506914],[129.8507972243125,33.60138777482598],[129.84813666727348,33.599346667214945],[129.8517944492545,33.59504000009599],[129.85861583665155,33.591821386747654],[129.85794444867747,33.58905333284508],[129.8622477820096,33.587012774719824],[129.86482082961766,33.587965558763585],[129.8667605575538,33.59711499955762],[129.86223444866096,33.5968499999276],[129.86122416286491,33.598089999553906],[129.85947944212262,33.60334972141254],[129.86232166041634,33.60624166681953],[129.86489444901963,33.614787774935905],[129.862954448589,33.61767416163332]]],[[[129.84213518818842,33.292117784108484],[129.84235045441005,33.29238205438833],[129.84181382624718,33.29270280209272],[129.84184208834176,33.29211472101764],[129.84213518818842,33.292117784108484]]],[[[129.83971275004342,33.29294010799964],[129.83940639418984,33.29319574838513],[129.83938525292717,33.2930265589286],[129.83971275004342,33.29294010799964]]],[[[129.83943691268348,33.29639253159013],[129.83851616069228,33.295842386616926],[129.83885306111995,33.294847278679015],[129.83967671870562,33.29496841376135],[129.83943691268348,33.29639253159013]]],[[[129.83803041527153,33.32983355927138],[129.8378397796821,33.32979425170339],[129.83773780825334,33.32958891939319],[129.8380971980273,33.32974425209562],[129.83803041527153,33.32983355927138]]],[[[129.84073832701222,33.33167899958619],[129.84059472056992,33.33160319842892],[129.8406384950706,33.33149025167381],[129.84078958477153,33.33151572137348],[129.84073832701222,33.33167899958619]]],[[[129.84388949390507,33.34203713460613],[129.84360613461547,33.3420540265721],[129.84308508360982,33.341905613253516],[129.843218974676,33.34175377531653],[129.84357121933635,33.34179622511573],[129.84388949390507,33.34203713460613]]],[[[129.84296508437126,33.34344216162651],[129.84219313870244,33.343457918648085],[129.84213505778678,33.34311974837772],[129.84296508437126,33.34344216162651]]],[[[129.84545939003885,33.3433172251099],[129.84560756233918,33.343556414197224],[129.84522408602277,33.34354146836415],[129.84516902682924,33.34335894555892],[129.84545939003885,33.3433172251099]]],[[[129.84469691333197,33.35477866730173],[129.84417070021766,33.353981640440395],[129.8451011666856,33.3536148015819],[129.84511411242636,33.35454077503681],[129.84469691333197,33.35477866730173]]],[[[129.845252140374,33.35645110773248],[129.84538450079413,33.35665622510476],[129.84508319103645,33.356698693789724],[129.84507569428797,33.356538252038774],[129.845252140374,33.35645110773248]]],[[[129.84621255516538,33.35780953188441],[129.84574966331638,33.35789097269031],[129.84599219158645,33.35704997257824],[129.8465126724219,33.35717649459957],[129.84621255516538,33.35780953188441]]],[[[129.8499999996004,33.35931222527904],[129.8500827758994,33.35948694556612],[129.8499283272306,33.35949833278187],[129.8499999996004,33.35931222527904]]],[[[129.8483699999756,33.360022495441854],[129.84812832696082,33.359131666593214],[129.8492230608956,33.359650559226],[129.8483699999756,33.360022495441854]]],[[[129.8617476654225,33.374434305698685],[129.86156680906106,33.374918387373725],[129.8609075880148,33.37433791905977],[129.8617476654225,33.374434305698685]]],[[[130.1434540856376,33.080348559238644],[130.1434411668764,33.08092230601966],[130.1433882750489,33.08092069443455],[130.1434540856376,33.080348559238644]]],[[[130.14333785995439,33.081164134617154],[130.14337094691177,33.081193081095876],[130.14357272420193,33.08205627917397],[130.1435386641781,33.08208080188757],[130.14333785995439,33.081164134617154]]],[[[130.14399530483956,33.0820175588633],[130.14409705593448,33.082458586394694],[130.14406286640826,33.0824603328781],[130.14399530483956,33.0820175588633]]],[[[130.1436346434241,33.08256597264159],[130.1435731387894,33.08231477490699],[130.14363433225867,33.082317468376516],[130.14368508369967,33.08255258623291],[130.1436346434241,33.08256597264159]]],[[[129.8546741629823,33.460500558653905],[129.8549566670166,33.46072610772376],[129.85464055801538,33.46109805383219],[129.85441861162974,33.46061333273917],[129.8546741629823,33.460500558653905]]],[[[129.8558774972488,33.46109805383219],[129.85591805397507,33.46116582943955],[129.85583055803386,33.46151527900696],[129.855716109411,33.4613688918609],[129.85572306117035,33.461210828816775],[129.8558774972488,33.46109805383219]]],[[[129.84754805379976,33.46895082871782],[129.84700389111674,33.469074999911356],[129.8467483271736,33.46840389162634],[129.84746778211252,33.4685224951171],[129.84754805379976,33.46895082871782]]],[[[129.84817957212965,33.47289347725223],[129.85014306105347,33.47030944082809],[129.8504588849696,33.471887775300615],[129.84817957212965,33.47289347725223]]],[[[129.83325583718715,33.489137495199316],[129.83277194616846,33.48909249492277],[129.8329333331069,33.48879361333462],[129.83334999980275,33.48877110780046],[129.83325583718715,33.489137495199316]]],[[[129.8384119463543,33.49458333265471],[129.83825055761724,33.49489916196683],[129.83809583735308,33.4947413867057],[129.8384119463543,33.49458333265471]]],[[[129.85593389103633,33.510994162250825],[129.85608194642475,33.511349441223786],[129.85546306087167,33.51143944087755],[129.85563138787836,33.510954720683856],[129.85593389103633,33.510994162250825]]],[[[130.1558755765966,33.11742110779795],[130.15578372164146,33.11733500040998],[130.15601108914052,33.117125532117655],[130.15614219230838,33.117242559096894],[130.1558755765966,33.11742110779795]]],[[[130.22397583741508,32.958272775268426],[130.21676518836284,32.95908735959404],[130.21478499363263,32.95236777455318],[130.22273121887076,32.95393391871545],[130.22397583741508,32.958272775268426]]],[[[130.22079452704588,32.976416801694086],[130.22072654999033,32.97645153171288],[130.22061250336435,32.97627249467996],[130.22068238698262,32.97623608113031],[130.22079452704588,32.976416801694086]]],[[[130.20466360604064,32.99091277500463],[130.20481055796097,32.99104805372474],[130.20473055786897,32.99123389233034],[130.20450333336225,32.99105916215069],[130.20466360604064,32.99091277500463]]],[[[130.22595916987984,33.06488769431172],[130.2262327760219,33.06508305403975],[130.22606333295653,33.065225000333555],[130.22569166024198,33.06510889156215],[130.22595916987984,33.06488769431172]]]]}},{"type":"Feature","id":"JP-41-capital","properties":{"Kind":"capital","PrefectureCode":"41","PrefectureName":"Saga","CapitalName":"Saga","CapitalNameJapanese":"佐賀市","PointKind":"prefecture-representative-point"},"geometry":{"type":"Point","coordinates":[130.298798,33.249352]}}]}
