{"type":"FeatureCollection","bbox":[138.7114468613836,35.75338410809019,139.90033869027843,36.283343666676956],"displayBbox":[138.7114468613836,35.75338410809019,139.90033869027843,36.283343666676956],"DataVersion":"2019-boundaries-v1","Attribution":{"BoundarySource":"MLIT National Land Numerical Information, via Fabio Crisci / piuccio","BoundarySourceURL":"https://github.com/piuccio/open-data-jp-prefectures-geojson/tree/513fb852832c99470e16b95a30ddd68bf3469dc0","BoundaryDate":"2019-01-01","CapitalSource":"Geospatial Information Authority of Japan (GSI), prefecture representative points","CapitalSourceURL":"https://maps.gsi.go.jp/","CapitalSourceRetrieved":"2026-10-04","Notice":"Simplified and enriched by Ashiato Kai. Modern geographic context, not historical immigration-era boundaries. See GEOLOCATION.md and THIRD_PARTY_NOTICES.md."},"features":[{"type":"Feature","id":"JP-11","bbox":[138.7114468613836,35.75338410809019,139.90033869027843,36.283343666676956],"properties":{"Kind":"prefecture","PrefectureCode":"11","PrefectureName":"Saitama","PrefectureNameJapanese":"埼玉県"},"geometry":{"type":"MultiPolygon","coordinates":[[[[139.68794383943668,36.19968133302717],[139.68657299564734,36.20330910822884],[139.68231605744018,36.20098302704514],[139.6773354725541,36.2014813602766],[139.6749110514039,36.20828802667114],[139.67216216565146,36.209208026829],[139.66863658940713,36.2069360812352],[139.66442547255758,36.20706080191451],[139.66127325615594,36.20839691928245],[139.6635399479103,36.21235080214785],[139.6599746692956,36.2149013604095],[139.65225352817788,36.2128141706375],[139.6493984954443,36.21119110838299],[139.65002457827177,36.202775559344616],[139.65150430567928,36.19837417113115],[139.64880788637493,36.19613030596889],[139.63724535678784,36.19720891865671],[139.6290203372189,36.19516977516503],[139.6264091961276,36.19324977475736],[139.6250399998961,36.18701341433763],[139.61862082978757,36.18980286491035],[139.61301610910618,36.1937328653795],[139.6037864200074,36.2034153604306],[139.594359728119,36.208887891562995],[139.58777167342407,36.21036927911899],[139.58300469461108,36.2092387476701],[139.57346522683883,36.2042201709242],[139.56487988310016,36.20207380216431],[139.5547379118252,36.20082853161148],[139.53521861244906,36.192942891901],[139.52821664118505,36.19150177508692],[139.52116966334938,36.19122036013158],[139.50507795098667,36.19358005437607],[139.47442500600926,36.189457504560266],[139.46239274972572,36.18951166712981],[139.45434856043778,36.19141027896126],[139.4426151884403,36.197841640279535],[139.42926022008317,36.20831219774976],[139.4239707783288,36.21087497330143],[139.419357690605,36.21129386491998],[139.4190718941527,36.21644525174702],[139.40869994824413,36.223422999771685],[139.4076932813199,36.22264689204047],[139.3934315823018,36.22762413504586],[139.37933856012648,36.24118189243046],[139.37667299566226,36.24450494584664],[139.36781744521898,36.24680883805746],[139.36154328089776,36.25209189192731],[139.35823299605602,36.25332800018714],[139.35358408563707,36.25151302710458],[139.35059547300273,36.25415136009724],[139.34730158190257,36.253651360422],[139.3458612843708,36.248982467966584],[139.3394812185834,36.245987748036214],[139.34024871620534,36.24386413482199],[139.3333792483537,36.242888305650865],[139.327979779943,36.240539171245814],[139.3279732814418,36.23735763964339],[139.31514871614036,36.23661402711571],[139.30925671872262,36.23743513512346],[139.30144250316903,36.239786748060055],[139.2949788067266,36.24358661303182],[139.28631966282228,36.24513308092702],[139.27768827469424,36.24797058587387],[139.26681518787063,36.25042058644095],[139.26701072566448,36.24262197322554],[139.26169294357453,36.242703360072085],[139.2538940335828,36.245843639772204],[139.2440667827559,36.244433919190044],[139.23747399492902,36.24620474815066],[139.2334867831886,36.24891058605476],[139.2310120485672,36.25262502712337],[139.22400403385916,36.25830169356834],[139.21214535662295,36.25633644107393],[139.21197316522944,36.26017338689235],[139.20825344963703,36.26246450513287],[139.19800175117996,36.26224755897772],[139.18055116680296,36.26910033271423],[139.16947005240104,36.27475283797315],[139.16390338473343,36.278911721298925],[139.15902338542094,36.27782366662899],[139.15087697828994,36.27854950495572],[139.13611749732468,36.27842061322076],[139.12943916958204,36.283343666676956],[139.1269963545982,36.278535053749806],[139.1177804673947,36.26875644095702],[139.11333046722734,36.26678338684388],[139.1078035019301,36.26170533343446],[139.11119513584686,36.258497000236446],[139.0889819199797,36.22843280183241],[139.0817260053509,36.214887251845255],[139.07196455342148,36.20381833314963],[139.06531564160366,36.19869000044321],[139.0633228266871,36.19571219765987],[139.06457700412545,36.189375251666604],[139.06304946785872,36.18581050455117],[139.05768277613925,36.18372272122667],[139.05638583683697,36.180519667049055],[139.057804967925,36.17340213470078],[139.05871661517972,36.164281586426114],[139.06297885938693,36.16128630621813],[139.06376466900429,36.158852667017015],[139.0605613099566,36.15226322466816],[139.04901600508458,36.15242846789954],[139.0471690530095,36.14933374785426],[139.042722088054,36.14802736027451],[139.04101092101723,36.135541774633225],[139.0431998052269,36.13091535985603],[139.0424042541531,36.1284595316821],[139.03683061044433,36.12619061320629],[139.0311978336132,36.12772699970134],[139.02658949430975,36.13278841385426],[139.02375863805082,36.133900919292046],[139.021087808056,36.13133117129655],[139.01562194629582,36.134069251694655],[139.0107347209307,36.13205310836429],[139.00485302164964,36.133409532424025],[139.0067321919372,36.12955033288159],[139.00195800325935,36.12532950515259],[138.99682741865047,36.12566505389918],[138.99304241227753,36.1244647746297],[138.98929600480687,36.11791669390038],[138.9856907000658,36.11557141398964],[138.9815068092919,36.1170855863308],[138.9787220486836,36.116002252202236],[138.97425399462622,36.119400333358726],[138.97001204901687,36.12423897285038],[138.96424452676354,36.1259048023648],[138.95845228304654,36.124090359882246],[138.9562719711746,36.111916721179796],[138.9580291960906,36.10962117108022],[138.95655335915023,36.10570200024716],[138.95153250262297,36.103065332798906],[138.95043888474675,36.09959366731397],[138.9447952530985,36.0944886666187],[138.9381038654011,36.09289338712017],[138.93149050558247,36.08810313475192],[138.92093658905242,36.091430666791894],[138.9163140863261,36.093749027295814],[138.9112335283047,36.09088430616583],[138.90797630436305,36.092033198173624],[138.89785878115788,36.090654613020035],[138.89483544659868,36.08751850527483],[138.89237627834268,36.087832413635056],[138.88671294434698,36.08417797263536],[138.88043683479214,36.083318000425436],[138.86433291773005,36.077085802068154],[138.86152319104247,36.07140802675906],[138.8547117771269,36.068514693698205],[138.85060121887125,36.069154973223476],[138.84603705606537,36.06662500044348],[138.8451350837172,36.06087722460427],[138.8428270303432,36.0558177745707],[138.83727060955107,36.04976138737817],[138.83219280165656,36.04772944116081],[138.82923610865953,36.041863333426136],[138.82848917043896,36.03744169427881],[138.8156799223906,36.03537586520406],[138.81407405967013,36.033676170818694],[138.80219063578932,36.03340227869228],[138.79097552510052,36.02939980185943],[138.78632358036896,36.03309397310841],[138.78181050624994,36.03429233322464],[138.78063219202215,36.03685066702474],[138.77295105095027,36.03881538712045],[138.76914130962382,36.03881261271198],[138.75979788596374,36.034852919326795],[138.75441119332197,36.03452597259559],[138.75357085601024,36.02829013468204],[138.75065527911795,36.025052640067315],[138.7485485596684,36.01841322509034],[138.74918491635083,36.01672183774269],[138.74475680927935,36.01367905444488],[138.74376983121283,36.01009989209638],[138.73668588764372,36.006466026685814],[138.7373708562801,36.004297972573454],[138.73216802913134,35.99833213541979],[138.72991688665502,35.99809797264339],[138.72606544736254,35.99447744058148],[138.7168090268152,35.99290438692799],[138.7125500516437,35.98533300001799],[138.7114468613836,35.971281639835865],[138.7141837483814,35.96551525162761],[138.71947788639545,35.96288719788595],[138.72104119319658,35.95909000030332],[138.7255997802058,35.957611108365995],[138.73046944181135,35.95030110761007],[138.73113549860443,35.945145279031465],[138.7392543316222,35.93910805369376],[138.7374595851918,35.935792801896355],[138.739170661397,35.933259748039006],[138.7385070039951,35.929019198177514],[138.73377525342528,35.92317113533966],[138.73239355391945,35.91955783832361],[138.7291068349126,35.91722810769107],[138.73061878143164,35.91463227935628],[138.72901128374383,35.909220613440596],[138.73488797739833,35.9040008916279],[138.73918438415205,35.90584394604133],[138.74910697840437,35.901607532161904],[138.7535717508357,35.902866693643034],[138.75829011679548,35.902408359558194],[138.7656671080507,35.89910836026269],[138.77083992212476,35.90050030574457],[138.77715525291262,35.90041917070823],[138.78911505801364,35.89324166706933],[138.7911186638953,35.89080777515875],[138.79156031105958,35.88399777497739],[138.79278810598635,35.88193277507759],[138.79180752299885,35.87597530611555],[138.79697033661182,35.87213000019938],[138.80449341104213,35.86975583766184],[138.80840488997376,35.87001953237558],[138.8136048635737,35.862367774853],[138.81968241181391,35.86523322533316],[138.8285024381371,35.86573777467862],[138.83242669283766,35.86225041422529],[138.84172119337848,35.86491300013489],[138.8454486899052,35.86739086529627],[138.85662841766737,35.86461638663701],[138.8568558876891,35.8602555587471],[138.85881116670203,35.857574441407394],[138.86555399472115,35.85868027927154],[138.86943150535978,35.857249171012484],[138.87398066117862,35.85177694564959],[138.87970263277032,35.84692246819742],[138.88564795099217,35.84713330615722],[138.89203849478076,35.839845251557165],[138.8944090528356,35.84079302727645],[138.89916130974666,35.846720531727215],[138.90467438411565,35.84847497324148],[138.91094608339506,35.852727467898376],[138.92262333320036,35.85068661299687],[138.92637613485078,35.848918278755605],[138.9351467191458,35.85101546808943],[138.94393341119803,35.854818801746376],[138.942867587769,35.86016213537431],[138.9465359403814,35.86435825243143],[138.94514372240496,35.86792853217605],[138.94926216591625,35.86901905368643],[138.9543946166183,35.87417853171394],[138.9600832557377,35.87678210770815],[138.96520408629965,35.87778572143395],[138.96802189429502,35.88221350474947],[138.97248747072024,35.881979892358174],[138.97892778209155,35.88501069398836],[138.9852588851894,35.88118486468983],[138.9887513879662,35.88114680178353],[138.99588085611663,35.88444708076821],[139.00076280156213,35.884000413588296],[139.00665703019786,35.88962455872644],[139.00680510986797,35.893637892175036],[139.01054788587635,35.89709983778732],[139.0183993000877,35.89842399956797],[139.02356044096166,35.897358441438996],[139.02932958469262,35.89290846825128],[139.0376107255546,35.889094027067756],[139.0483265236502,35.8812087479854],[139.04984208814187,35.87883291900408],[139.05781985710075,35.87749738709476],[139.06144680942282,35.873706559410266],[139.07255294386334,35.871723801612234],[139.0777618549257,35.875340197692026],[139.08253938998098,35.87487299988908],[139.09165671868266,35.869033945560204],[139.09909136187696,35.86867441369327],[139.1026774705889,35.86657913541882],[139.11601306125385,35.86445499969852],[139.1291967186537,35.86556086544164],[139.13536063598463,35.86538700040978],[139.13891175117647,35.86401117077895],[139.14754316538483,35.86271063958441],[139.15511927373552,35.858569802054774],[139.15940066091184,35.85706510766863],[139.16324705590694,35.85097038687388],[139.17435761321337,35.8483120808379],[139.18362817110324,35.84357458629819],[139.19244150467182,35.84027153200566],[139.20313791158537,35.841199054093124],[139.20746766520062,35.8464198919645],[139.2126493636772,35.846611279387105],[139.21933267186535,35.84252099994427],[139.2325348903729,35.836636000151316],[139.2372135278821,35.84021072074819],[139.2409610253311,35.840154891734926],[139.24252795100415,35.8367871078388],[139.2522554733115,35.8382490538508],[139.26050435818968,35.83600127933562],[139.2718918940957,35.8396882254313],[139.28184577216473,35.83951961333952],[139.28288438390723,35.8371685049226],[139.2909105058153,35.83795710783431],[139.2963141120067,35.83513961280295],[139.30116855978122,35.83495989228527],[139.30118547333097,35.829771000131586],[139.30259182865007,35.8240501706789],[139.30677739306225,35.82302933313724],[139.31147241172243,35.825278774995525],[139.31615907927812,35.823667667428936],[139.31649683496107,35.819359054177085],[139.31502486420618,35.814269054173565],[139.31675208773868,35.81268877536672],[139.32224586265647,35.79960797342926],[139.32572944235994,35.795211865135514],[139.33036027190906,35.79433853169792],[139.33278330720395,35.79189019757462],[139.33849946827593,35.79459408125189],[139.34268111524136,35.79403186467886],[139.34670783419926,35.7964051980415],[139.3502647212399,35.793405747677184],[139.35665474701898,35.79347713496185],[139.35984221774424,35.79162158626724],[139.36871442273252,35.7902888017868],[139.367494863797,35.78437827923426],[139.36991070001886,35.78154164033447],[139.38013739282644,35.778746640045426],[139.38154097283768,35.774495532143135],[139.37902566800028,35.77119691870291],[139.38022313868692,35.766374973326435],[139.3848442537594,35.7652177482006],[139.38960150460582,35.767135801576046],[139.39215204937761,35.76328525171306],[139.39845041535443,35.764404973310945],[139.4002815564487,35.7677513596376],[139.40488491620602,35.769159694364475],[139.40950907908075,35.768689413685536],[139.41590297014602,35.76627469442167],[139.41956075212704,35.76590497323599],[139.4222124382535,35.76780302658847],[139.43155358033357,35.76634386487751],[139.43826972816544,35.767955531822395],[139.44496834011682,35.766659972979426],[139.4513491964084,35.76932746828811],[139.45856116656466,35.76967663996504],[139.4612528662269,35.77338161297109],[139.46984649811748,35.774206613244644],[139.4711551097206,35.77340383791682],[139.47949933892346,35.77993744135989],[139.48498491562145,35.78080161340381],[139.48957936399654,35.77914717110514],[139.49349411196374,35.78170019800581],[139.50670302232663,35.78277019788635],[139.51190500591133,35.785081306257325],[139.51403975363178,35.78850072113141],[139.52028282659126,35.788369612567635],[139.52926372184334,35.79412877472322],[139.5368599219479,35.80394346831645],[139.5416952267534,35.807306802367066],[139.54429189415566,35.80663625166176],[139.54719936365973,35.802658197717676],[139.54408655015425,35.79649569412106],[139.53982708215415,35.79374183781562],[139.53757900097014,35.7907587748976],[139.54379289182862,35.78819433290221],[139.54297894871956,35.77980741378116],[139.53223444876085,35.77341519815292],[139.52304914390288,35.77193630621559],[139.51739435796333,35.766811613065556],[139.5303018938174,35.76834910842467],[139.54783752258368,35.77398046792433],[139.5469796628812,35.76030272119368],[139.54435046700053,35.755483278630436],[139.54715824935374,35.75338410809019],[139.55778442281292,35.75958300005544],[139.56183442342,35.75960300007847],[139.5699961352135,35.76536797275378],[139.574590894754,35.76622797284273],[139.57816508385156,35.770851305643305],[139.58224258123016,35.771207135001305],[139.58398486391036,35.77483183811887],[139.58653763900088,35.77518183807143],[139.58876099872123,35.77852850498658],[139.60438380007236,35.77501738714278],[139.5984401428983,35.772141586365194],[139.6031665236162,35.77085963966067],[139.61723296992568,35.77034822489071],[139.61772905305338,35.76664797332535],[139.6229921140948,35.766871864944676],[139.62408328131846,35.7712532252562],[139.6245266929526,35.78081125233746],[139.6278748122728,35.78465764013805],[139.631692360614,35.7863359459472],[139.6342310253416,35.7903353866688],[139.63941022010567,35.79284872109167],[139.64056834005692,35.7976920271654],[139.64823839158862,35.79763008096353],[139.65336230862374,35.80022591919089],[139.66976630427155,35.80024146756972],[139.67838189400925,35.79882258559388],[139.6878324772871,35.80084091877342],[139.69616635529314,35.79928733274426],[139.7052580290349,35.793407891660934],[139.70919552535327,35.7920173329336],[139.71742552536773,35.79191653242208],[139.72224108915498,35.790726532403596],[139.72446216639594,35.78727430576464],[139.73387163356915,35.79004708110796],[139.7385369134479,35.787403747884696],[139.73783297001557,35.78052791912819],[139.74261827521332,35.78169625178066],[139.74885581104695,35.78599958601211],[139.7550008300243,35.786895693881206],[139.75559613535347,35.790029027217884],[139.75996978038108,35.79433763957047],[139.76076924800248,35.797410414359206],[139.75529871606295,35.80318402682144],[139.7506556683245,35.80666874776455],[139.75077319083016,35.81017069432215],[139.7612743324446,35.812888171252155],[139.76621883293285,35.817474837793554],[139.77175522672235,35.8168748380034],[139.77923433239857,35.808248720801885],[139.79243102457224,35.805290918940784],[139.79884102519327,35.80619397317338],[139.80230383865126,35.808553135019224],[139.8132977556869,35.8083208922954],[139.8196536449998,35.811779774816785],[139.82105561612389,35.81507699970382],[139.82492697809766,35.81190450538867],[139.8207519195655,35.80553533308921],[139.81964518777522,35.799587306109345],[139.82048630389988,35.79753925213481],[139.82605016927994,35.793360359792814],[139.8327654987288,35.795679505404905],[139.83800775575344,35.80080644056483],[139.8433866665615,35.79979808111659],[139.85264802888344,35.79215697336571],[139.8564852525924,35.790959467605376],[139.85989500604978,35.79533335994665],[139.8638486119239,35.79482777458219],[139.87077061007562,35.79731666723046],[139.87474810644005,35.79654027891081],[139.87660503199675,35.793827505435104],[139.87155469479342,35.78797889221215],[139.87134108872033,35.78557669420911],[139.87454243778336,35.78177586516409],[139.87724938994745,35.781166107729746],[139.88723972833088,35.784019170948056],[139.89377805411402,35.78274638743591],[139.88852341072686,35.796450801763115],[139.89083483835714,35.80056663993855],[139.88883933896443,35.80748494637322],[139.8903735284157,35.810856054163594],[139.89153416287138,35.819338558627635],[139.88799224414686,35.82433269359899],[139.88845119336793,35.83115769357278],[139.88984289243558,35.836371864769774],[139.89003630423213,35.84400238660089],[139.89320386486656,35.849708774740236],[139.89614055784057,35.85293264012927],[139.90033869027843,35.86417486537778],[139.89485044079527,35.87655538682168],[139.89305191991025,35.88542483808584],[139.8899197278132,35.89256094593094],[139.88313338519765,35.90185177543913],[139.88023036284108,35.904605108339126],[139.8765020488305,35.911035359894015],[139.87186569384676,35.91587119799743],[139.8674207523659,35.925545919308775],[139.86091966301206,35.932493693828974],[139.85052963713315,35.93761925212681],[139.84645824884922,35.94098925195249],[139.83777330699263,35.95390591862332],[139.8350086120579,35.96024619840341],[139.83530722384933,35.96434119838767],[139.83293364497183,35.969345919278794],[139.8272344487109,35.971360945651156],[139.8252358628448,35.97553066670696],[139.8267447732527,35.98314591894905],[139.81730564194186,35.99432205391969],[139.81425924786606,35.997061225195466],[139.81691233513618,36.002389532051325],[139.81340155633677,36.02313227903153],[139.81727243807268,36.02972919834389],[139.8172824376345,36.03250472111603],[139.81365272439382,36.03853305395734],[139.8045927238752,36.04464138689053],[139.80160021987433,36.049199694210586],[139.79469966335887,36.05594580205718],[139.79135769090476,36.05813580232547],[139.78760328126646,36.06489191872714],[139.78333632910835,36.069501919078334],[139.77986722399328,36.08275717060701],[139.77621722384583,36.09076741408495],[139.773139441632,36.088904667216696],[139.77186021987336,36.08223800008369],[139.76576102495142,36.08042774844188],[139.7564721136971,36.08255886469988],[139.7467584949087,36.087079440963464],[139.7317673278999,36.08651777477553],[139.72830542185784,36.090139440882524],[139.7280648900827,36.09645110783242],[139.72637855962284,36.1125191347503],[139.72204608286052,36.1181577481816],[139.71358472055852,36.12624917076266],[139.710133916647,36.13594469429228],[139.70136783435817,36.1470608381872],[139.69611730177212,36.15639638738344],[139.69402510997088,36.16636025242377],[139.69196817069462,36.16983997313628],[139.69088791224738,36.175255251628585],[139.69364686141364,36.19167522463198],[139.6878641118393,36.19635580197871],[139.68794383943668,36.19968133302717]]],[[[139.26308377389716,36.243938080677935],[139.26289044124098,36.24510058572349],[139.26172350163836,36.24427891923676],[139.26308377389716,36.243938080677935]]]]}},{"type":"Feature","id":"JP-11-capital","properties":{"Kind":"capital","PrefectureCode":"11","PrefectureName":"Saitama","CapitalName":"Saitama","CapitalNameJapanese":"さいたま市","PointKind":"prefecture-representative-point"},"geometry":{"type":"Point","coordinates":[139.649017,35.857033]}}]}
