{"type":"FeatureCollection","bbox":[135.76407275005738,34.79068027867197,136.45499834010138,35.70373730613181],"displayBbox":[135.76407275005738,34.79068027867197,136.45499834010138,35.70373730613181],"DataVersion":"2019-boundaries-v1","Attribution":{"BoundarySource":"MLIT National Land Numerical Information, via Fabio Crisci / piuccio","BoundarySourceURL":"https://github.com/piuccio/open-data-jp-prefectures-geojson/tree/513fb852832c99470e16b95a30ddd68bf3469dc0","BoundaryDate":"2019-01-01","CapitalSource":"Geospatial Information Authority of Japan (GSI), prefecture representative points","CapitalSourceURL":"https://maps.gsi.go.jp/","CapitalSourceRetrieved":"2026-10-04","Notice":"Simplified and enriched by Ashiato Kai. Modern geographic context, not historical immigration-era boundaries. See GEOLOCATION.md and THIRD_PARTY_NOTICES.md."},"features":[{"type":"Feature","id":"JP-25","bbox":[135.76407275005738,34.79068027867197,136.45499834010138,35.70373730613181],"properties":{"Kind":"prefecture","PrefectureCode":"25","PrefectureName":"Shiga","PrefectureNameJapanese":"滋賀県"},"geometry":{"type":"Polygon","coordinates":[[[135.76878530459817,35.35601446759364],[135.7662486120838,35.34850225157771],[135.76407275005738,35.34455753190463],[135.77431416296827,35.34282002732243],[135.7808185213578,35.340561972656985],[135.7857330609321,35.330719170753184],[135.79003416304624,35.32821889178848],[135.79087111530976,35.32380277537783],[135.80364444893223,35.31725055866639],[135.8087819457303,35.31687833286884],[135.81124888502814,35.313530279199085],[135.81067194565378,35.308317224960035],[135.81436416267604,35.30711166667015],[135.81496749715234,35.3012575046302],[135.81967917035752,35.29930722494851],[135.82140250342286,35.29683500033502],[135.8200533332947,35.291069999780746],[135.8255352794297,35.283511667429536],[135.82962333305045,35.27673527940965],[135.83460861239757,35.27407944111337],[135.84008167323066,35.275554170988244],[135.8417833326348,35.27812444059049],[135.8496158368015,35.280281945655304],[135.85168111459188,35.28596777529265],[135.85507250299372,35.28833833334744],[135.8585372239138,35.28709666727741],[135.86075527943262,35.28295999990411],[135.85849167325216,35.27837277488368],[135.8545322181874,35.275327504960444],[135.85505111531677,35.272152774930646],[135.85247861179857,35.26895861324948],[135.84753472105058,35.266665279079405],[135.8446672237135,35.261307505037394],[135.84608916967954,35.257112225249045],[135.84236027200905,35.25319861312556],[135.84399444898474,35.25172666665242],[135.84015277632966,35.24793250518104],[135.83992360568993,35.24385110834203],[135.83522250311614,35.239639720796504],[135.83753221843722,35.2375466674448],[135.8373519457358,35.22595694595634],[135.83086416275103,35.22276138672868],[135.8293244487644,35.220480559430314],[135.82981583743106,35.21612972120971],[135.8324783397037,35.214278613367355],[135.831086939211,35.21041722487507],[135.8354941631252,35.20669694630709],[135.83524055790554,35.20221000019143],[135.83982055777255,35.19143861320151],[135.84190805421338,35.189839721126305],[135.84063027226932,35.18006555907834],[135.84313639412937,35.178888612719334],[135.84236306080663,35.17390750532718],[135.846813060974,35.162386946200684],[135.85028194575523,35.16033555933865],[135.85615306091506,35.15943694595836],[135.85676306116636,35.153615000332024],[135.85456333293155,35.15273083815771],[135.8526141630133,35.14618027889679],[135.8487100000665,35.141852225000264],[135.85017389131212,35.13522472064437],[135.85229416264553,35.134266946262585],[135.8496055512552,35.12693889161659],[135.8498125032445,35.120539720631655],[135.847350557882,35.11426000029883],[135.84495527926276,35.11432472090917],[135.84326250336187,35.10990333267273],[135.84293834003245,35.10251500006723],[135.83789472076478,35.09744389212199],[135.83504610919067,35.091326946381514],[135.83983972772137,35.08613694626314],[135.8383174965553,35.07907861268785],[135.83421916997872,35.07607444088279],[135.83189194575675,35.07145555882704],[135.83441805414998,35.067752225285005],[135.8358466667903,35.06232972074008],[135.8348525031406,35.05555389209849],[135.8315561092271,35.05259166737159],[135.82698306111945,35.05385305377547],[135.82110138791882,35.04940944059325],[135.81590138823856,35.047369171150365],[135.81541693874078,35.042150837890915],[135.82170360633643,35.03605389217341],[135.82461666692575,35.035638333442364],[135.82811221840427,35.02838055901566],[135.8264213877369,35.02361361257823],[135.83004583724562,35.021417505013915],[135.83451778177027,35.022080558970686],[135.83546416264107,35.01232861287525],[135.83170111501454,35.011708891851924],[135.82494555079654,35.01235055903112],[135.82409749730175,35.00882417069897],[135.83268167282097,35.009425279353195],[135.8340533331948,35.00447527861127],[135.83655888488465,35.00122638688828],[135.83257194563885,34.99910082933985],[135.82747527896106,34.99111916181994],[135.84230027194008,34.98994194566433],[135.84926722360353,34.99173389160586],[135.84911778235983,34.98481249510064],[135.8550263938531,34.984741667194214],[135.85675999987416,34.980002224722966],[135.85407749667922,34.97658666704109],[135.8522752786812,34.9713474946912],[135.85564778221942,34.969879161693996],[135.8561172238309,34.967127225441175],[135.86321972760845,34.96055999994411],[135.8638783398136,34.957601666583685],[135.8754266673069,34.95366527912938],[135.875712775824,34.950559721354125],[135.87867944230243,34.94720610807548],[135.87602833983613,34.943229720575175],[135.8799244493539,34.93452499992884],[135.8707133330539,34.926003892066035],[135.87185360595925,34.92389861333038],[135.86905277626465,34.920170829020606],[135.87118416321857,34.91505777489647],[135.87117834010837,34.909948613038125],[135.8631311147093,34.903696386778904],[135.8672891697595,34.89686944067222],[135.86752055812735,34.893336667153505],[135.87586472078033,34.88628555873163],[135.88141027236622,34.883746946164706],[135.88417944232742,34.88451166668011],[135.8887205582073,34.881287494622256],[135.8855380544377,34.87822972142453],[135.88872250344082,34.87549582916921],[135.89966944169146,34.87140444086231],[135.90946027177415,34.87689749542312],[135.9098788846029,34.88036249513311],[135.9126555513127,34.883516386971735],[135.9239513878464,34.88490610843019],[135.93084610866106,34.888636107770196],[135.93286360637035,34.887794441260496],[135.93602610921766,34.89164055926443],[135.94027083013475,34.89237805370425],[135.9395766668298,34.88851082861191],[135.9411819458902,34.884732774897714],[135.9400777816644,34.88027638684582],[135.9432469385954,34.87825222516011],[135.94362693903213,34.872794441110614],[135.94137693869482,34.86823610771023],[135.94098833984003,34.86373889223614],[135.94703527875515,34.85352055862694],[135.9495852794372,34.85158027940645],[135.95713360593118,34.85477638722057],[135.96288360579388,34.85312694605176],[135.96273277599687,34.85043361322073],[135.96713167308826,34.8473550000333],[135.97205444865392,34.84604889214273],[135.97147138759453,34.83849444126548],[135.9777766666599,34.83846138668372],[135.98708639362223,34.84080055929843],[135.99158722437096,34.84283916229754],[135.99480277642704,34.84225999979918],[136.00075083038655,34.84508555905137],[136.00526972761588,34.84311027911616],[136.00255888498464,34.8373411084055],[136.00232778170187,34.83276194580719],[136.00538250260047,34.82655555889198],[136.0121661085791,34.82517361297192],[136.01549000016348,34.826599161622084],[136.0217019457882,34.824668891855936],[136.02771138837,34.82180166701335],[136.02903389090136,34.8173900004482],[136.02054500574752,34.812232494633975],[136.01865778203103,34.81267138717482],[136.01505138821108,34.80914582891694],[136.01360666691426,34.804897775112295],[136.01027111472024,34.799553332620235],[136.01133111503896,34.79580555907933],[136.01571055799593,34.79782222491582],[136.0163097277118,34.794694161606344],[136.02228888472428,34.79155527855329],[136.02842944216513,34.79068027867197],[136.03466111531827,34.79426555910834],[136.0384811152113,34.79393861327645],[136.04117138764946,34.79845777490647],[136.04853306075222,34.799649999847645],[136.05155444917852,34.79909110806824],[136.0551166674004,34.80207277523846],[136.06369111495303,34.80160833295827],[136.06840722361449,34.80396027864401],[136.07299306098105,34.80421249531048],[136.0755066669991,34.807852225200065],[136.081804449316,34.80774833281936],[136.08568666700614,34.81088361318825],[136.0906155507671,34.81222666702712],[136.090797782192,34.81584082919096],[136.09518693872633,34.81910416222735],[136.08755472077382,34.830450278957244],[136.0900805575717,34.83327166715378],[136.08623194574773,34.836581387221315],[136.09269944182586,34.83720916167351],[136.09507834019325,34.84017694600931],[136.10009888465584,34.83911249494571],[136.10440277556768,34.84056610783966],[136.1073963938286,34.84523916235753],[136.10830055782458,34.852823891609376],[136.11338610888185,34.85613916229255],[136.11740944189228,34.85588722531526],[136.12103527905492,34.85978861295416],[136.1263816730758,34.862022494742405],[136.12277138788932,34.866321387222285],[136.12585722443146,34.870019440844544],[136.12213194563287,34.87275194634532],[136.1185133327242,34.87065666717149],[136.1157622175524,34.871978053644284],[136.1132388853663,34.86930444114711],[136.09889194590664,34.87058138672165],[136.09577333267328,34.873601107804916],[136.09302527879368,34.8735202794374],[136.08698027162234,34.87635555856224],[136.08516333262173,34.87878361297339],[136.08960027193507,34.8825000001749],[136.08537277573305,34.88676499990487],[136.08622277626023,34.88912777522671],[136.09478610909173,34.88780082914502],[136.09837778190922,34.88953416177219],[136.10178472138784,34.896143891927125],[136.10626944168143,34.900084721133],[136.1122969390526,34.90188027875189],[136.1155258370478,34.896273612837035],[136.11628027201698,34.89215722517588],[136.12044583730562,34.89143972086646],[136.12172055795747,34.88787249521954],[136.12553861171762,34.88820333331722],[136.12797805424384,34.8850283325915],[136.13153277571712,34.883134161612304],[136.1348899997737,34.884844162228376],[136.13643888504657,34.888208892026796],[136.14407639371063,34.88540638689528],[136.1485458372207,34.88201638704669],[136.1535719457887,34.884581107831934],[136.15942138818662,34.884772774943656],[136.15983917004178,34.88657416196804],[136.16689778240675,34.88789444137541],[136.18077861224322,34.88578972111878],[136.17825527915784,34.882583054364545],[136.18219666684274,34.87817000014542],[136.18707639366073,34.87839027918807],[136.19807444937635,34.869862224961764],[136.20907277578806,34.86812138659275],[136.21201389072849,34.86602110808769],[136.2200877819257,34.86335333308989],[136.22360749728819,34.86320777511878],[136.22783194568785,34.8609716666092],[136.2353872239413,34.86147416190312],[136.2373136059382,34.8597311076046],[136.24273916997674,34.859597775017335],[136.25067500624664,34.85772805390661],[136.2541219457712,34.85828416228429],[136.25806944165151,34.860870278840366],[136.26789666729746,34.864467495078884],[136.2688944489197,34.86790472102609],[136.27596749720226,34.871826945956855],[136.27711527944666,34.87421361266814],[136.28235027174776,34.87109999966532],[136.28906138787283,34.86957277456395],[136.2970983403162,34.87275694567654],[136.29876583717373,34.875366387049155],[136.30501944209368,34.875182224779905],[136.31291778203013,34.88062749476313],[136.31322610919767,34.88697222528799],[136.31905666673185,34.88956638717906],[136.32422389062015,34.88992416177069],[136.32634194602406,34.888642224958744],[136.33072944240985,34.89243444119654],[136.33543111515394,34.893285278992494],[136.33940916999723,34.89547194637328],[136.34604555066164,34.89472805415642],[136.35033055760925,34.89896555891346],[136.35735666667688,34.90048166659568],[136.36019250338143,34.90411610757235],[136.36609749690206,34.90500638693527],[136.3651522177007,34.91268610797755],[136.36727277591797,34.916630558753354],[136.3678122180595,34.92190082876027],[136.37391306143866,34.92377916177895],[136.37190306137722,34.93458833288531],[136.37535277620975,34.93989194615642],[136.3726897280486,34.94225749498747],[136.387709442237,34.953081387096404],[136.3947877821305,34.9514227746414],[136.3964711151499,34.957418613178504],[136.39955639411232,34.961106107860644],[136.39912194602107,34.9631433330984],[136.4033780541539,34.96643333283208],[136.4031461091057,34.969152495091635],[136.40744916994333,34.97215194635527],[136.40891888519843,34.975056386942754],[136.41354805369974,34.977937775208204],[136.41587444874688,34.98080110778494],[136.41510306065777,34.98374166694441],[136.41635666702666,34.99212972100986],[136.413485836802,34.99542666710704],[136.42136444921005,35.000056386892766],[136.4200961092481,35.0051919456518],[136.41696221833172,35.01123805359333],[136.41712221761634,35.01960055881881],[136.42128389063907,35.02127083817868],[136.42382778222645,35.02977138664022],[136.418839441587,35.02990972125667],[136.41645472100868,35.03729499976447],[136.41776778155793,35.042603892056036],[136.41785306067027,35.04950250513656],[136.42220972829637,35.05138277529488],[136.42471999962834,35.05698444097919],[136.42875666688678,35.05635472129342],[136.43104055817525,35.059232505076125],[136.44159833999151,35.06671944114936],[136.43526666672335,35.08248722490555],[136.44210888511702,35.086153892188406],[136.4397786121932,35.090403332747655],[136.4386994419258,35.09636750525624],[136.44191083012083,35.10157722480915],[136.44082306143525,35.10774944108391],[136.44251360611804,35.110854170583536],[136.4399658366541,35.1166322247974],[136.44451861224422,35.11900666702411],[136.44802306071574,35.12384138727026],[136.44465583709723,35.1266136131278],[136.4356388853264,35.1306552788181],[136.43795138764654,35.13656417089982],[136.4429477817148,35.13905722471122],[136.44318389062414,35.14517389166184],[136.4460405583252,35.14987138705493],[136.4503938912651,35.14949861267087],[136.45499834010138,35.1524147210626],[136.45394138758502,35.157921666551715],[136.45465306069025,35.16141777471057],[136.45255389104932,35.16583861256197],[136.4485363937397,35.1668236130194],[136.4438713881541,35.171701107720025],[136.4397766669597,35.171496386948775],[136.43572444862446,35.17650333276265],[136.42446083030313,35.18451027932599],[136.4194419459891,35.18272222475093],[136.41629416324508,35.1850566669317],[136.4094338909614,35.18766110807371],[136.41270749695343,35.19205333309492],[136.41262306140527,35.1959108383146],[136.4161371982732,35.205483865188285],[136.41679938978007,35.2143888648543],[136.415130506168,35.2177435860977],[136.41216966279978,35.21839858572622],[136.4082705063788,35.223677748229534],[136.399134383645,35.22605941381096],[136.39869938966513,35.22796941375748],[136.39380771715253,35.230651360272134],[136.39138108906604,35.23437941437851],[136.38568552516688,35.23511469378815],[136.38373691282834,35.23953135968458],[136.37974330690815,35.24093746769006],[136.37912635489738,35.247388026836006],[136.38915442343796,35.24976664011842],[136.39395691288132,35.25351577523287],[136.3969399740007,35.257909946386974],[136.39354136224415,35.26191299968525],[136.39483747057284,35.26709133289876],[136.39446302165118,35.27103910756881],[136.39585024569237,35.27476355899108],[136.39573525297965,35.28094522534195],[136.39114968900697,35.29019689207297],[136.39614778189468,35.29426077461511],[136.39938055776656,35.29943272084347],[136.40312027158336,35.300592170892],[136.40324055770566,35.30344161343976],[136.40684778159994,35.30526438724172],[136.40678167333567,35.30999825211768],[136.41226416266102,35.315562693963216],[136.4121319461325,35.3221810270328],[136.41351917017357,35.32402102734858],[136.41117391724254,35.32794213532134],[136.41534641990143,35.336532973018336],[136.4187316992086,35.34064436044895],[136.41918977968464,35.34455072133875],[136.42232505825484,35.34838961329007],[136.42142311288637,35.35391683759201],[136.4161648119566,35.35474989219381],[136.41097588832667,35.35221710813306],[136.40961591374344,35.356663504717005],[136.41352841790228,35.359972919015036],[136.41352817058862,35.36443069382153],[136.41191177680707,35.36989597282093],[136.41557455272346,35.373560387302064],[136.42117316520944,35.37271625215334],[136.42608483774518,35.37331846787305],[136.4368934503725,35.3791323600704],[136.44156236081437,35.384389278742276],[136.44414294384183,35.388655387336314],[136.44088933877208,35.39386174792139],[136.43690046688312,35.395279531825],[136.427965226614,35.40078450510089],[136.42433691271845,35.40488197282485],[136.42030610903976,35.41290805426337],[136.41180807957926,35.418598054056986],[136.41183949379763,35.42240608127571],[136.41888674412803,35.427775505135514],[136.41633369564363,35.43018438690001],[136.41572900139238,35.43342241391332],[136.41949094734946,35.43541741418238],[136.4231190274212,35.439734359653016],[136.42220542234247,35.4425579457926],[136.4261690529595,35.448160973050506],[136.4245968869368,35.45332817085847],[136.42146605731273,35.455638720750414],[136.42036391656154,35.466234775014925],[136.41407557712625,35.466626999936125],[136.4119122435552,35.468087837983376],[136.40176724965886,35.46994061316883],[136.40195561625876,35.47347253233153],[136.39800535676181,35.480928612665366],[136.39284566829303,35.48546333256678],[136.38688011712372,35.488406387344924],[136.38783374832883,35.49683274803294],[136.39232963730296,35.50396189242747],[136.39722024591765,35.50966186480326],[136.40229000038323,35.51325238738781],[136.40564197060053,35.513387640027645],[136.40250447520145,35.51897180220698],[136.39927169932957,35.521120171059124],[136.40176450133072,35.52581377508568],[136.40040450066726,35.53008183790655],[136.3842527756451,35.53309133279885],[136.38099583678854,35.537659108181344],[136.38026808020777,35.54606858589659],[136.37577111474525,35.55123636016992],[136.37356418923605,35.55939417070448],[136.36562360634446,35.55991805367529],[136.36251610873148,35.55848138670666],[136.36108302196396,35.55063250498614],[136.3591263292168,35.54878446832862],[136.35666214004584,35.53991446757868],[136.34605596571032,35.53623144072844],[136.34092788571343,35.53728341369862],[136.3400270815846,35.54382563984143],[136.33732014291036,35.55025453162136],[136.32975121924346,35.550956000119356],[136.3254613622521,35.54878805392559],[136.32546722403322,35.54567508124006],[136.32210024592962,35.54434719806477],[136.3175033846735,35.54739736030001],[136.31626258105337,35.555939306353935],[136.3189151098445,35.56559122535481],[136.32275044137987,35.57000705398241],[136.32318710809864,35.574555639631114],[136.32210352755578,35.58123313460152],[136.32422383935875,35.58512230584978],[136.32234856043783,35.58768619835939],[136.32268413706333,35.59318202732874],[136.32169221812148,35.598256198364936],[136.31906111477872,35.60380310792715],[136.31504360577787,35.605691197690646],[136.32054364537305,35.610718945722795],[136.32367591391233,35.616516440581336],[136.31556119259506,35.62339561301718],[136.30649255498747,35.62226450510286],[136.29816583738352,35.61747702714314],[136.29450888457745,35.61794730602338],[136.2885594159843,35.62058817060762],[136.2874066928647,35.62794786520186],[136.28375863795088,35.63128119786904],[136.28253724979436,35.63446425202369],[136.27916418867642,35.63668564043002],[136.2831031391986,35.64373644128381],[136.2816134500008,35.64754950470592],[136.27656622625045,35.651475918678784],[136.2771487549112,35.65556977472539],[136.28074211395744,35.65863086462275],[136.28053408637902,35.66127530581076],[136.27428099856934,35.66533089210702],[136.27179489022205,35.66553061264773],[136.2693598831521,35.668727838319114],[136.26403097285117,35.67106036044731],[136.25747566786788,35.67127983819404],[136.25037260741,35.676245134605324],[136.2446498048447,35.67378822544629],[136.2344070042799,35.68246213531933],[136.2311353309309,35.6826932790716],[136.2276794683329,35.680469946331016],[136.22350391697228,35.68147691902465],[136.21947114108036,35.684353864639206],[136.2162988850855,35.684441386660694],[136.21181083010583,35.68244638729101],[136.20804250255946,35.68769474801428],[136.20419055784805,35.68679058581694],[136.20146277558672,35.68952558603701],[136.19850250328795,35.6895736673909],[136.1930914138377,35.70076172107662],[136.18528474719335,35.70372619770592],[136.1783569394213,35.70181036025997],[136.17459306082117,35.70373730613181],[136.17155833994548,35.701738440576605],[136.1667747209766,35.70221483844409],[136.1660444229118,35.69725122466434],[136.16137691271445,35.697701775116855],[136.15675389107923,35.700368720939764],[136.15135693897162,35.69842986534604],[136.14979358000983,35.69540653168616],[136.1502605322978,35.69112263989797],[136.14814688716922,35.68731180229787],[136.14349411236344,35.683039054009214],[136.14231269817253,35.67901766713169],[136.1396140863211,35.67797017098667],[136.13449377376867,35.669822973351586],[136.1374870556831,35.665076305726984],[136.1478151101793,35.66251991895916],[136.15040147944478,35.658855467605804],[136.15006338471744,35.65454519780269],[136.15154391701822,35.64827661287546],[136.15544691264495,35.64183994555708],[136.15730664138846,35.64125855903535],[136.1597735537066,35.63495910757683],[136.15986596624145,35.62522774786231],[136.1626043056442,35.62390941368852],[136.16433927413823,35.61995469355429],[136.16688983060124,35.61862497306413],[136.17036119301474,35.612357468222626],[136.17080255509393,35.60867746759112],[136.17437002625581,35.60359191923175],[136.17748552513694,35.5949838649135],[136.17323800283168,35.590721946260885],[136.17242102541002,35.58833889212622],[136.1664660053019,35.58265446812925],[136.1703298048767,35.5710880813499],[136.16688036343805,35.56535225210479],[136.16323955885866,35.57114422512592],[136.1575639949824,35.57124172062896],[136.15086847040368,35.57288144102574],[136.14956094698016,35.571390332697774],[136.14333014257204,35.5711486938572],[136.13868680884923,35.575672585921154],[136.132817393408,35.57452813476567],[136.1215804408847,35.57616399976882],[136.1167657458426,35.57881066677891],[136.1122201954057,35.57983817099483],[136.11259905280406,35.57341094565868],[136.10889406001297,35.56719677511114],[136.11067819714117,35.56332400030243],[136.11009569366138,35.55928677456507],[136.10544958463072,35.55541927877675],[136.10905038916417,35.54965786471871],[136.1094061996365,35.54511869407253],[136.10797508418284,35.54012063985567],[136.10608758797184,35.538638972610556],[136.10719810590797,35.53036646793822],[136.1037831130003,35.53041119841811],[136.09742758791288,35.533889532376065],[136.09355732760866,35.53734313497773],[136.09007260666556,35.537691467587194],[136.08322847001796,35.54055841363993],[136.08051985680606,35.53894646790525],[136.07935263301772,35.535724802257846],[136.07669680911056,35.5344336941597],[136.07704680906306,35.530541440934826],[136.06923347574434,35.52624727888889],[136.06235155587967,35.52814838723833],[136.06071654972902,35.53186727905177],[136.05783269822052,35.53192450471215],[136.04834661510426,35.53453172116207],[136.0463768606037,35.530175585934614],[136.04093800278667,35.53218169373025],[136.0282755249956,35.52906780193757],[136.02616885860596,35.52685058638548],[136.02884216623306,35.52342808144084],[136.02353466879003,35.51923308134167],[136.02013216566695,35.51189610811895],[136.0159635543746,35.51227222528303],[136.0151032808917,35.50872917071473],[136.01172688688644,35.50484055884476],[136.01168630407972,35.49761666727545],[136.00666491605307,35.49181944131419],[135.99319022005272,35.49158722467075],[135.98950688743298,35.49268194601507],[135.98095105134996,35.48668917056881],[135.97264642019616,35.5001055320447],[135.9671869777968,35.50298441389964],[135.96257977973312,35.50133302659793],[135.95758619964352,35.5059605322528],[135.9523700778169,35.50622135992785],[135.95182011720476,35.511223586099675],[135.94702236089336,35.52047553162055],[135.93964708194733,35.52054274784956],[135.93759958465319,35.51384497316701],[135.938021802864,35.51116191868766],[135.93528817141203,35.503911640110175],[135.9332139948301,35.50230802659422],[135.92983372204867,35.49196135972903],[135.92482510979107,35.48997053231426],[135.9222942799571,35.48581830577024],[135.92373786001428,35.481702197798256],[135.92169092119912,35.47611969396877],[135.91814289158128,35.47382635979869],[135.91600983098897,35.47057830624391],[135.91732814537772,35.466755252253165],[135.9148531391611,35.45913610774522],[135.91557674357193,35.45611889217321],[135.91245508433474,35.448685559291164],[135.91281477268365,35.44000083776848],[135.9145950580156,35.437989720749044],[135.91416224399245,35.43210610771075],[135.9080756161968,35.42952166659171],[135.9027111925675,35.42943305369255],[135.90097730236073,35.425758892359056],[135.89298150469278,35.41984750465866],[135.8935459138129,35.41073444144138],[135.89057007784686,35.403175000226156],[135.88028680868933,35.40060197330246],[135.8755535022924,35.39740474763107],[135.86453192031195,35.394422801671],[135.86043306133672,35.395251694210344],[135.85433894938308,35.400778360033314],[135.8553714403398,35.40949697340665],[135.84602622612954,35.41135502671318],[135.84415732789842,35.41307753240227],[135.83837291817565,35.414223080730665],[135.83631488982041,35.412008359897925],[135.83203741919158,35.412240586433995],[135.8266952268034,35.414650026677464],[135.8192344232301,35.41254891899746],[135.81321442260753,35.41297780208396],[135.8107602716692,35.409466694132675],[135.81055919585026,35.40326144126254],[135.8080919966484,35.39524144103973],[135.8100745269179,35.39177089161342],[135.80752919641532,35.3853617210666],[135.80517807990452,35.38439200009077],[135.79910360644635,35.38491950463151],[135.7952397277313,35.38738530628689],[135.79089358037447,35.38663891935067],[135.79196022038798,35.381115586415206],[135.78997855976274,35.37836725194717],[135.7839237742628,35.377014197647156],[135.77914569421853,35.373524748068746],[135.7797765236677,35.37188780208044],[135.7777490012155,35.36593919773583],[135.77006866413763,35.35997558640423],[135.76878530459817,35.35601446759364]]]}},{"type":"Feature","id":"JP-25-capital","properties":{"Kind":"capital","PrefectureCode":"25","PrefectureName":"Shiga","CapitalName":"Otsu","CapitalNameJapanese":"大津市","PointKind":"prefecture-representative-point"},"geometry":{"type":"Point","coordinates":[135.868561,35.004513]}}]}
