{"type":"FeatureCollection","bbox":[139.3265660573777,36.19968133302717,140.29010489022858,37.1549407481171],"displayBbox":[139.3265660573777,36.19968133302717,140.29010489022858,37.1549407481171],"DataVersion":"2019-boundaries-v1","Attribution":{"BoundarySource":"MLIT National Land Numerical Information, via Fabio Crisci / piuccio","BoundarySourceURL":"https://github.com/piuccio/open-data-jp-prefectures-geojson/tree/513fb852832c99470e16b95a30ddd68bf3469dc0","BoundaryDate":"2019-01-01","CapitalSource":"Geospatial Information Authority of Japan (GSI), prefecture representative points","CapitalSourceURL":"https://maps.gsi.go.jp/","CapitalSourceRetrieved":"2026-10-04","Notice":"Simplified and enriched by Ashiato Kai. Modern geographic context, not historical immigration-era boundaries. See GEOLOCATION.md and THIRD_PARTY_NOTICES.md."},"features":[{"type":"Feature","id":"JP-09","bbox":[139.3265660573777,36.19968133302717,140.29010489022858,37.1549407481171],"properties":{"Kind":"prefecture","PrefectureCode":"09","PrefectureName":"Tochigi","PrefectureNameJapanese":"栃木県"},"geometry":{"type":"Polygon","coordinates":[[[139.3932891962395,36.910795505108524],[139.39559555079404,36.90610161329886],[139.3939033072919,36.903278838347774],[139.38688269757847,36.900166053620524],[139.3794209730995,36.89798658621203],[139.3734225813871,36.89325602724392],[139.37063197068892,36.88959546815636],[139.37188749711038,36.88281880224599],[139.3678721662675,36.877180197807945],[139.3624099215807,36.87751380222022],[139.3582056944373,36.87221019794231],[139.3577206612796,36.86573519792108],[139.35513839202326,36.86185297303632],[139.35562727607794,36.858439640277254],[139.34870525274528,36.852559360126406],[139.35261830099387,36.84907158598497],[139.36382474671473,36.84731519833781],[139.36646055800838,36.84205350516521],[139.37675586279295,36.838821838157344],[139.3808464201262,36.83659489194076],[139.38666839183293,36.835516252273294],[139.3909200519189,36.832655972894884],[139.39733844411398,36.83469430609739],[139.40451014262908,36.83143569360243],[139.40669955923738,36.82694010769984],[139.40124533110725,36.82151789183729],[139.39440885938143,36.81837677486834],[139.39107269834642,36.81443344105054],[139.3937018546569,36.809679252395654],[139.38861177731178,36.805268135316226],[139.38297814522525,36.80562286480341],[139.37793450077663,36.804448973441424],[139.37567834008337,36.800413972626814],[139.37763247695727,36.79662533299279],[139.3780405056649,36.792069774900256],[139.37563574639262,36.79100199994241],[139.3765426722066,36.786487279164646],[139.374330973096,36.784290864931506],[139.36755147881775,36.78378864033351],[139.36228391666953,36.78072725186121],[139.3599141374276,36.775158360170224],[139.35339936398952,36.77411058613467],[139.35444680887315,36.769087224995474],[139.3508203628695,36.76344972132762],[139.35527922225833,36.760246359581856],[139.3544986116217,36.75339413533112],[139.35607608274506,36.7504532793954],[139.36218914431367,36.747889666574906],[139.3657708301597,36.747917720926125],[139.37027722411472,36.74495189171648],[139.36799355405935,36.741376054161606],[139.36751488990035,36.734811026607645],[139.36480924804846,36.729055441055834],[139.36693422823214,36.72458933313129],[139.36487444889678,36.71973017111054],[139.35974464310084,36.71674180219247],[139.3585440598605,36.71313625193653],[139.35543230935366,36.70985569418497],[139.35634230905043,36.70709761286457],[139.3524464198664,36.70427122533681],[139.34874688685943,36.69983202692657],[139.34372933893792,36.69735702700524],[139.34101286565124,36.69414174834304],[139.33691836569005,36.692129775169064],[139.33912674360442,36.68498702672997],[139.33671481223882,36.68238869378325],[139.33925983067672,36.67833372082458],[139.33493011663165,36.67451374791119],[139.33573569424698,36.67070902660038],[139.33452211400447,36.665691279029375],[139.33065321707238,36.66379905418307],[139.32670185500672,36.65711241400675],[139.32858325561278,36.6526349458461],[139.3265660573777,36.650696054279535],[139.32866466943904,36.64797522467694],[139.33053442292533,36.64226386508534],[139.3281188852784,36.63365110821212],[139.32965447497406,36.6275886128243],[139.33869724987824,36.62718972122872],[139.34573282700842,36.6233469460048],[139.34761147928646,36.61911917101298],[139.35228841797618,36.615090279292986],[139.35916955902803,36.61355833275093],[139.36322649790463,36.61433333341665],[139.3717754469793,36.611951945725764],[139.379439921815,36.61311722517985],[139.38668883342302,36.611983332964485],[139.3951630218561,36.60349697310687],[139.39870360598673,36.60218946766986],[139.4065472500556,36.60478586527552],[139.4056791956384,36.60876919823994],[139.412373384724,36.60812419817324],[139.4150022829291,36.60581946779428],[139.42686483804187,36.60113310780673],[139.43627461727988,36.60173341426571],[139.43815238732293,36.60416758586547],[139.4450418938684,36.60729258608404],[139.45098442329254,36.606480359780846],[139.45259914433507,36.603625918801185],[139.4575669390631,36.606292891603744],[139.46406669292355,36.60577510783503],[139.47001450136815,36.60415261305269],[139.4747047473263,36.59464538687513],[139.47384002579656,36.590456225174705],[139.47631807981554,36.58741844120817],[139.48304114073608,36.58327789236091],[139.48238167327565,36.57784372091106],[139.47390914409175,36.57313205400112],[139.47402549927745,36.566730360417864],[139.46561905317685,36.56362008120186],[139.4630470820573,36.55963230558649],[139.46075788566793,36.55324674763932],[139.45677316504964,36.55298591906495],[139.4522359135566,36.54959508104821],[139.44390700430483,36.55251144125009],[139.43929894918722,36.55096310816094],[139.43628917010915,36.53806533264901],[139.43746802932617,36.53246310758641],[139.44150916981243,36.53059838670623],[139.4399124765796,36.52540117132702],[139.4346463290649,36.5220692254145],[139.43441383902757,36.519360053723574],[139.42767739259762,36.51063533305421],[139.42168457758123,36.50874394637606],[139.42298958470167,36.50441922536703],[139.41902927438161,36.50227810774851],[139.41967510991844,36.50017977537641],[139.41792814536768,36.49463922492032],[139.4225686902929,36.493662559379686],[139.42146953259294,36.490518387413715],[139.42808119269296,36.49041783781303],[139.42593505775676,36.48451505392666],[139.429659779875,36.48194617107896],[139.43170863784337,36.47215780244068],[139.4376933850417,36.474335305729824],[139.43647472093164,36.465975306015594],[139.42783775610758,36.45911200031861],[139.42040299600149,36.457073667116106],[139.4177535536836,36.460792279240366],[139.4147410505591,36.461856440722215],[139.4110996371386,36.458434505048444],[139.4123084950411,36.45070366744034],[139.40759319127278,36.446076440575325],[139.4049865243087,36.444978972701506],[139.4045764982069,36.44063591901249],[139.40252647201908,36.436815359741104],[139.3943908954235,36.43422202702499],[139.39503085568947,36.43091897273246],[139.39194861193891,36.42744202732774],[139.39173749698796,36.424310360434845],[139.38586968863524,36.421522891967925],[139.37864296959742,36.41455899979803],[139.37686321666422,36.41102817061363],[139.37545927422616,36.40030902704001],[139.36994175091115,36.39776541424254],[139.36813561636563,36.392801251876335],[139.36097771704806,36.38368027912162],[139.3663150324129,36.37942055931143],[139.3681571982961,36.37247430644413],[139.36644691259505,36.37052569410554],[139.36859910536452,36.36731791938655],[139.37814635497034,36.359989306261525],[139.38843581056426,36.35464455889934],[139.3915110890656,36.34943400027896],[139.3969374705879,36.34582122486967],[139.4135108301607,36.33771258566736],[139.41794444917707,36.336559251908],[139.4227925027718,36.332256198264986],[139.42657805413398,36.32670591894305],[139.42656163431207,36.324350919159656],[139.42047216555807,36.32311758620767],[139.41913581076915,36.32683674781771],[139.4148605057078,36.324317864577836],[139.41819855981578,36.32141702667451],[139.41566574607737,36.31970566718286],[139.4156996109483,36.31586955863327],[139.4198309993012,36.3124720539422],[139.42319849541434,36.3078651076886],[139.4291632174086,36.30617841390273],[139.42671544716018,36.30395010791119],[139.43152294402876,36.301009558644296],[139.430364306068,36.2956856665603],[139.43478819711765,36.292990386697056],[139.43710544695887,36.29700900006537],[139.44353294389032,36.293693694308615],[139.44364929997528,36.28836094570113],[139.4570651884078,36.28919286535853],[139.46087435776542,36.287204252074616],[139.46084710830746,36.285144801891136],[139.46745878099796,36.28049453169734],[139.4587834762765,36.277101504730695],[139.46387788565596,36.271520946134785],[139.46913625223635,36.270598999844026],[139.47265929958712,36.27162594558098],[139.47148238740238,36.275741225277386],[139.47564795089227,36.2756231352995],[139.4767146169861,36.27261510810081],[139.4825487808016,36.27202761338373],[139.48557547342944,36.275220640120494],[139.4899577168752,36.27593536012881],[139.49286133638168,36.27378674756039],[139.50061968874775,36.2762564405823],[139.5032216729419,36.281066441163375],[139.50900333343714,36.278675332700516],[139.51347111500002,36.27862808142089],[139.51507252877423,36.28114530631086],[139.52054946838336,36.280899197839744],[139.52560810632906,36.28470333279262],[139.53458671910187,36.279022251575725],[139.53655036270914,36.28179972138008],[139.54034481196356,36.280026135098126],[139.53978036327317,36.27705502686803],[139.54402980473174,36.275783666982704],[139.54917233503534,36.280446134681426],[139.553268469964,36.27945672125071],[139.55591513607476,36.276615054241404],[139.55352511039564,36.27388397326678],[139.56127011682247,36.26712983807164],[139.57038267192286,36.268087640332396],[139.57813516160843,36.26696069358121],[139.58457383891164,36.26921846765822],[139.587939663185,36.26866958623248],[139.60860252878376,36.2680954410518],[139.61200919576788,36.26946822467886],[139.61591700366682,36.27365180158944],[139.61977841823943,36.274388467753624],[139.62602924785153,36.27135294558201],[139.633908171425,36.27022766707324],[139.63665591413917,36.26509489171593],[139.64173289195946,36.26695655939773],[139.6422287160824,36.264094612676274],[139.63653063588026,36.26187936034427],[139.63071975371372,36.25484130558186],[139.6355975227076,36.25079772073826],[139.63858944214905,36.245304667076766],[139.6423852790574,36.24134689194557],[139.6505716727446,36.23913550489971],[139.65463999973622,36.23530105380064],[139.6541027762222,36.231581613400806],[139.65894444912703,36.2314132791995],[139.66120024559496,36.224121639901796],[139.66487858607798,36.2234705046601],[139.66957136182896,36.21513358604619],[139.6694507780311,36.21258330567508],[139.6639746433152,36.20869580176986],[139.66442547255758,36.20706080191451],[139.66863658940713,36.2069360812352],[139.67216216565146,36.209208026829],[139.6749110514039,36.20828802667114],[139.6773354725541,36.2014813602766],[139.68231605744018,36.20098302704514],[139.68657299564734,36.20330910822884],[139.68794383943668,36.19968133302717],[139.6905591443891,36.20536410766749],[139.69362219211052,36.20648938707558],[139.70034722434502,36.203352720851456],[139.7064730607832,36.20185658621256],[139.7083422440993,36.20682908079749],[139.70749447479022,36.210835747571764],[139.7160297802502,36.20986964007187],[139.7201873020025,36.21132266660783],[139.72013089472512,36.20766186470337],[139.7275420233458,36.205842666605804],[139.72902089459865,36.20228517072411],[139.74827795076692,36.211087639582956],[139.76004021978042,36.21923538670376],[139.82180669302454,36.239769505358424],[139.826820635564,36.24756644133822],[139.82872511007588,36.2526372785876],[139.8318609992857,36.26506225172159],[139.83595352793304,36.27143669404825],[139.84132080421182,36.27529808074189],[139.84173333312685,36.27733030574905],[139.83719055799793,36.28609502736367],[139.83521083001585,36.291802802257564],[139.83560169875943,36.29411030614574],[139.83953671924428,36.30023086536221],[139.84164980499452,36.301331134624206],[139.84550708178642,36.307875865378946],[139.8499526977589,36.31178946760991],[139.8568729961919,36.31048725198514],[139.86259722418265,36.31307861338735],[139.87247756198997,36.31507889177749],[139.87212785971303,36.318246386761416],[139.87467066132206,36.32316389229982],[139.88143905257027,36.32263302699266],[139.8824135021814,36.31971302723446],[139.8785203892047,36.314008586127386],[139.8788181448416,36.310703027222985],[139.88185038898428,36.30977886500267],[139.887214863875,36.31150330603282],[139.89167571975872,36.30908580156853],[139.8966424119178,36.309754387255225],[139.89905411215761,36.30630799991434],[139.89423238711504,36.30404025235583],[139.8942890533972,36.30193386475611],[139.90426605663322,36.297925775254384],[139.91075444935836,36.30120133277535],[139.91477727605047,36.30785686540207],[139.91030891082767,36.30981772111102],[139.91255593980486,36.32504158590052],[139.91168680889916,36.33151186538032],[139.91433155585673,36.336711586270724],[139.91829852115984,36.338225999630254],[139.922653864984,36.3415821076282],[139.92782808020183,36.34295569434988],[139.93513953336287,36.34349486489617],[139.93522674421888,36.34535958577629],[139.94378102537405,36.34685105383312],[139.9461673926112,36.34918705363964],[139.96450141430887,36.35094174786343],[139.96402199741726,36.35617397295056],[139.9657339693473,36.3602100808306],[139.9652848380249,36.36747869388665],[139.9745696627598,36.37454366715656],[139.97831855955394,36.37244144071997],[139.97924383873226,36.36976644056881],[139.98992878108845,36.36720780189859],[139.99131031062245,36.36948974795354],[139.99662700363342,36.36959225178106],[140.00156481226634,36.36806530636886],[140.00385289169765,36.37060197280283],[140.00091011660868,36.37360974819137],[140.00043177710495,36.376632532365534],[140.0090415563228,36.37508694580595],[140.01278464259724,36.376415559230736],[140.02616221811195,36.37542830597158],[140.02710666723897,36.37684802701489],[140.03552033669428,36.37776355934085],[140.03979033665473,36.37500494562181],[140.04816566801128,36.37558297317571],[140.05696158171168,36.37988350511972],[140.06361219234884,36.38205766742749],[140.0691397538966,36.38903180197616],[140.0662658875607,36.39413653197545],[140.0650025811043,36.40068458572512],[140.0681662260905,36.40326180169086],[140.0764882231531,36.40417844108225],[140.08310185456696,36.40288341373861],[140.08795102511976,36.398284531705826],[140.09228635543104,36.4016431353225],[140.09558358031802,36.39872758630912],[140.10169185479538,36.397008251629586],[140.11122116742297,36.39805530620748],[140.10958455328455,36.407301414228925],[140.11409652393547,36.41080863980693],[140.12171688702483,36.413226945567146],[140.13183306124688,36.41492053175716],[140.13577335895343,36.412942197724306],[140.1450956422501,36.41174494557282],[140.1485703366518,36.406661613143],[140.1561970039886,36.39815355893967],[140.15958481218945,36.39801272061061],[140.16560291794042,36.40010519839626],[140.1691084950611,36.39899046803572],[140.17627325620583,36.39864853230398],[140.17835379998792,36.39733325222784],[140.1851574707407,36.39833766724962],[140.18610306110747,36.401117108367885],[140.19249116683397,36.40457791903577],[140.19594372172548,36.40943597309172],[140.1982996109383,36.41557538659487],[140.2032610888283,36.42074317076077],[140.20238274976418,36.42394510798039],[140.20339472088972,36.42873344119539],[140.20175194639523,36.429587612778164],[140.2013467190759,36.43814369437604],[140.20618736675362,36.446479801801445],[140.20278625218384,36.450743693566665],[140.2028765504125,36.45443727935702],[140.20735880656378,36.457025054262886],[140.208304968,36.46443144075846],[140.21290031120043,36.467038360432014],[140.21206671880407,36.4707141981018],[140.21661875515144,36.47897805399407],[140.2233982494297,36.48167277537834],[140.22957031102112,36.49088466689392],[140.23118119285778,36.49913410755306],[140.2306437220302,36.50297410836845],[140.24151016915903,36.503147135232155],[140.24244355392693,36.507528505436255],[140.24893136209278,36.50766210782007],[140.2476130872742,36.515066801791534],[140.2601756935535,36.51762983814655],[140.2525748376587,36.524914837749634],[140.25337513625357,36.527168170974335],[140.24774736684753,36.53449010843178],[140.2481560565568,36.544808693966104],[140.24696939032515,36.54801646778583],[140.25150055790448,36.552598946184446],[140.25153975395654,36.55458005372657],[140.24378197086128,36.56281977541238],[140.24696702960478,36.56753422482467],[140.24468847039668,36.57610086536272],[140.24557491594965,36.58245613504266],[140.2433743576405,36.58458086521483],[140.24609389132013,36.59438055901563],[140.24913977997687,36.599403612586684],[140.24815564196933,36.60550469428625],[140.248391776959,36.61093719839306],[140.24576680879125,36.61399553186834],[140.24527457835916,36.61750358572198],[140.23953710785133,36.62500805407848],[140.23469566787082,36.623758053991025],[140.2343140603457,36.63462777465213],[140.24271496842107,36.6365591712688],[140.24156163376244,36.642947224834586],[140.23910941636655,36.64556446782598],[140.24093031058544,36.65092280214566],[140.23568503183878,36.65721502665224],[140.22930861190298,36.662278386938056],[140.23273364484191,36.665474224955574],[140.23141756167115,36.67011758565809],[140.2214905580429,36.6744478923564],[140.22501756241059,36.677778170925876],[140.22346005174006,36.68355733310449],[140.22042033692912,36.68714650490733],[140.22681291768208,36.692393171307856],[140.22987907885647,36.69882566667121],[140.23339160773662,36.7002470541583],[140.2441772498803,36.69779008114739],[140.24669700366383,36.70227117087791],[140.2584409732724,36.70157225195794],[140.26781856037837,36.7022705593389],[140.27105444880385,36.70673055906809],[140.28230647216606,36.7081127478051],[140.28598070004932,36.71249746798384],[140.29010489022858,36.71204050536511],[140.28924044119344,36.7169716131495],[140.28725766540902,36.717985532206626],[140.28767105137797,36.72536969375642],[140.28333632900842,36.734138613406344],[140.27746494225335,36.738749198316896],[140.2691243319224,36.74210061275312],[140.26714016938342,36.74548394592739],[140.26220627819725,36.74828366675786],[140.25962849475934,36.754766170722235],[140.2549448902945,36.76022174783543],[140.25686075202213,36.76611255904743],[140.26106719779295,36.76759310843528],[140.25849413669516,36.77106866708539],[140.25367189364306,36.7745158916951],[140.25742469529348,36.77723227864681],[140.25381472127242,36.78365505413751],[140.2616100519624,36.78655808099069],[140.26644153015252,36.791059197723825],[140.26453625164675,36.79456225224618],[140.26703797672133,36.79952169407096],[140.26460352813035,36.80413391934496],[140.26371330722338,36.81129141396764],[140.26661610924612,36.81310889166207],[140.26569177705392,36.82897833298375],[140.26225593966,36.83289613504866],[140.26148403356137,36.83789225212581],[140.25720455294777,36.838336413794536],[140.25498871605646,36.84191366688225],[140.2566818292031,36.84809641421822],[140.2527198830162,36.849412838231956],[140.25153600468298,36.85245700019044],[140.2543071981188,36.860081440805914],[140.25417505803262,36.86927477481106],[140.2567148379195,36.8730995051381],[140.25427428023386,36.87700727886289],[140.25287880671158,36.88565925157326],[140.254280803916,36.891142026883074],[140.2504511408075,36.90172983796168],[140.2505106363568,36.90609594577131],[140.2487181454261,36.90885955882163],[140.25010294399578,36.917286252258805],[140.24838518762635,36.92131486518895],[140.25346697771886,36.929692918793194],[140.257772866025,36.93267927862587],[140.26425652381954,36.93331538709549],[140.26173683478714,36.93752705433013],[140.25533596588218,36.93836510826321],[140.25350988257503,36.94123455892782],[140.2436139945902,36.943265693956675],[140.24099070006082,36.94549013466201],[140.2406348895886,36.94984625190307],[140.24449500643948,36.95696986456767],[140.25308983083107,36.96296789205462],[140.2523262776357,36.966672332662085],[140.24884985743506,36.96841038673],[140.24390461680468,36.97317789164646],[140.2442013616036,36.97899094567566],[140.2509764456065,36.98337480160586],[140.2493920488041,36.988471747972824],[140.2440287160524,36.991325080987735],[140.2433629182641,36.995911198043416],[140.24084403412496,36.99652174778049],[140.24021321726627,37.000275080930294],[140.24342744462092,37.00130980220564],[140.24601639404136,37.00519866678508],[140.24625530523826,37.00945699984072],[140.25126922169727,37.00908141417597],[140.25115094735838,37.01361335966885],[140.24894377363626,37.01849725214652],[140.25027880732114,37.02206030583852],[140.2489324376819,37.02587391874641],[140.2424437742609,37.02387894635632],[140.2321095333284,37.023149802121736],[140.22465450070467,37.02380455893331],[140.21973496809437,37.01851125189279],[140.2173174708247,37.02075208094385],[140.21190438398025,37.019872386601435],[140.208987444615,37.02294683772641],[140.20333435839405,37.02387044056843],[140.1992718940827,37.02841325167026],[140.1995063941049,37.032539918582415],[140.1956622177372,37.03673574785654],[140.19848586323212,37.038196306214616],[140.1997770297861,37.04257266719486],[140.19978289156722,37.04769266678318],[140.1951417773712,37.0515504409002],[140.19327486394388,37.05533519816095],[140.1906506610992,37.05666630630503],[140.19450433160966,37.06000989214289],[140.19306214010578,37.065503505182676],[140.18585929986682,37.06767713509174],[140.18482347602264,37.06920853214808],[140.1777628923437,37.069043558713304],[140.17282700376325,37.07025497338839],[140.16907894873452,37.075281640435435],[140.16436642027418,37.07941164023504],[140.15835469521312,37.0805777749444],[140.15353496756472,37.087125000418496],[140.15744306144825,37.08907694564459],[140.15623306140674,37.091389440770115],[140.14961243776384,37.092429171269316],[140.15079413703984,37.09432917075469],[140.1464724377529,37.09928666734589],[140.1370215559001,37.10646419796444],[140.13483542181734,37.10361310785868],[140.1280492221939,37.104171720848285],[140.12587561566716,37.10784450531969],[140.11913416271148,37.110030080923536],[140.10849741862103,37.117089838125594],[140.1078074191771,37.11882010766192],[140.10267211402686,37.12104789204665],[140.1004368086119,37.12342900004836],[140.09373591418114,37.124195973365545],[140.08935888500457,37.121588198436655],[140.07837988322513,37.12459794603842],[140.0659625030671,37.12734380197492],[140.05751069965913,37.126034107588055],[140.0549107002687,37.12884355908301],[140.04925007772897,37.13143636029986],[140.04707425437346,37.1354374683645],[140.0330482226974,37.14019946763136],[140.02698894868115,37.140055053597905],[140.02444863819414,37.14300702695277],[140.01455455334997,37.140124054081866],[140.00958975426386,37.141964918646124],[140.004278521037,37.141704946226355],[139.9955586639013,37.143880837930396],[139.9904927243598,37.142715332746434],[139.97924977965363,37.14687899956624],[139.97412883307925,37.14695374761743],[139.96980377392504,37.14874850483966],[139.9631244749146,37.14848383795879],[139.9613803630134,37.15317574766266],[139.9546145528194,37.1549407481171],[139.9464456419529,37.15422602720946],[139.94369588835468,37.15258825204626],[139.9337958877701,37.15373655859537],[139.93046447515542,37.15147294611961],[139.92443725027897,37.151878505288835],[139.91633552506448,37.147625999840045],[139.91112080438165,37.147861838053416],[139.9065072238294,37.149531531954665],[139.90243172474436,37.154271505025974],[139.8946441893779,37.1532587209133],[139.88513805407797,37.149824279267136],[139.87756771667682,37.1461267751306],[139.8662893899434,37.147227891553996],[139.8609648899178,37.14082010776184],[139.85631929979593,37.137807612731194],[139.85180038907674,37.13715177493452],[139.84783569366243,37.13945177487955],[139.83976732789995,37.13542927913795],[139.83904063611658,37.13318955895102],[139.83177313911915,37.133640945773095],[139.8281278082518,37.12900761341069],[139.82792888540985,37.12629097285014],[139.81903581075414,37.121778468001935],[139.8184960574472,37.11874653232667],[139.81518880691794,37.116150694099304],[139.8161481973815,37.111159026867654],[139.8211273667347,37.10873683783484],[139.81825418927951,37.096665720946305],[139.82009167329215,37.09228546770021],[139.81853688666808,37.08521213523193],[139.81124272387262,37.08597183842966],[139.8095057462932,37.08484461288862],[139.80147241182237,37.086584613089485],[139.78795102482002,37.09070233264657],[139.77785822307862,37.08882927864835],[139.7749109990434,37.09189427879801],[139.77065063621797,37.0835117753482],[139.76351669304097,37.07820841388724],[139.7628591699148,37.07568564018021],[139.75492885907966,37.074293972588805],[139.75271189443845,37.070587306159325],[139.7460424124274,37.07067535968014],[139.74361741930852,37.07220925235515],[139.737281556099,37.0720292521483],[139.7329631654178,37.068668134926554],[139.72415674403862,37.069908134552804],[139.7177783662786,37.06825008057683],[139.71100583724967,37.06842172068593],[139.70796827541562,37.06412453242126],[139.70541661458515,37.06382564004133],[139.70053099900645,37.05937508139493],[139.69817457829424,37.061067585700584],[139.6920637218633,37.06254841387823],[139.68435199664737,37.059166197661966],[139.67672888522998,37.05673869363585],[139.67259968942415,37.05715119826925],[139.67092769056057,37.05117205384727],[139.6712374188719,37.04820261296027],[139.66846710767095,37.0462640001835],[139.66779566843536,37.04210983829847],[139.66495396905054,37.040530973225884],[139.65574367113356,37.04191653172262],[139.65163389079146,37.037307359647],[139.64294189375346,37.03554350492885],[139.64016182940497,37.03272683817312],[139.63564791172178,37.031875171202216],[139.63099985655822,37.03381099967794],[139.624970636086,37.03272130644319],[139.6230542275706,37.028952972601644],[139.62552477314978,37.02598630612317],[139.6188252528832,37.019725774624874],[139.61932247725053,37.016630505093815],[139.6116282492444,37.013795252049306],[139.6069543322767,37.01418691939085],[139.60283683485216,37.015971080800796],[139.59869430569768,37.01204499957714],[139.5904884443862,37.01360389160635],[139.58805399489597,37.01534666711507],[139.58189341135187,37.01490197304764],[139.5795347468312,37.00494617132881],[139.57642333267074,37.00207838710793],[139.57193219211706,37.00158119781406],[139.56463021960906,36.9968803866206],[139.5567207523609,36.99678233263859],[139.55446406016836,36.99249235963475],[139.54942847004793,36.99265541391628],[139.54472680899505,36.99088766693234],[139.5352870301724,36.98060410819306],[139.53272060966844,36.981759108396204],[139.52676228275323,36.98022136032756],[139.52369474741477,36.98151774834548],[139.52138031065283,36.97940830574879],[139.5151363941294,36.97784444136795],[139.5038616080269,36.96956838707143],[139.49428658915485,36.967933414195784],[139.48433236124959,36.97543725212756],[139.47269172464348,36.97135477520277],[139.4611652533738,36.9707205858864],[139.4584338387507,36.96577141431936],[139.459044112396,36.959438386672275],[139.4566751623289,36.95383591879266],[139.4528606995617,36.950786467921205],[139.4463203368142,36.94778505433686],[139.44172308705095,36.947539468371815],[139.4406644492051,36.944663360026084],[139.43444856005306,36.94185363963379],[139.4349563037905,36.93586697328226],[139.43023233505426,36.92971835971457],[139.43035011656468,36.92593197288227],[139.4269006103749,36.92416638696926],[139.42023749736268,36.92412194607101],[139.41219108944733,36.92760553206972],[139.40785102510483,36.926505531705004],[139.39914260734554,36.92009105425882],[139.39702367060602,36.91497910809943],[139.3932891962395,36.910795505108524]]]}},{"type":"Feature","id":"JP-09-capital","properties":{"Kind":"capital","PrefectureCode":"09","PrefectureName":"Tochigi","CapitalName":"Utsunomiya","CapitalNameJapanese":"宇都宮市","PointKind":"prefecture-representative-point"},"geometry":{"type":"Point","coordinates":[139.883591,36.56591]}}]}
