{"type":"FeatureCollection","bbox":[133.13628306101452,35.057678332688965,134.51524055820528,35.614584730101285],"displayBbox":[133.13628306101452,35.057678332688965,134.51524055820528,35.614584730101285],"DataVersion":"2019-boundaries-v1","Attribution":{"BoundarySource":"MLIT National Land Numerical Information, via Fabio Crisci / piuccio","BoundarySourceURL":"https://github.com/piuccio/open-data-jp-prefectures-geojson/tree/513fb852832c99470e16b95a30ddd68bf3469dc0","BoundaryDate":"2019-01-01","CapitalSource":"Geospatial Information Authority of Japan (GSI), prefecture representative points","CapitalSourceURL":"https://maps.gsi.go.jp/","CapitalSourceRetrieved":"2026-10-04","Notice":"Simplified and enriched by Ashiato Kai. Modern geographic context, not historical immigration-era boundaries. See GEOLOCATION.md and THIRD_PARTY_NOTICES.md."},"features":[{"type":"Feature","id":"JP-31","bbox":[133.13628306101452,35.057678332688965,134.51524055820528,35.614584730101285],"properties":{"Kind":"prefecture","PrefectureCode":"31","PrefectureName":"Tottori","PrefectureNameJapanese":"鳥取県"},"geometry":{"type":"MultiPolygon","coordinates":[[[[133.97348810599135,35.524361171231135],[133.97302513590137,35.524732531880886],[133.9728908302477,35.52464505392612],[133.9733647208053,35.52425761339822],[133.97348810599135,35.524361171231135]]],[[[133.9706900516046,35.52422602740927],[133.97182286643215,35.52469474776444],[133.97176997370536,35.5247965860936],[133.97059836572203,35.52438983802068],[133.9706900516046,35.52422602740927]]],[[[134.02143474681623,35.524824892255026],[134.01928732764816,35.52499280197628],[134.01926377440373,35.52482400012758],[134.02093255459374,35.524723892094016],[134.02143474681623,35.524824892255026]]],[[[134.0916585596948,35.52524819774618],[134.0916572763623,35.525558532200535],[134.09145255469173,35.525521026873946],[134.0916585596948,35.52524819774618]]],[[[134.0909933851367,35.5265126130667],[134.0910075233786,35.526714613388776],[134.09085574569622,35.52665977542836],[134.0909933851367,35.5265126130667]]],[[[134.10501522687127,35.526750919019776],[134.10493727633434,35.52659086487654],[134.10516472117502,35.52648761281313],[134.10528466915218,35.526761972586996],[134.10501522687127,35.526750919019776]]],[[[134.10526280213662,35.52681619810909],[134.1051926981845,35.52700841380732],[134.105016446352,35.52701672084504],[134.10512041517507,35.52682864022961],[134.10526280213662,35.52681619810909]]],[[[134.0910428019838,35.5270868023141],[134.09103927394335,35.52722244076307],[134.09084513639402,35.527205108129294],[134.0909474972293,35.52708969363448],[134.0910428019838,35.5270868023141]]],[[[134.10458888526887,35.52731627872333],[134.10453428023288,35.52720169430279],[134.1046373929014,35.52708955873618],[134.10475949385557,35.52710494613643],[134.10458888526887,35.52731627872333]]],[[[134.09091221772474,35.527329198383825],[134.09100399533816,35.527487891852786],[134.09061219219893,35.52764369400131],[134.0907039689131,35.527358054031026],[134.09091221772474,35.527329198383825]]],[[[134.11220427960393,35.528204639832325],[134.1119925549125,35.5284100270012],[134.1118661093335,35.528036441428696],[134.11163616078022,35.52772494594956],[134.111985058164,35.527761999816505],[134.11220427960393,35.528204639832325]]],[[[134.08891464269664,35.528281918575715],[134.08813802864722,35.52851246787617],[134.0880805583712,35.52838283779778],[134.0888652267489,35.52817030641455],[134.08891464269664,35.528281918575715]]],[[[134.08641472076283,35.52798717117105],[134.0870976389449,35.52847589244851],[134.0869985858161,35.52859202730025],[134.0863753052762,35.5282442522705],[134.08641472076283,35.52798717117105]]],[[[134.11245944244934,35.52824089240329],[134.1124416079939,35.52843286528457],[134.1125840597067,35.528595279248805],[134.1123248903815,35.52869144105722],[134.11230678343134,35.5284614412426],[134.11245944244934,35.52824089240329]]],[[[134.12833452701682,35.532307332617336],[134.12815369583643,35.531911774808634],[134.12864744522346,35.5317969457725],[134.12877839190935,35.53208697263574],[134.12833452701682,35.532307332617336]]],[[[134.13654002590158,35.539713306324074],[134.13688975425885,35.53935277531036],[134.13699516199722,35.53962210787404],[134.13654002590158,35.539713306324074]]],[[[134.13776525326386,35.54036583821289],[134.13648158165972,35.54025830627586],[134.13730666736888,35.53969789194423],[134.13776525326386,35.54036583821289]]],[[[134.13740466919023,35.54107591861879],[134.13744946801864,35.54124086507392],[134.13723396887258,35.5413744413774],[134.137078521057,35.54112389205403],[134.13740466919023,35.54107591861879]]],[[[134.18372620000423,35.541786332673155],[134.18372252897154,35.541679945573094],[134.1839069385544,35.54161410800475],[134.1839066147985,35.54173633306539],[134.18372620000423,35.541786332673155]]],[[[134.18272352786857,35.54301197282433],[134.18267442308627,35.542802278802185],[134.18315902726738,35.542782865137156],[134.18297849466182,35.54298350478496],[134.18272352786857,35.54301197282433]]],[[[134.1840163545712,35.543215198023006],[134.18328941637355,35.542927945568294],[134.18357258140952,35.542369134727835],[134.18408213997884,35.54264172103865],[134.1840163545712,35.543215198023006]]],[[[134.19160805356887,35.546461747911394],[134.1916006611417,35.54659850511695],[134.19040294404067,35.546567865214854],[134.19040260679492,35.54643263955472],[134.19160805356887,35.546461747911394]]],[[[134.18490830127712,35.54564013538402],[134.18365352758826,35.544332747758176],[134.183804772872,35.544253000375704],[134.18490830127712,35.54564013538402]]],[[[134.1897962775762,35.54917969428749],[134.18464955912987,35.54713405409336],[134.18475280220014,35.54700233309126],[134.1897962775762,35.54917969428749]]],[[[134.2385751618143,35.563462801667015],[134.23813450120633,35.56307044094814],[134.23891708225756,35.562923945883426],[134.23906902721387,35.563342386941656],[134.2385751618143,35.563462801667015]]],[[[134.27134050635937,35.56561703589756],[134.2718091178965,35.566005685114305],[134.27170606997925,35.56609103617245],[134.27134050635937,35.56561703589756]]],[[[134.27626869044775,35.571490613401124],[134.2762847469436,35.572058531675964],[134.27582489030647,35.57163261275491],[134.27626869044775,35.571490613401124]]],[[[134.36994443638673,35.614584730101285],[134.37004192019856,35.61352572083541],[134.36968933919172,35.61327522457202],[134.36952041503514,35.611683973136905],[134.3696805842916,35.611206252366685],[134.36936119276493,35.610611973164055],[134.37102919594065,35.606097360305],[134.36644433164065,35.602094801633825],[134.35957994765647,35.60047255866169],[134.3558381968753,35.60053277456797],[134.354124422704,35.60150066722207],[134.3531691961016,35.60100436016313],[134.3525525291759,35.60178246798654],[134.3477219709922,35.6013144410087],[134.34461600492477,35.60451102726216],[134.34603924771318,35.60736633338962],[134.3423401167031,35.60721538668082],[134.34166905338418,35.60768333271966],[134.3412388851665,35.60759680175107],[134.34076143958885,35.608056865232186],[134.3409222833368,35.604337891580485],[134.34069958511782,35.60259219777174],[134.3389194157985,35.602254559000755],[134.33761583680155,35.60022069363015],[134.34064182885743,35.598608693936114],[134.33805433184205,35.595711973129085],[134.33705577230614,35.593370721281815],[134.3315219973424,35.59112430564227],[134.32394038873804,35.59052813516536],[134.315858974712,35.59391705402885],[134.31347099858783,35.59307055905913],[134.31036958488846,35.59345402728161],[134.31021505797855,35.59173617108746],[134.307554253626,35.59116691911805],[134.30216341061293,35.59223613478986],[134.30302341070194,35.590469946330984],[134.30215778175625,35.589358946358345],[134.30174308727374,35.589759170749176],[134.30123702976516,35.589383080564744],[134.30077866420402,35.58926425224348],[134.3007986120664,35.589534946380695],[134.30025538287964,35.58956322466315],[134.29922749735124,35.59030794605491],[134.29685282669664,35.59006280165704],[134.29502311282647,35.589178107983344],[134.293985771826,35.58794902702601],[134.29258230872665,35.587303080872516],[134.29221364514365,35.58607774828948],[134.29129766495532,35.586149360404704],[134.29328883321318,35.58265372079262],[134.28740744509753,35.57354858599848],[134.28274005181197,35.574722053779794],[134.27853325620492,35.57256508111368],[134.27526282661825,35.5680284411597],[134.27520044064784,35.56471536032569],[134.27251664063056,35.56066519784065],[134.25755386521882,35.5545702522154],[134.2420071078418,35.55007866739663],[134.23116736698046,35.54646250514054],[134.22287593967292,35.54443753226633],[134.2077850576344,35.54165638693274],[134.19713985721864,35.54085597322461],[134.19304923513414,35.54301204477008],[134.18709297036435,35.54288744100268],[134.1862924766166,35.53849497316452],[134.17925985735656,35.53813302661791],[134.17810722416914,35.53612163980188],[134.16949050578228,35.53359010759743],[134.15957658908837,35.53195491888442],[134.15280649812144,35.53225477533766],[134.1522070298306,35.5309026941041],[134.12875603116595,35.527946027187454],[134.12490027242973,35.526989000142294],[134.11416795109017,35.52624850466481],[134.10914311326417,35.525199612771985],[134.09843922219238,35.524402774768305],[134.08953108928836,35.525089891885045],[134.0875600001939,35.52408769369214],[134.0826346948354,35.52533291927887],[134.080332113836,35.5221262786049],[134.07667214020717,35.5209304141074],[134.0569751617744,35.51892899987348],[134.0339090531603,35.518489504786885],[134.02179888501064,35.51968950526651],[134.01841316503555,35.522009080754515],[134.01521869039027,35.529961053559816],[134.00845863765608,35.53767472131142],[134.00630505813194,35.53735294568196],[134.00239499383395,35.531711946349276],[134.0007425030641,35.52607208106173],[133.99563769122653,35.524204027294104],[133.9910979773898,35.52530974824634],[133.9893855252219,35.522918279155306],[133.98534085579593,35.52246335979629],[133.98175333334973,35.52459583762783],[133.98008561615836,35.52217838712289],[133.9729764978672,35.522939612872904],[133.96968905310734,35.52165669400125],[133.96431588806786,35.523002279431694],[133.96163730231967,35.52521319793078],[133.9593114396713,35.51950074836088],[133.9527061089998,35.5171384676662],[133.94594405977057,35.519362748292224],[133.9435391440163,35.517958027041345],[133.93947211384705,35.51841938734492],[133.9398024384318,35.51633519771127],[133.93330586277546,35.5120621706327],[133.9254547210586,35.510029837706895],[133.9103751875649,35.508958414199526],[133.9021978860237,35.51017989228825],[133.8969807002992,35.50751069366362],[133.87720871570968,35.507257360039205],[133.87427360644188,35.506025027133376],[133.85495739286944,35.504579865168694],[133.84605302182956,35.50341074830743],[133.79987321697547,35.500900639752786],[133.77013805442778,35.50059225233065],[133.75518455282497,35.50082230610457],[133.72457038931213,35.5028640540329],[133.71862219236039,35.5036765321463],[133.71288655017418,35.50562336022995],[133.7091205320869,35.50555655858835],[133.70419761262974,35.50794091943794],[133.70117177705595,35.506684278756495],[133.69296399479254,35.50665080239264],[133.68922155603002,35.507484973053124],[133.67187116692094,35.50637561344388],[133.66272535668998,35.508037198158206],[133.66142797671978,35.50984155924061],[133.65606175084918,35.509941532375876],[133.65536180310482,35.51270646832893],[133.6425621400308,35.5162448023558],[133.6331873929838,35.5194364414387],[133.62339596575123,35.51962055874185],[133.61583216642146,35.52124786489708],[133.61178041483436,35.52113197286229],[133.60425916962504,35.52340805443822],[133.59909082967806,35.52663583817343],[133.59545499385297,35.52640666663439],[133.5901366667738,35.53201722481515],[133.57910306085762,35.53015027901222],[133.56802194555644,35.53040305415766],[133.56082666681732,35.52808861289924],[133.5572755507261,35.52439166724173],[133.54568082990647,35.52146083784743],[133.5409025034478,35.521588332935266],[133.53810505790216,35.523798747814],[133.53484138761996,35.523587224570804],[133.53110389063215,35.51952666682229],[133.52196608256872,35.51959508094831],[133.5191418291322,35.52071653194247],[133.51476620020003,35.51748930578691],[133.51079466903877,35.51747027883033],[133.50209752338208,35.515385694394354],[133.4977474972493,35.515798612715855],[133.49495930033152,35.51210174799735],[133.48489472111453,35.50505055863641],[133.4727646950347,35.49901755921303],[133.46692194629088,35.49811555898589],[133.46032202324284,35.498746640245315],[133.45449165996217,35.49634583799008],[133.44639082957315,35.49419333315586],[133.44385111533677,35.49139277505657],[133.44275693898157,35.48737555923475],[133.43636306140627,35.484569721215735],[133.433149170398,35.48208472083326],[133.43448722400626,35.47914694597483],[133.43208072634445,35.4739557749391],[133.42959778181228,35.47166694637252],[133.42769910522964,35.46293286466005],[133.42263591401627,35.458363865300214],[133.4117816338154,35.454705864783875],[133.40247228276974,35.45327950494527],[133.3916402715813,35.453594774879036],[133.37785988342694,35.45662991933534],[133.35961230906082,35.45909091861108],[133.35434496814582,35.4605914410422],[133.3483682752758,35.46069846756029],[133.33254797740733,35.46392186530187],[133.32318577230558,35.46627617080867],[133.3068697276559,35.472045721033226],[133.29343961104928,35.47782135966804],[133.27987211400693,35.48647166683401],[133.26884800313292,35.49504853176438],[133.26093535678137,35.50288577535832],[133.25340321718477,35.512948359878976],[133.25308121942282,35.5169583055814],[133.26058496832172,35.51973258638981],[133.25577688689384,35.52828405356627],[133.2462890788779,35.52769217105691],[133.24454924774966,35.53512155861307],[133.24779466898883,35.53349646838734],[133.2503690529894,35.5372075046227],[133.25853561572615,35.54164258593664],[133.2652186118495,35.5489242247732],[133.27076158238117,35.55245705404985],[133.25850411157558,35.55023466739601],[133.2498574970259,35.546365170616184],[133.24588586334198,35.546131306414736],[133.24462115394317,35.54911196364628],[133.2338369390236,35.549378332943775],[133.22772389094484,35.548870278940285],[133.21851416319817,35.54630917073172],[133.2097738905527,35.54030250525648],[133.2010211146328,35.535242504837754],[133.19812444868444,35.52873194562284],[133.1986319460076,35.52601555867113],[133.20420832725256,35.51612527885857],[133.20802027191803,35.510496108308814],[133.2160547206489,35.49555527905295],[133.2224997282799,35.480223613429075],[133.2597369391085,35.4538822251846],[133.27202166027143,35.44601250527296],[133.29067472096165,35.439462775186996],[133.30072055830715,35.43630055922347],[133.30869000044322,35.43087666702462],[133.32057250341836,35.41027750490298],[133.32105666693167,35.395506107920596],[133.31514138786486,35.39176277523194],[133.31356666686827,35.387345558950415],[133.319023605555,35.38349194599658],[133.32369917008066,35.3774244413849],[133.32414555127627,35.373459720789526],[133.31823055819382,35.372403054257575],[133.31928444941786,35.368951666686144],[133.31597360609715,35.365489999863655],[133.3086569386669,35.36648610784766],[133.3024941625756,35.35673555929867],[133.2960463940259,35.349370279015204],[133.29525333317486,35.340605837989074],[133.29689027196855,35.33906610781469],[133.29557444870193,35.32886805391763],[133.29855916996974,35.3251036132412],[133.29600250261342,35.32203110824912],[133.29263555059026,35.3207469456151],[133.3012338913311,35.30896944118683],[133.30262749696146,35.30536250507561],[133.30690639391503,35.303482504713884],[133.29951194591968,35.29226889229557],[133.30725722394175,35.28190277489318],[133.3092163943212,35.27017277535333],[133.3105513884359,35.267918053575386],[133.30524221825385,35.26586305413667],[133.30253722391376,35.26312055896665],[133.29868749693048,35.26457194603853],[133.29179527892904,35.260767224727715],[133.28504972776284,35.26115083774101],[133.28224221790413,35.26240250517151],[133.27859722428252,35.259103333252256],[133.27521111490114,35.25780555937911],[133.26927083018472,35.25883750534666],[133.26406416293082,35.258419171307764],[133.25866805438727,35.26139166719173],[133.25194000043075,35.25929083830158],[133.2502049941652,35.25652944118082],[133.24562306075575,35.253674171026205],[133.24342194576627,35.25047638687579],[133.23566055818833,35.24905500028808],[133.2332111152009,35.246745559260205],[133.2281849940423,35.24679694562258],[133.22560666741379,35.249560000193924],[133.21202250323597,35.24169694605729],[133.20632333305548,35.24205750494997],[133.1981213882915,35.23987222522305],[133.19352389121468,35.237281666915464],[133.18162389102986,35.2344399999061],[133.17726472059041,35.23037361275209],[133.16329082980803,35.222583892033015],[133.1588822182398,35.22265944138019],[133.15247250270386,35.21879999992012],[133.15145306091006,35.21257944058874],[133.15342444857947,35.20980833258852],[133.15170138800875,35.206271666804014],[133.15288055839108,35.20379805363734],[133.15763360580638,35.2039047213259],[133.15968306092464,35.2065738920715],[133.16381221805943,35.2064225046949],[133.17182055767262,35.20872250463992],[133.17377166023402,35.20537638721055],[133.1808125028948,35.202670278610526],[133.18465832682034,35.19537166686899],[133.18293138837294,35.19293277472781],[133.18213250261294,35.188034171140146],[133.18555527915282,35.18511194555987],[133.18865666677186,35.18512972066014],[133.19364693915497,35.17750166656873],[133.19346416274095,35.17254472126194],[133.1949052786557,35.16989027871347],[133.19186250255257,35.16272972099989],[133.18858416342846,35.16173555914878],[133.18416416284595,35.156903053932865],[133.17757722420959,35.15580722462374],[133.1709136057783,35.153547505313156],[133.16613027189464,35.14920972075208],[133.15745527923787,35.14890583803407],[133.15515639355283,35.14429861299067],[133.14840389062715,35.13977305358361],[133.14531252865038,35.131725026888546],[133.14664888523794,35.123693613369596],[133.14030416280696,35.117283612748565],[133.1442091702171,35.11127833312861],[133.14558583711676,35.10533750522177],[133.1398188850336,35.10000527912041],[133.1366822179101,35.08869666681778],[133.1374163938516,35.08535305400028],[133.14129027212846,35.08284110813071],[133.13969861240105,35.079662504720886],[133.140813606263,35.075638332642995],[133.13641944230346,35.07425972140908],[133.13628306101452,35.069572224678495],[133.14200999956188,35.06474777469009],[133.15277639441513,35.0690597208295],[133.15394693939982,35.071871107665515],[133.1582702718556,35.07164638687129],[133.16125916957503,35.0741358379986],[133.16845999982922,35.06743777463362],[133.17344610925056,35.06919472075981],[133.17953360579133,35.067296667407334],[133.18645138792124,35.0699205590866],[133.19423610930903,35.070490559291954],[133.19938722364157,35.07253694592339],[133.20331277606385,35.07201222478437],[133.20611972834286,35.0734941708194],[133.21490416309666,35.07387166664415],[133.2272288852049,35.06819250458045],[133.23160221816795,35.06944110802078],[133.23319306131077,35.07512472082925],[133.23993472111056,35.079038054162936],[133.24878221812492,35.07869110830808],[133.25378527886755,35.07521805426984],[133.25622972791962,35.06964972105783],[133.25934972790765,35.067306945759015],[133.26081360566343,35.06343944097745],[133.26495749729077,35.06189583832236],[133.26913917033653,35.057678332688965],[133.2726305579539,35.05975055864144],[133.2769119460296,35.0661091711014],[133.28342055821224,35.065950278882326],[133.28876805390257,35.06861110841595],[133.2908238906101,35.07094389224687],[133.28885861203537,35.07444583790516],[133.28894472122192,35.080275279380714],[133.29066027155432,35.08442389244874],[133.29021944187377,35.09041083759013],[133.2883588848547,35.09206222489183],[133.28826250271243,35.095914171401944],[133.29093972778628,35.10035889164959],[133.29903221786265,35.10380444082233],[133.3028288848452,35.09958083778548],[133.30834138814464,35.09944694581992],[133.31632360604965,35.09656250525546],[133.3194277815669,35.09385610797307],[133.32551693915548,35.093469171065465],[133.32814027235577,35.09499805361736],[133.33235944173487,35.101271946343275],[133.3382225025665,35.10656277485225],[133.347271388364,35.105595000009316],[133.35487389091736,35.100771107600565],[133.35839639417827,35.10212610803353],[133.36668083015627,35.110154721063566],[133.3787877823304,35.11466610805451],[133.38275999967436,35.115011945944616],[133.3869938909554,35.113115279346744],[133.3947966671326,35.113569170780636],[133.39998832739946,35.11505805418591],[133.4033627761712,35.114320837636626],[133.4057636063054,35.11802389238875],[133.41182583729267,35.12114610830628],[133.41261778208502,35.13349305356161],[133.4112241629648,35.13875250472438],[133.40513805407795,35.14292777459718],[133.4045141628984,35.1486680536878],[133.40035944163503,35.15327138736467],[133.40072165977688,35.15843277465285],[133.3985152792568,35.163580558795786],[133.39402693919192,35.166570837873905],[133.39336194629686,35.16914472095215],[133.39694666735488,35.172461107694005],[133.39438527855782,35.17607250534189],[133.39610138826856,35.18059610782416],[133.40277583723514,35.18217777518424],[133.40743917008172,35.185882224784905],[133.41006888487118,35.184181667050325],[133.41557333294304,35.184724171383436],[133.42084944224803,35.18098361310331],[133.42217972841183,35.176113332764146],[133.42812416260006,35.17740917129629],[133.43805221843525,35.1730747214213],[133.44596389082096,35.172881666655655],[133.44755639411233,35.171296107929095],[133.45651527935672,35.17310861327195],[133.4598261091877,35.177787224700694],[133.46352082992246,35.17778138720132],[133.4669716599143,35.175156667246426],[133.47316083020826,35.17859389229437],[133.47484527928623,35.18201861316851],[133.4825622178721,35.18241250543281],[133.48543805372321,35.186400558938715],[133.49172472131886,35.1877697209959],[133.49438306062984,35.18658389203307],[133.49846000042874,35.18822889234957],[133.50041221814945,35.1923669455781],[133.50314082958573,35.191701108219604],[133.50805138786131,35.19309166694694],[133.51047027188565,35.19011389204252],[133.51634055787054,35.19051722538967],[133.518780271992,35.18646277493718],[133.51918194609004,35.18291055897515],[133.5262511146973,35.18304583769532],[133.52907555069612,35.18693694608322],[133.5261433327487,35.19069472098465],[133.52682082981755,35.19366944089205],[133.52303221806244,35.19645083803579],[133.52346221810694,35.19959361335464],[133.52068250269542,35.20601610825685],[133.5215136057684,35.210573054003305],[133.51541027216638,35.22053417071544],[133.5113119455899,35.221515558596195],[133.5074858366021,35.224712775274384],[133.5055411147307,35.22817250495717],[133.50817444929146,35.23324722457983],[133.5144925032265,35.235488613009124],[133.51722722375746,35.24073722464328],[133.52566888461138,35.23944889185293],[133.52835527917284,35.23666166710228],[133.53483082957916,35.23671694573051],[133.54149499389894,35.24217889184246],[133.54594693929982,35.243681387386175],[133.55491000009647,35.24180999983167],[133.55798221820487,35.245974720656875],[133.56180555098547,35.248877775389076],[133.5622227761603,35.25411638656203],[133.56818111476673,35.2570555589669],[133.56676972774085,35.265809720742084],[133.56780722432404,35.268488053780686],[133.5719155513617,35.27256944072718],[133.56884944234798,35.27749472090471],[133.57231778213998,35.281657504590214],[133.5705438909879,35.28708610833729],[133.5734111149311,35.28853166690294],[133.57394333281866,35.29220944081311],[133.5775527762397,35.29726110811367],[133.57576444917004,35.300815000412],[133.57678639377707,35.31441361309783],[133.58130610938952,35.31692750510035],[133.58117221832333,35.31922889179998],[133.5879330606623,35.3248908381417],[133.59244610870098,35.33081444133347],[133.58912277559568,35.33390417104073],[133.58934111480062,35.337858613284425],[133.59452832702073,35.34078583819593],[133.596799441641,35.345020558651925],[133.60363165957347,35.34312417084385],[133.60581138778537,35.34106250473087],[133.60976888502614,35.34172027876792],[133.61212888504008,35.34010138666969],[133.6180019463328,35.33960110820465],[133.6221913877224,35.336709440688196],[133.631613332989,35.33950222504768],[133.63890138758904,35.33894777501985],[133.64069250255704,35.33666110842347],[133.64917722384985,35.3363375053716],[133.6657388850416,35.324010278651485],[133.67396499368954,35.323372504637405],[133.67736194619692,35.3192933327212],[133.6835661090887,35.31875083828061],[133.69175610905722,35.32084417132148],[133.6915305581888,35.323888333280024],[133.6960616601176,35.326923892323805],[133.7049572240967,35.32429722533675],[133.70902277578057,35.3250597209294],[133.7132780538392,35.32348638668742],[133.7172058365802,35.319920278897825],[133.72472666720205,35.319649171072456],[133.72713444909562,35.317010278701446],[133.73519306081118,35.31691555940557],[133.73745527933772,35.31894610807649],[133.74230861195292,35.31652333268573],[133.7450125028248,35.319602224663015],[133.7486849941173,35.31706222534149],[133.7506925030566,35.31139638673392],[133.75696027229878,35.30819777520719],[133.76212000033786,35.31111638731147],[133.76701027170668,35.3086344410267],[133.7692072237345,35.304981946159955],[133.77570499369062,35.29955777517125],[133.78237333266327,35.29787305359861],[133.7837330608321,35.294765278994475],[133.78690666670934,35.29521750488402],[133.79348000040181,35.292851386782104],[133.7978755511159,35.294010558940215],[133.7998738905677,35.292693332731176],[133.79974277570864,35.2884547209087],[133.80137944200771,35.284830559183035],[133.80927916959808,35.27691694606028],[133.8076063937201,35.27028555933117],[133.81522194633578,35.2648883329303],[133.81815360580435,35.25923610825981],[133.81814610905576,35.25263417073046],[133.82638610863205,35.24954222509365],[133.83207555084607,35.24883250531593],[133.8389216597069,35.251198054146926],[133.84457333309297,35.24949444141538],[133.84372944166046,35.25348500043248],[133.85223944199674,35.26237361265214],[133.85555666690675,35.268116945840404],[133.8581749935812,35.268251107602566],[133.8659433329185,35.27225889223416],[133.8634630611714,35.27709527892404],[133.86533221840716,35.28027110792533],[133.865128611896,35.28586361311528],[133.86082277575053,35.28809110791832],[133.86200861190798,35.29236110787889],[133.8657105577961,35.29334222506367],[133.8728052788406,35.29304222471893],[133.87726333333626,35.295225278623775],[133.88137778205908,35.293945278951526],[133.8877661090188,35.29513027873941],[133.88818360578887,35.29709610769925],[133.8966172240057,35.30148722475565],[133.8980408301203,35.30426555880854],[133.90203306097703,35.30381889162862],[133.9068374965533,35.30664138689053],[133.9175622177222,35.30758055879579],[133.92080083019425,35.30638889233359],[133.92522165995172,35.306898891570654],[133.93126583704884,35.31471417102222],[133.9320194419438,35.31792110757311],[133.92782333298055,35.32209666702761],[133.92978693881628,35.33003638657004],[133.93153527932975,35.333206108275306],[133.93712610908278,35.3355661082893],[133.94532138807165,35.33261555856126],[133.9538888847643,35.338291108048224],[133.95407111528982,35.34069750498594],[133.9593188851585,35.34410417107068],[133.96199000023842,35.34389417127903],[133.96476583687388,35.34668638726703],[133.96963277623172,35.34783444110661],[133.97596499358963,35.34584277462443],[133.97978000044668,35.34340972088194],[133.98190111534427,35.34524777506482],[133.98966639428875,35.34856666731787],[133.99233610912415,35.34814666683525],[133.99766778214246,35.35290027902471],[134.002757223667,35.3512930538314],[134.00791917033348,35.35145555862721],[134.00965499408278,35.34952361342408],[134.01572055795748,35.34869527936371],[134.01542055761274,35.345294440885766],[134.0108216602914,35.340396107994025],[134.0153647214048,35.33386417099473],[134.01198805400554,35.329886946225656],[134.00416055816333,35.325283332859556],[134.00127111467032,35.320243613052355],[133.99946832740147,35.31465055927595],[134.00783555136968,35.308397775437015],[134.0121838912736,35.30681222480439],[134.02169499442846,35.30556889229058],[134.02532888502014,35.30749250527492],[134.02966221793702,35.307345000271596],[134.0338794420826,35.303953891558876],[134.03772693874726,35.30454417057706],[134.04413610929407,35.30275555932167],[134.04813000029935,35.298479720962405],[134.05465610879241,35.29818917069372],[134.0621986121763,35.30304277490421],[134.0702163937716,35.297273613186746],[134.07066055813834,35.29925917057432],[134.07583805408296,35.302748333268994],[134.08167999973227,35.30225694640103],[134.0852388850666,35.30389805355236],[134.08629749683212,35.3073255587276],[134.09142027172823,35.305246387311],[134.09775944174487,35.30569750523574],[134.09791444889277,35.303298613140555],[134.10279277636562,35.29639361307483],[134.11410693928383,35.28846417098475],[134.11381888463393,35.2859525048043],[134.12230277585252,35.281073892246354],[134.13153221763775,35.28033333291705],[134.13568416269402,35.28233527865024],[134.1397972237629,35.27882250515455],[134.14129749708184,35.27493972089144],[134.13813778213296,35.272590000128446],[134.1376013877939,35.26956417084983],[134.14224888537785,35.263938891666555],[134.15002639420277,35.25992777504683],[134.15057888460785,35.25795638737742],[134.1427627759814,35.24942638701822],[134.14541972763834,35.24283694556863],[134.13747527856128,35.239245558735604],[134.13872610872295,35.23643638692977],[134.14446194606205,35.231301107859906],[134.15039832682135,35.233266107644795],[134.15824639375614,35.23456305414169],[134.16144722391027,35.232528053826684],[134.16418416306874,35.22797555882505],[134.1623013882985,35.22546499971003],[134.16318333274467,35.22089722522679],[134.16216389095086,35.216453333254776],[134.15900888485226,35.21112027887784],[134.15661639413133,35.2097633332113],[134.15434360587278,35.20555305363058],[134.15311333331374,35.20015527864325],[134.15397666718945,35.19464083820418],[134.16086082996344,35.19182166683652],[134.16495138819607,35.1879805589557],[134.1688936059552,35.18016694594786],[134.16732306141023,35.17225166728065],[134.17244778243924,35.16974333308838],[134.17759832660158,35.16917138675012],[134.18084555098142,35.17165361272407],[134.18993666714357,35.17586527905945],[134.1901991702556,35.178656666771815],[134.19367916975796,35.184345278911564],[134.1928505578071,35.18856166668763],[134.19840917024703,35.190533333146846],[134.20317389086244,35.18879361263515],[134.21264360631744,35.190723332915525],[134.21690444938088,35.18951666666089],[134.22161778183522,35.19042194581618],[134.22762888456543,35.19711499995731],[134.23255610907722,35.197367505306204],[134.23468221791006,35.19926166729215],[134.24423693908352,35.19845499969853],[134.24975888526444,35.2006805591605],[134.2540991699408,35.20829250459548],[134.26090194586823,35.21045666734136],[134.26797333310287,35.20841889171851],[134.26853972792617,35.20392694627162],[134.27122306119543,35.20071417132198],[134.27433944231143,35.200604721131015],[134.27846083020324,35.19687083761909],[134.29170444900114,35.200118332694956],[134.29416583678403,35.199422225055685],[134.29899610898326,35.20186027902872],[134.3064263940629,35.20175444141438],[134.31379444875483,35.200594440980694],[134.3165949942636,35.202246107971575],[134.32269749689203,35.20275417096826],[134.330131388253,35.209841945649316],[134.33468221771022,35.21289250538484],[134.3365536061641,35.21948333268972],[134.33980916995733,35.221258613294424],[134.3438558367775,35.22080666709405],[134.35039861240614,35.222818332699944],[134.35466027205393,35.226547224974524],[134.36037693944422,35.229200278969756],[134.36889999973528,35.23171944099943],[134.3746719457538,35.23724417058207],[134.37316333302147,35.24588055894071],[134.3787063943846,35.24656750518625],[134.38972693944675,35.25212194567132],[134.3936647208502,35.251748612808285],[134.40169333298104,35.24582444124502],[134.4028144494274,35.24102444112509],[134.40835250336545,35.239564441246046],[134.41530111515442,35.23910138661972],[134.42343138844785,35.23555638681785],[134.43272416318962,35.22990417114062],[134.43531917044345,35.229172505206975],[134.44034527901147,35.231660837577635],[134.44419306076122,35.23684500019664],[134.4480216599717,35.237935838268356],[134.45734055822027,35.238078891627595],[134.46382111515243,35.23740333259775],[134.46176944230604,35.243100838133216],[134.4714152791919,35.24830333343215],[134.47652389066513,35.24909166744652],[134.48234250340386,35.25464917102249],[134.4835880536458,35.260277774999395],[134.48667832744297,35.26270889160213],[134.48990805371375,35.261391945981586],[134.49508722419614,35.26685138658229],[134.50198333266474,35.26873417124506],[134.5047874970454,35.271799720880495],[134.51524055820528,35.27723194619739],[134.51342583693292,35.280162225206595],[134.51309972836987,35.28652666707205],[134.5092836063534,35.29377610838077],[134.51159138813216,35.29989638700869],[134.51162861197088,35.305291386688225],[134.5148022178481,35.30767222489334],[134.51112583698784,35.31186166718226],[134.5050477824293,35.31630277485323],[134.5019205581873,35.326543333408154],[134.50454972798764,35.33726944133173],[134.50939639392845,35.34213138675415],[134.5102791702476,35.350848613372875],[134.51349832678636,35.35409361283001],[134.50835221808052,35.356119171162845],[134.50459527864928,35.359433612671126],[134.5029752785863,35.36581027902122],[134.49508861185006,35.366996386773906],[134.48655583708228,35.36918917134324],[134.48283944178684,35.37308389230782],[134.47474944193323,35.374708333223055],[134.47138499362268,35.38003222530699],[134.47440444940582,35.386189440890064],[134.4744166666959,35.392026387208034],[134.4772649940843,35.395220279092655],[134.4774363940744,35.40008610778767],[134.481433891361,35.410498333431406],[134.47670306079772,35.414563054141695],[134.47986639371913,35.424962774712355],[134.47735360608408,35.429018612818766],[134.47233444927542,35.42981472057295],[134.46982333258075,35.43351500001728],[134.4674644486255,35.43287694631408],[134.46273472063092,35.436799441041444],[134.45225832656058,35.43645138722178],[134.44825165978637,35.43844305370402],[134.44597888501755,35.44202055860194],[134.43962000006297,35.44397389238128],[134.43972472071937,35.447856108272845],[134.4375055509405,35.45762417111865],[134.4381819463398,35.4612294407861],[134.43457527912585,35.463634441076636],[134.43420749687857,35.46964361296244],[134.43791360572834,35.474276386845816],[134.43511138837994,35.47975166720573],[134.4340208299974,35.48411750521876],[134.43021888489363,35.49227722501399],[134.42743277620173,35.496565000074725],[134.4281880538357,35.500007225353215],[134.43087639363068,35.5024691707157],[134.42763221795258,35.50865472123843],[134.4244263938631,35.508749999912595],[134.41887277625767,35.51394610822638],[134.41377916997283,35.513829720665115],[134.41310250297818,35.517599720950386],[134.41623333260225,35.521130837917894],[134.4206747208617,35.52857166664916],[134.4201902722633,35.5334402787459],[134.42332944220004,35.534907504677676],[134.42401416262362,35.54200417095575],[134.42101693898064,35.544886945975804],[134.42506000041874,35.55203138693901],[134.42228360620356,35.556565559153285],[134.4214986122712,35.56291110806126],[134.41411194610953,35.56406389233484],[134.40995389105933,35.562896666747804],[134.40507360576237,35.57070944068818],[134.40713527906996,35.5793033333822],[134.4056152791219,35.58443083781299],[134.4082586123451,35.58731833337441],[134.4052038914465,35.58977027917507],[134.4016366666989,35.59502666724694],[134.39310389103184,35.59827389162683],[134.39308972760887,35.60137000022536],[134.38728749692052,35.603720837946355],[134.38163472096562,35.603339440862555],[134.3748413879198,35.608251108002264],[134.37152277625523,35.60857027919508],[134.36994443638673,35.614584730101285]]],[[[134.2776530609401,35.57305591939519],[134.2782696370342,35.57301225191395],[134.2780162521484,35.57344858588357],[134.2776530609401,35.57305591939519]]],[[[133.32820483828277,35.46552100019403],[133.32788572014988,35.46560469380165],[133.32787027159577,35.46556013509223],[133.32818985737606,35.465476251727694],[133.32820483828277,35.46552100019403]]],[[[133.27478686062523,35.5487172790792],[133.27470747117297,35.54737341405189],[133.2644841121521,35.54050361255173],[133.26453002613982,35.540467504771584],[133.2747732808623,35.54735063962039],[133.27478686062523,35.5487172790792]]],[[[134.28333333276714,35.582954467574666],[134.28520182900127,35.583215027251754],[134.28517958516977,35.583372054276936],[134.28188464276207,35.58304708965153],[134.2819251617169,35.5828229282356],[134.28333333276714,35.582954467574666]]],[[[134.2900018030408,35.58466625244563],[134.29005910514365,35.584490333362226],[134.29015891100505,35.58460913470384],[134.2900018030408,35.58466625244563]]],[[[134.28937810611478,35.585133945775056],[134.2894615299257,35.584960891931644],[134.28957274998254,35.584974531949115],[134.28937810611478,35.585133945775056]]],[[[134.29003070005683,35.58521580206764],[134.28963313855854,35.58507327930846],[134.29010797700164,35.584835225165534],[134.29003070005683,35.58521580206764]]],[[[134.28987574596897,35.58550186471933],[134.28977243814757,35.58538736033847],[134.2899310245972,35.5853786396126],[134.28987574596897,35.58550186471933]]],[[[134.29090204869067,35.58588930614661],[134.2907970303587,35.58577405442912],[134.29090814519486,35.58570553238445],[134.29104228267522,35.58576269419302],[134.29090204869067,35.58588930614661]]],[[[134.29141308664475,35.58622619758103],[134.29145771729986,35.58637225197788],[134.29119902731327,35.58643853201272],[134.2912519461205,35.58621950482632],[134.29141308664475,35.58622619758103]]],[[[134.29216294406467,35.5863880269859],[134.29195163396082,35.586516279302884],[134.29198422808975,35.58636583801308],[134.29216294406467,35.5863880269859]]],[[[134.29091771667936,35.58730958566889],[134.29090730163068,35.58715219801559],[134.29119900123294,35.58708002742139],[134.291601946073,35.58686372068422],[134.29164844372076,35.586907747894315],[134.29091771667936,35.58730958566889]]],[[[134.29057605703952,35.587448252135175],[134.29044647192723,35.587345197922616],[134.29059978025566,35.58730802714376],[134.29057605703952,35.587448252135175]]],[[[134.29200810598934,35.588136720932994],[134.2918628663782,35.5878561981051],[134.2923132810331,35.58742994643495],[134.29240605689404,35.58755302675081],[134.29200810598934,35.588136720932994]]],[[[134.29265608281207,35.588452748095904],[134.29265007803872,35.58825861324448],[134.29282070011527,35.58835822485224],[134.29265608281207,35.588452748095904]]],[[[134.29228033706795,35.588470197641584],[134.29209202262882,35.58842150474868],[134.29210085576995,35.588296999906675],[134.29231805373524,35.58832999962982],[134.29228033706795,35.588470197641584]]],[[[134.29259116704884,35.58830008098403],[134.29250574584353,35.58851077505227],[134.292375810895,35.58836638709914],[134.29259116704884,35.58830008098403]]],[[[134.2936725550444,35.58978558563632],[134.29354444931698,35.58968183804643],[134.29372175065828,35.589592892398116],[134.2939013362777,35.58966827896796],[134.2936725550444,35.58978558563632]]],[[[134.3009307782329,35.58978822514655],[134.30076557726966,35.58961210821229],[134.30112094707408,35.58935338674945],[134.30117988324503,35.58948238730238],[134.3009307782329,35.58978822514655]]],[[[134.2942340863341,35.58966827896796],[134.29417474726688,35.589804721410815],[134.2940400522067,35.589754053606725],[134.2942340863341,35.58966827896796]]],[[[134.29543897462906,35.589949801841954],[134.29536622577075,35.58991017141733],[134.29551988303626,35.589793559025566],[134.29554136244394,35.589938838206876],[134.29543897462906,35.589949801841954]]],[[[134.30118583675699,35.589866054275035],[134.30111749727473,35.589998081046645],[134.3010223346131,35.589890972690284],[134.30118583675699,35.589866054275035]]],[[[134.30054878130125,35.58997153216052],[134.30063147935937,35.589818972967294],[134.3007876906994,35.589965720741475],[134.30054878130125,35.58997153216052]]],[[[134.30129805416198,35.58997889221217],[134.30142221816095,35.59008027908169],[134.30131888515848,35.590164999715],[134.30122221793113,35.590063333156365],[134.30129805416198,35.58997889221217]]],[[[134.29327147899562,35.59024653225174],[134.2927847730989,35.59001491905332],[134.2932820226473,35.58962150522831],[134.29373335910725,35.589852360298266],[134.29327147899562,35.59024653225174]]],[[[134.29494654994335,35.59034527871171],[134.2948897280786,35.59010986497833],[134.29521727555687,35.5901986937148],[134.29494654994335,35.59034527871171]]],[[[134.29312233542748,35.59034772127035],[134.292951660291,35.590333000267776],[134.29272357962952,35.590214054135345],[134.29292121913898,35.59017305404325],[134.29312233542748,35.59034772127035]]],[[[134.29417036307188,35.59063263998439],[134.29392360618954,35.59008880195671],[134.29436868966332,35.589805639618646],[134.2945576651042,35.59031653188248],[134.29417036307188,35.59063263998439]]],[[[134.30269666721745,35.59056663963878],[134.3025960052015,35.59074710839241],[134.30237321705044,35.590796946122225],[134.30243080423827,35.590590054387576],[134.30269666721745,35.59056663963878]]],[[[134.30061472139232,35.59089789232394],[134.30049591375553,35.590176639640276],[134.3012613618224,35.5904301351427],[134.30061472139232,35.59089789232394]]],[[[134.30221516210008,35.59074955904498],[134.3022384698296,35.59086253188042],[134.30212885866,35.590953504600634],[134.30202111538222,35.590856613441986],[134.30221516210008,35.59074955904498]]],[[[134.29504041488326,35.59053938658349],[134.2950744749072,35.59072574769516],[134.29474377440567,35.591051386812126],[134.29467739274753,35.59088702671494],[134.29504041488326,35.59053938658349]]],[[[134.2953961354234,35.59071280195428],[134.29539160823617,35.590281360296615],[134.29566377366427,35.589954918984404],[134.29604007788737,35.59003427875899],[134.2953961354234,35.59071280195428]]],[[[134.30796438404911,35.59162683780835],[134.3078568871856,35.591526387133115],[134.3079953306201,35.5914190809259],[134.30804608296046,35.59160369375553],[134.30796438404911,35.59162683780835]]],[[[134.30686630373702,35.59169908124767],[134.3067288846304,35.59168586481087],[134.30681785995637,35.591472360361195],[134.30701725044582,35.591571441368956],[134.30686630373702,35.59169908124767]]],[[[134.3060684953648,35.59202541374191],[134.30610357971648,35.59188519774375],[134.30619466934854,35.59189808143134],[134.30620778236334,35.59200897323558],[134.3060684953648,35.59202541374191]]],[[[134.30899588844954,35.592210026571536],[134.3089837997626,35.59163763956548],[134.30918177741717,35.59160908069458],[134.30912910502423,35.59199110820316],[134.30899588844954,35.592210026571536]]],[[[134.32295713386475,35.59220038673851],[134.32238588809832,35.59208661260715],[134.32233552516436,35.59175725209553],[134.32307481195312,35.591896531899465],[134.32295713386475,35.59220038673851]]],[[[134.303526718983,35.59243077506028],[134.303410921377,35.59228769382207],[134.30361302242306,35.592177694145334],[134.30370727587012,35.59236200030614],[134.303526718983,35.59243077506028]]],[[[134.30289452706086,35.592503279302946],[134.30272747079619,35.59241958569538],[134.3029269134464,35.59231619783429],[134.30305085621205,35.592388864854286],[134.30289452706086,35.592503279302946]]],[[[134.30617555066124,35.59248110831652],[134.30619639424822,35.59262750535515],[134.30606527938914,35.59266138731323],[134.30598250309015,35.59256000044371],[134.30617555066124,35.59248110831652]]],[[[134.30943002627475,35.59236964004691],[134.30936992188447,35.59269705442557],[134.3092931386675,35.59259705431066],[134.30935802924967,35.59236964004691],[134.30943002627475,35.59236964004691]]],[[[134.30260639416986,35.592798945814764],[134.30255330718944,35.59276861258144],[134.30260766491187,35.59258977519801],[134.30270224391347,35.59268566720982],[134.30260639416986,35.592798945814764]]],[[[134.30189693879277,35.59289499970453],[134.30194192018348,35.5926625861095],[134.30209481212592,35.59277361281204],[134.30189693879277,35.59289499970453]]],[[[134.30324211413233,35.59256277485224],[134.30319085637302,35.59273883782714],[134.30278930008615,35.59282458638563],[134.3029268352053,35.59259572061609],[134.30324211413233,35.59256277485224]]],[[[134.3044264978846,35.59336117138099],[134.30430846996,35.59329383824007],[134.3043775882552,35.59305635966331],[134.30465605703148,35.593218108129236],[134.3044264978846,35.59336117138099]]],[[[134.30448241233353,35.593787612808114],[134.30418461712645,35.593720278767876],[134.304302943626,35.59350922497083],[134.30459286616792,35.593555801758896],[134.30448241233353,35.593787612808114]]],[[[134.30706464291904,35.594072946109634],[134.30696693877326,35.59405491919921],[134.30697358026657,35.59389977535437],[134.3070787164097,35.59387691908461],[134.30706464291904,35.594072946109634]]],[[[134.335901919638,35.59367158587503],[134.3357936961222,35.594054224922616],[134.33536783385853,35.594143774915324],[134.33557269762196,35.59372527899848],[134.335901919638,35.59367158587503]]],[[[134.30648985742107,35.59446774758851],[134.3062200778943,35.5944118915956],[134.30622722390729,35.59410425240935],[134.3065320230345,35.59413294617855],[134.30648985742107,35.59446774758851]]],[[[134.30469588800486,35.59447450509441],[134.3045757718545,35.594354252247],[134.30468894883597,35.59431280159458],[134.30469588800486,35.59447450509441]]],[[[134.3038900001235,35.594538694205426],[134.30328236059256,35.59376727913667],[134.30389211442957,35.593551333027676],[134.3042808562766,35.59401936000552],[134.3038900001235,35.594538694205426]]],[[[134.3035122443946,35.594409467922674],[134.30350680889217,35.5945701354035],[134.30334513596927,35.594510666833855],[134.3035122443946,35.594409467922674]]],[[[134.30304258065064,35.59529322540209],[134.30293581133867,35.59504994619812],[134.30319335918625,35.5949884676437],[134.30304258065064,35.59529322540209]]],[[[134.337407392837,35.59539017141935],[134.33746795138495,35.59551313482336],[134.3372223609233,35.595609080794475],[134.3371857720058,35.59545774827649],[134.337407392837,35.59539017141935]]],[[[134.31972252877176,35.59639169422138],[134.31965596634984,35.596215694198975],[134.31984871624536,35.596112171439586],[134.31998883331812,35.59619855941605],[134.31972252877176,35.59639169422138]]],[[[134.30998513640498,35.59800255897096],[134.30958958489146,35.59779461323086],[134.30983983114334,35.597597586159736],[134.30998513640498,35.59800255897096]]],[[[134.31877927394441,35.5974862788687],[134.32009632928225,35.598145170763075],[134.3199821135837,35.59829274771221],[134.31877927394441,35.5974862788687]]],[[[134.35695717293527,35.600758197732716],[134.35670306139718,35.60064377519012],[134.35676525311396,35.600544305675214],[134.35694486391435,35.60065517139907],[134.35695717293527,35.600758197732716]]],[[[134.35645966258346,35.60113891942564],[134.35604608326025,35.60077410763898],[134.3564016985796,35.6006230808905],[134.35645966258346,35.60113891942564]]],[[[134.35616296994522,35.60142089196063],[134.35592855985522,35.601391000294484],[134.35592377366333,35.60132580214412],[134.35615438411764,35.60133619830697],[134.35616296994522,35.60142089196063]]],[[[134.337559728099,35.60158280230456],[134.33736700428392,35.601511972599496],[134.33757461727487,35.60142469429428],[134.337559728099,35.60158280230456]]],[[[134.35286824877073,35.60182210830368],[134.35268269794824,35.60164413516878],[134.35294177734124,35.60158672065069],[134.35286824877073,35.60182210830368]]],[[[134.35212163430606,35.6023320266018],[134.3524123869222,35.60187980161163],[134.35272988267798,35.602063251617835],[134.35212163430606,35.6023320266018]]],[[[134.35257369561964,35.60239491889047],[134.3525666413375,35.602220332602315],[134.35283238740487,35.602159107656746],[134.3529016603834,35.60233225233162],[134.35257369561964,35.60239491889047]]],[[[134.35271496832115,35.60263177513639],[134.35260350185024,35.6025437207162],[134.3527236063095,35.60244458574908],[134.35281058424118,35.60257980241602],[134.35271496832115,35.60263177513639]]],[[[134.3397465240829,35.60384500014669],[134.33974999996258,35.603643945911415],[134.34037814493547,35.603488667168335],[134.34031596580928,35.603669694400935],[134.3397465240829,35.60384500014669]]],[[[134.3388145008886,35.60539402661311],[134.33859807993747,35.60530674830784],[134.33877330744224,35.60515719824616],[134.3390668092859,35.60513644099399],[134.3388145008886,35.60539402661311]]],[[[134.34256966325938,35.60739569355644],[134.3427729442161,35.607531585614254],[134.34268011709378,35.607824946264316],[134.34250308734772,35.60743217095796],[134.34256966325938,35.60739569355644]]],[[[134.33936664055807,35.60790383839151],[134.33916863772254,35.60785377493181],[134.33937189439746,35.607751441076175],[134.33936664055807,35.60790383839151]]],[[[134.34107858640766,35.608003919445366],[134.34099097265528,35.60791519772823],[134.34110661467855,35.60775422537728],[134.34118197067153,35.607880865209836],[134.34107858640766,35.608003919445366]]],[[[134.34138525342678,35.608197054250695],[134.34145880717824,35.60790730617731],[134.34164544707983,35.60795666726642],[134.34138525342678,35.608197054250695]]],[[[134.34203883302575,35.60817269431442],[134.34188985673154,35.607829279197915],[134.3421535280629,35.60765827940611],[134.34227535742184,35.60804964007889],[134.34203883302575,35.60817269431442]]],[[[134.34047761265174,35.608530531858605],[134.34037508364327,35.60833022495996],[134.34057396871378,35.60821286523162],[134.34077810582494,35.60835094623923],[134.34047761265174,35.608530531858605]]],[[[134.36944861226368,35.61136236028477],[134.3695117770469,35.61144036028446],[134.36933946784222,35.611503107782255],[134.3693206612196,35.611405586198885],[134.36944861226368,35.61136236028477]]],[[[133.8795896888131,35.50781808103966],[133.87956730198948,35.50795635989812],[133.87943736704096,35.50793405401345],[133.8794751097886,35.507806837715464],[133.8795896888131,35.50781808103966]]],[[[133.87758619984334,35.50739255871969],[133.8775743323896,35.507909278590375],[133.87715814503247,35.5082887214474],[133.8769905581678,35.50823300035273],[133.8774288850351,35.50784102724168],[133.87758619984334,35.50739255871969]]],[[[133.87924058368606,35.50799180217996],[133.87892732823366,35.508394468230165],[133.87879075179183,35.5083364412738],[133.87924058368606,35.50799180217996]]],[[[133.87887438424548,35.50867469428175],[133.8788926719593,35.508832504616464],[133.87867900113508,35.508795639607115],[133.87887438424548,35.50867469428175]]],[[[133.90752571983614,35.509456170965564],[133.9077164984177,35.509843694231165],[133.90756199668886,35.50983117117164],[133.90752571983614,35.509456170965564]]],[[[133.9435956682056,35.51803319777389],[133.94341286571125,35.51817205399715],[133.94327936405148,35.51807653160671],[133.9435956682056,35.51803319777389]]],[[[133.937794383604,35.51832727878093],[133.93511236064694,35.51855308056025],[133.93497849476182,35.51828591896003],[133.93728936391312,35.518206197657946],[133.937794383604,35.51832727878093]]],[[[133.93496477290603,35.5152844406245],[133.93496530530467,35.515401973022676],[133.93368050595063,35.516970693742564],[133.933766108819,35.51884010818452],[133.93367936381162,35.518841837580794],[133.9335955505943,35.51695189161654],[133.9342263548624,35.51605827936618],[133.93496477290603,35.5152844406245]]],[[[133.94963396913238,35.519425027243244],[133.94984994761705,35.5192443327598],[133.94988077817538,35.519390837717026],[133.94963396913238,35.519425027243244]]],[[[133.93447199658544,35.51997922456161],[133.93445461718693,35.52010913522844],[133.93384070038803,35.52013325234776],[133.93397219206304,35.51986472108007],[133.93447199658544,35.51997922456161]]],[[[133.66277788609068,35.51275769371267],[133.66094897531502,35.51417617099355],[133.66090150460082,35.514126532013904],[133.6627291698154,35.512703252353276],[133.66277788609068,35.51275769371267]]],[[[133.65972919604565,35.51417855869357],[133.6589674972522,35.51422438724575],[133.65720608329423,35.512958891839446],[133.65774710824246,35.51313719772355],[133.65902997405408,35.51407808103863],[133.65972919604565,35.51417855869357]]],[[[133.64564406002546,35.51632419810329],[133.64472494210247,35.51686627885573],[133.64468050570088,35.516815918619784],[133.64559961103328,35.5162738378674],[133.64564406002546,35.51632419810329]]],[[[133.4878194683938,35.5083333332168],[133.48858236058754,35.508886170760206],[133.48853632878865,35.50893372061478],[133.4878194683938,35.5083333332168]]],[[[133.49022642021316,35.510142946339954],[133.49016583738353,35.51018853207512],[133.48888189418415,35.50917433332887],[133.4889376125808,35.50912480226788],[133.49022642021316,35.510142946339954]]],[[[133.4916666673829,35.5120748924424],[133.4910463546056,35.51154663966577],[133.49110208829086,35.51150108091019],[133.4916666673829,35.5120748924424]]],[[[133.49356992241405,35.51236469357582],[133.49337852060228,35.51252713541902],[133.4933325031925,35.51248355876925],[133.4935190531619,35.512317170700896],[133.49356992241405,35.51236469357582]]],[[[133.49332466919816,35.51272391877387],[133.49232250338093,35.51241922486736],[133.4923577559058,35.51235538739127],[133.49332466919816,35.51272391877387]]],[[[133.49321386462816,35.51360302675835],[133.49312824916944,35.513627721242415],[133.49293688692785,35.513061559343555],[133.49300739287696,35.513038918911036],[133.49321386462816,35.51360302675835]]],[[[133.50292795106418,35.51568691871637],[133.50291050601516,35.51575472130338],[133.50267036274715,35.51570761301599],[133.50268717287474,35.515640865333694],[133.50292795106418,35.51568691871637]]],[[[133.5632242800765,35.53097919763189],[133.56302041456058,35.53099083755717],[133.56294933934055,35.530246639570805],[133.56316267201976,35.530223386700015],[133.5632242800765,35.53097919763189]]]]}},{"type":"Feature","id":"JP-31-capital","properties":{"Kind":"capital","PrefectureCode":"31","PrefectureName":"Tottori","CapitalName":"Tottori","CapitalNameJapanese":"鳥取市","PointKind":"prefecture-representative-point"},"geometry":{"type":"Point","coordinates":[134.238266,35.503448]}}]}
