{"type":"FeatureCollection","bbox":[136.76852783389245,36.2754434678418,137.76338674410306,36.982622945892274],"displayBbox":[136.76852783389245,36.2754434678418,137.76338674410306,36.97979794601844],"DataVersion":"2019-boundaries-v1","Attribution":{"BoundarySource":"MLIT National Land Numerical Information, via Fabio Crisci / piuccio","BoundarySourceURL":"https://github.com/piuccio/open-data-jp-prefectures-geojson/tree/513fb852832c99470e16b95a30ddd68bf3469dc0","BoundaryDate":"2019-01-01","CapitalSource":"Geospatial Information Authority of Japan (GSI), prefecture representative points","CapitalSourceURL":"https://maps.gsi.go.jp/","CapitalSourceRetrieved":"2026-10-04","Notice":"Simplified and enriched by Ashiato Kai. Modern geographic context, not historical immigration-era boundaries. See GEOLOCATION.md and THIRD_PARTY_NOTICES.md."},"features":[{"type":"Feature","id":"JP-16","bbox":[136.76852783389245,36.2754434678418,137.76338674410306,36.982622945892274],"properties":{"Kind":"prefecture","PrefectureCode":"16","PrefectureName":"Toyama","PrefectureNameJapanese":"富山県"},"geometry":{"type":"MultiPolygon","coordinates":[[[[137.19273909163587,36.76203652306714],[137.19267807982953,36.76211115330716],[137.19171051902526,36.76164418033471],[137.19176346301344,36.76157008968795],[137.19273909163587,36.76203652306714]]],[[[137.6349847466488,36.97979794601844],[137.62322658933567,36.978563387290535],[137.61157297011653,36.97639019804927],[137.59578513597535,36.975060640336324],[137.58956883313522,36.97517713491692],[137.58548027229676,36.971494721404326],[137.57820883267152,36.96743800016361],[137.57458289208682,36.96413302671789],[137.53581085598626,36.96102508124255],[137.52729080392749,36.95992335957544],[137.51034763863265,36.9585835855641],[137.49064383884217,36.95418177466922],[137.4822028659695,36.94877469439666],[137.47657680887266,36.94612800040693],[137.4690244489193,36.94422650534898],[137.46002289174317,36.9384648916415],[137.44659230928767,36.934796558814185],[137.43598924840512,36.93100117066757],[137.428390921404,36.92648946801461],[137.4262239428807,36.922395450089994],[137.42053635506875,36.91719061295646],[137.41865099924428,36.91120922472601],[137.40981036315782,36.89881183829573],[137.40966024562385,36.8965924409884],[137.41573335930718,36.88919517092046],[137.4189795593593,36.88063525191541],[137.4187373017851,36.87410322498391],[137.4167106606685,36.86780105397554],[137.40899394331586,36.859477242980404],[137.4104583921411,36.8549079999043],[137.41232481184068,36.85435650504871],[137.41142080432667,36.8482296397861],[137.4004579507739,36.8371039190107],[137.3972373283401,36.83201746773199],[137.39279258111276,36.81921063975926],[137.3939939170857,36.81510302678333],[137.39281194621447,36.80713035967841],[137.38523094735035,36.801369198329894],[137.37838282670612,36.799122585738814],[137.37554208779716,36.796076748343296],[137.36880011683195,36.79418922515265],[137.36629063600412,36.79202672075661],[137.35772163384638,36.78761191915481],[137.34973341116802,36.78240535981956],[137.34435481242474,36.77706361259567],[137.34307330728734,36.77213699962289],[137.33475286605199,36.76546255875013],[137.33362831419538,36.762714675741734],[137.32038416299883,36.759093333390695],[137.31903399462317,36.75815899983803],[137.31201887167367,36.759342054392334],[137.30138128401916,36.75923597306178],[137.30098016929946,36.757578649335244],[137.29508652432366,36.75703164029801],[137.29233717272245,36.75801689166627],[137.2828932678101,36.75897924269793],[137.2687844103723,36.76168472986643],[137.26014760113094,36.76193425216405],[137.24283475961647,36.765647224639736],[137.23415457787155,36.76436653159021],[137.2291365632019,36.76470118910862],[137.22830496819984,36.761562252096326],[137.20464333302345,36.75936745034761],[137.19364783408037,36.761135018366474],[137.19280518820892,36.75948905397672],[137.18733184229075,36.757174838448066],[137.18123818359538,36.75764445902462],[137.15944538279825,36.762724026892386],[137.15584411241593,36.763176973138854],[137.1483291435752,36.76701330561963],[137.13602961057813,36.77070861271238],[137.13701686113927,36.7754169188558],[137.12191880700743,36.77946672071266],[137.12086060982938,36.77686472122997],[137.1173350317863,36.775098756702334],[137.1192690274437,36.77210122459189],[137.1183191050427,36.76650617072323],[137.1260316081723,36.76213144111318],[137.13229014317562,36.76043833336246],[137.13063289229422,36.75680677471291],[137.12443092105025,36.7585874143777],[137.1212139948301,36.76118044132437],[137.11362450097,36.76512235960928],[137.11209416331508,36.767893332711196],[137.0991023088245,36.77078255856827],[137.0922001434219,36.77043138679909],[137.09262914431963,36.77293989186256],[137.10341625235822,36.774029279327806],[137.1093693389239,36.77288974836324],[137.11371180265758,36.77535880196717],[137.10799422785135,36.77908558623085],[137.11201233490135,36.77978550519697],[137.11337894917926,36.781422801920826],[137.10043194567777,36.78502886479032],[137.09648411165244,36.78104705437812],[137.08628588778356,36.78346183839318],[137.07355286627183,36.791827440883765],[137.07073338463806,36.79176589218224],[137.06435944233442,36.797599919300865],[137.06809403361285,36.800764585916966],[137.06300182937105,36.80500272109873],[137.05682015582556,36.801604153409016],[137.0508186380697,36.80868386476857],[137.0443958625791,36.81406380170313],[137.0343164976083,36.81870155873003],[137.03270238720552,36.82083964023724],[137.0281259396604,36.82215258567334],[137.01539084341277,36.83020913524342],[137.00664281501395,36.836920612895995],[136.99566643295952,36.84755755034075],[136.99098931260676,36.85396136902199],[136.99008212688875,36.860965810723656],[136.98783805398307,36.86675207215046],[136.98522080379712,36.86916167607052],[136.98507606960504,36.877281991171],[136.98841343663082,36.87987796429667],[136.99272673175335,36.878995874160296],[136.9951737483699,36.885034243435655],[137.00027649806202,36.889159395889465],[137.00295377439727,36.889576846794114],[137.00740783410436,36.895915279366704],[137.01146548614338,36.89960289186001],[137.0178969391925,36.910758523187326],[137.02524745800383,36.91391966715895],[137.02880839199372,36.92145928821566],[137.03260961134458,36.923852135068046],[137.0284201303848,36.932412802309045],[137.0270068997487,36.939133694064765],[137.0320670818304,36.94303191878805],[137.04033501884612,36.950861531634416],[137.05169666686777,36.9591743241358],[137.04544941565803,36.96364533336549],[137.03767080426428,36.96711919769285],[137.03032496822277,36.96443946800707],[137.0272385597118,36.96242500011374],[137.0214754989952,36.96385722533074],[137.01910661457862,36.9629513867971],[137.0107363293182,36.96284941356964],[137.00426713442073,36.96144494592755],[137.0002240855731,36.96327436032351],[136.9969965887217,36.9665543326164],[136.98664766455818,36.967199305703446],[136.98412350229785,36.96351153223151],[136.98415907857873,36.95762877534776],[136.9814896371371,36.95142405397695],[136.9737468871092,36.94431180244777],[136.97112549914254,36.947433467980204],[136.9633218937904,36.948720946414596],[136.9539913619119,36.95595927929736],[136.9487610892529,36.95552010796666],[136.93765111470725,36.95142202690505],[136.93190360596668,36.950407278673026],[136.9276233330504,36.94761727861459],[136.9273350059059,36.944183107664344],[136.92321085619608,36.94071002664646],[136.92242975363024,36.937490585921864],[136.91498725036138,36.930476107786205],[136.90836228299304,36.92920777501888],[136.90583727626938,36.92647608070661],[136.8955814787023,36.924719693958764],[136.8915626072286,36.918025252163716],[136.8874658373785,36.916683558999125],[136.88274211415728,36.90894827874013],[136.8789763038135,36.90627102668657],[136.8778737997361,36.89949933312778],[136.87901050593018,36.892734891701934],[136.88136858589155,36.88833041431724],[136.8856094163416,36.88519264012831],[136.8820897279586,36.88086372108393],[136.88303167337313,36.87682427941701],[136.87734919640832,36.868586747580366],[136.87264172483583,36.86684533274598],[136.87124338517413,36.86267783841157],[136.86238868998612,36.86032669402175],[136.86362092126853,36.85742889222962],[136.86112452737507,36.85481917116789],[136.86694817092143,36.85060389225589],[136.86199702983913,36.84785222490029],[136.8632845271593,36.842842802353516],[136.85644169902525,36.839791468301655],[136.86001805369028,36.82907677457354],[136.84874655011322,36.812884134894944],[136.85042399527129,36.80180638665547],[136.85399538298066,36.795176973038906],[136.85083341073334,36.786927278770975],[136.84325141362194,36.78131289217629],[136.8487397800169,36.776267027301515],[136.8491064462056,36.77317646841931],[136.85269450105045,36.77014866692747],[136.85106477302088,36.76848230591372],[136.84902977990043,36.759007306042406],[136.8450306098748,36.75552369396337],[136.83909144031782,36.745096197831344],[136.833098392377,36.742202585980635],[136.82485891081012,36.74194813539816],[136.82172224368662,36.739984251671956],[136.81986144025336,36.730649802346534],[136.80799367087127,36.73001646828544],[136.80685144014194,36.728232000206674],[136.79954147895614,36.73004617109399],[136.79658063558793,36.72971700033935],[136.7937734108143,36.72696561267293],[136.79388341139042,36.72221199958415],[136.7901736962591,36.71988366739737],[136.78985425437043,36.71745644126179],[136.79346616103453,36.71555310798959],[136.79887807965974,36.709791999701054],[136.80394610922565,36.70854646834488],[136.80755192028494,36.70464925176162],[136.81317163356414,36.70300230621149],[136.8138910507315,36.69876841403112],[136.81136630391188,36.693176505091685],[136.81109596590613,36.68496319829302],[136.81758875541675,36.68543208142546],[136.8205756944128,36.6839298646716],[136.82254955881513,36.68061294643036],[136.82055785995738,36.67496127933964],[136.82292894861212,36.67368602718847],[136.82378364539898,36.66971158582106],[136.81862917030003,36.66760217110334],[136.81403939030565,36.65924302664439],[136.81108717323457,36.658729973309676],[136.8072290528786,36.65311638711165],[136.80755316494663,36.648009198365855],[136.80128372206616,36.64711835962464],[136.79976202329885,36.64457505439532],[136.79990335895286,36.63640453194364],[136.7938752527408,36.631054278931856],[136.78592581062776,36.629556504828884],[136.7842296631685,36.627053440663815],[136.78346457842758,36.615131837864055],[136.78580983135873,36.61351961333952],[136.78610063613553,36.60881019833204],[136.79066561642514,36.604378000244594],[136.78845391731454,36.6019830004152],[136.78941000007148,36.5973346943407],[136.78831250341932,36.59302358636944],[136.7941657724325,36.58988389212794],[136.79529075236644,36.58338391883285],[136.79307852085708,36.58020753225185],[136.7940043576151,36.57663280176246],[136.79093379965525,36.56980891874667],[136.7925996372635,36.568300585703525],[136.79952905302343,36.569935865248056],[136.80244405974565,36.56877172073837],[136.8078423608364,36.562050891935144],[136.81177596578823,36.56059700025139],[136.81711457797542,36.55279035968738],[136.81678791183276,36.54848841400917],[136.81270649790656,36.540892865013745],[136.8128553833693,36.53809925237863],[136.8076509473334,36.53053894601561],[136.80396260728855,36.52250172107762],[136.8012092743886,36.52061838692907],[136.79949341109216,36.51566505419896],[136.79510619979135,36.51080780233826],[136.797090609644,36.50199422505352],[136.79493060985988,36.496334197864996],[136.7955016991442,36.49380836016775],[136.79893335918723,36.49033422514441],[136.80251613501173,36.49034727880394],[136.8026344489208,36.48473172129195],[136.79988167270108,36.48303589219273],[136.79555053233128,36.47488558560133],[136.79569608310783,36.47153808141735],[136.7981849415819,36.46886363974522],[136.79504411239589,36.46406086521682],[136.79828185522354,36.461818919207815],[136.7891454474045,36.45452058625608],[136.78899433162314,36.449411972984194],[136.79116014282636,36.44672446776002],[136.7964934759932,36.445383081264254],[136.79520569358795,36.44339919841434],[136.78631705618727,36.43841666739536],[136.77817647216648,36.43088250522351],[136.77437844361032,36.432726666702365],[136.7694598049261,36.43071166730965],[136.76852783389245,36.42332610821336],[136.77164727630077,36.42024944115883],[136.7696825292254,36.41535219824539],[136.7712416991452,36.41403386497092],[136.7788566932818,36.41437138683011],[136.78363693889366,36.409428333350945],[136.78542250324597,36.409576386940785],[136.79300077806352,36.40219194570176],[136.79514299555285,36.40126389211497],[136.79719824860035,36.39299222471146],[136.79819652395054,36.38418219795011],[136.80048457820078,36.38064664013041],[136.80059369564265,36.369388864704376],[136.80665644643796,36.363281360046756],[136.80819002614885,36.358688586209325],[136.80597169903479,36.35539994625054],[136.80145416337905,36.35304050471558],[136.79667389078747,36.3520471711401],[136.79528944205413,36.349540468318025],[136.7871869389262,36.34826297325765],[136.78465861190546,36.34378713466856],[136.78573691342785,36.34172963961123],[136.78685883296885,36.33327017128141],[136.78374686122868,36.329244053969944],[136.78912238698865,36.32486710843034],[136.78918683510437,36.320005693607925],[136.79062875501313,36.31593430622331],[136.78835763859422,36.312333505287086],[136.78980791230538,36.30912322505685],[136.79228708238304,36.299211026967384],[136.79540124487164,36.3026632518077],[136.80417680871278,36.3061910538741],[136.80915038877947,36.30270772058486],[136.81698705590793,36.303433585891355],[136.82656817128418,36.30258305386491],[136.83039625158585,36.30773777537809],[136.83251875503663,36.31541805400002],[136.83828933858217,36.32315974822387],[136.84248713377428,36.333257532209416],[136.83921077765535,36.338391413732836],[136.83733413716072,36.34394308070864],[136.83734525278123,36.347310027335936],[136.84396500588036,36.35109113514784],[136.847495550879,36.35042005384247],[136.85165274977464,36.347570333404235],[136.855186667231,36.349556999655874],[136.86510027186011,36.34966035963794],[136.86608055807142,36.35136341389051],[136.8642294682154,36.355463414105316],[136.86694002576166,36.35849953162813],[136.86883839207815,36.363880081001014],[136.87304450060333,36.36691205444782],[136.87338727630186,36.36098289164721],[136.87604724968094,36.360728171268136],[136.87600780811397,36.35564789203664],[136.87060555090557,36.35332369403329],[136.86986221806694,36.349291467627154],[136.87574111506046,36.35010566704295],[136.87654024633537,36.34685789227797],[136.8827710894143,36.34203538662382],[136.88697525270584,36.34541122484819],[136.89009053215239,36.34555846814885],[136.89892333334524,36.35336597296134],[136.90312335885596,36.35567402723461],[136.90747422765355,36.36084155869105],[136.91307557677646,36.35757210756674],[136.92280780793408,36.354963505261594],[136.92864888483825,36.35172544137606],[136.93235138830596,36.34848127918775],[136.93964389095288,36.34920822457997],[136.9467627498011,36.34580405411384],[136.95106744470684,36.339243505183674],[136.9548968865821,36.33935044087019],[136.9614343319289,36.32755819835222],[136.96027544665458,36.32547513466977],[136.9637948643416,36.31924153157149],[136.97111708238754,36.31554319826006],[136.97219871589812,36.310653468282965],[136.96882508371073,36.30492069403488],[136.96572642013825,36.29535708126434],[136.9654947466853,36.292180972573874],[136.96050722442897,36.2877787479909],[136.9616058371397,36.28471402663109],[136.9573741366072,36.27998458641957],[136.95824108935483,36.27767930565551],[136.96672163419612,36.27744930584083],[136.96872163379646,36.2754434678418],[136.9761813617805,36.275882360382695],[136.9802327500414,36.27927455907371],[136.98621608260623,36.282332054380845],[136.98561500632752,36.28472122480474],[136.99014778189473,36.28711733259888],[136.99628500644792,36.287681774993985],[137.00255749713085,36.28689594559148],[137.00783888455692,36.289670918877846],[137.00793752309824,36.29216758616525],[137.0108253046442,36.29501508078141],[137.01080949366326,36.29802869366932],[137.0166009207959,36.30502008081214],[137.02125121886877,36.30917646761992],[137.01820150539527,36.3114523063789],[137.01841124528278,36.315880360390395],[137.02144846987107,36.318530080598805],[137.0244620881549,36.31667202729227],[137.03375457781158,36.31779619783629],[137.03757097322193,36.31743866696098],[137.04387405974012,36.32188227924382],[137.04543988284433,36.32471699988969],[137.05227824944177,36.32950561279387],[137.05253328098615,36.33853977489076],[137.05873552472474,36.342500333423686],[137.04898250304018,36.345685640380054],[137.0501583396357,36.34954674828384],[137.0545469781606,36.35233589218774],[137.0569822442352,36.35768730622425],[137.06199841799264,36.36575008090159],[137.058404527447,36.36843925167017],[137.05809092125912,36.370996748201435],[137.06078955919088,36.374312865146635],[137.06555344973196,36.37516702683689],[137.07015513585088,36.377738134607284],[137.07123569377234,36.37988258601257],[137.07872600500116,36.384311441319994],[137.08996739298084,36.38273561325798],[137.0948826717979,36.38396672128721],[137.09562769086529,36.38900422516491],[137.09481046702945,36.392824504747125],[137.0918938388296,36.396372278957585],[137.09617661455923,36.399397558750366],[137.101925771757,36.39919310777577],[137.10451802888394,36.40463533265455],[137.10914778194467,36.40734255911184],[137.10807833964373,36.409868108126716],[137.11151031085228,36.415382838147536],[137.11612891142022,36.41610061315282],[137.11712557698388,36.418412558792625],[137.12200031076577,36.4171500536321],[137.12422561571964,36.422092000045836],[137.1369895847016,36.437803387316535],[137.14350680879227,36.438640026615985],[137.14226627766664,36.443147252443794],[137.1548635276298,36.449126973331204],[137.15969661470706,36.45644419834116],[137.16359105058655,36.45450613505017],[137.1686463286652,36.455483081179295],[137.17593605690354,36.45103253242547],[137.18586411183935,36.45321891921782],[137.19089442293932,36.455028919049425],[137.19385411157805,36.45359058563707],[137.19474297001216,36.44664417089183],[137.19823019466776,36.4459933333257],[137.1997668347717,36.4414663871641],[137.20487072570347,36.436773892001554],[137.2047595847871,36.432601946023055],[137.2125548642157,36.43022858568071],[137.21319072627102,36.43797138696999],[137.21822683530024,36.43861274837968],[137.22217686097338,36.44363080172019],[137.2313607520971,36.44426191895246],[137.2401005319141,36.45278580212312],[137.24242111464275,36.45767386475711],[137.24761197091584,36.461963864740596],[137.25209416321513,36.458113838283055],[137.25637858560333,36.45114133330594],[137.26282250325596,36.4554491083897],[137.2639422176593,36.45841050484097],[137.2777733590533,36.46481602683821],[137.28215780763674,36.464529612551644],[137.28599503224495,36.46123044063239],[137.29832500639395,36.458258198357214],[137.30104503200266,36.46154013476945],[137.306610026032,36.46387677489332],[137.31336169888334,36.461152053924195],[137.31678252929032,36.460988999642666],[137.3166505582767,36.45515094625921],[137.3177883013891,36.451182026729214],[137.31331274968375,36.4489356668476],[137.3120427243923,36.44490483798796],[137.31387464340014,36.441667891959696],[137.30878824877868,36.439978721440866],[137.30514572019888,36.43621233283295],[137.30674153029747,36.43220983801365],[137.31289593999566,36.42534146823425],[137.3195298313367,36.42445786543817],[137.32456763918526,36.428443694021325],[137.3308956935815,36.43079144077245],[137.3331023609852,36.42976089235134],[137.33861905332674,36.43389338687035],[137.35010683486257,36.43296669395784],[137.35127603086414,36.43469280233103],[137.357999921859,36.43630889214171],[137.3591935281588,36.4380597210793],[137.35772771686072,36.443211667284686],[137.36149778189713,36.45005138736167],[137.36653527858027,36.45089027856358],[137.37346447490563,36.453586386702455],[137.3780172495965,36.4527197208385],[137.37968949397498,36.45492972112976],[137.38573007828052,36.45571941401977],[137.3890689750532,36.45725774844641],[137.3900703890373,36.459866919123044],[137.39487452693788,36.45557441362831],[137.3961833849553,36.45028358601871],[137.39472367106066,36.44819163973244],[137.39522163377148,36.43639746816865],[137.4002663547086,36.432313278934714],[137.40376191967687,36.42725827874659],[137.41016027227886,36.42463080236968],[137.41719586289878,36.42564302710406],[137.42070280159305,36.42276608059018],[137.42603839205822,36.42235358584935],[137.42710089519028,36.42036135998882],[137.43178786042154,36.42135080219782],[137.4360103626882,36.42039330570657],[137.4422009467164,36.41425305403527],[137.45258321684207,36.41602472116398],[137.45752433228222,36.41287472069183],[137.46082905301841,36.41223610761034],[137.4683102199408,36.416875279270755],[137.4729760825802,36.422284440574515],[137.47398608329115,36.42535469366425],[137.48301693858093,36.423665279429144],[137.49144863764457,36.42356999985566],[137.49695756164226,36.42609274838168],[137.50423866358358,36.42570997263721],[137.51172116689838,36.423449171442144],[137.51272282729667,36.41638305423464],[137.51592224371666,36.411117531748744],[137.5202639169463,36.4060672790817],[137.52516364468647,36.40367005432961],[137.53000808030868,36.40328505366233],[137.53276197078833,36.398891467966905],[137.53938194602006,36.39430455860855],[137.54090250264846,36.39144177461827],[137.5486838911487,36.3903248652004],[137.55950525256537,36.38745155914222],[137.56825583683747,36.3894318653883],[137.57131416311825,36.3891060266219],[137.57353666668394,36.39253241393982],[137.5776552792678,36.392952134733264],[137.58083277561218,36.39115827863168],[137.58734719831466,36.389800531669266],[137.59240747122783,36.38967497282181],[137.59382194562636,36.393492198306376],[137.59667666719452,36.39437694593937],[137.60072114056823,36.39947917132673],[137.60536116658466,36.40253833307764],[137.60380425396318,36.40870555901438],[137.6045309205656,36.41219163973244],[137.60726844428336,36.412903613211256],[137.60919955941222,36.417905837584385],[137.61381513556012,36.419368891561135],[137.61740263282536,36.418600865137876],[137.62262016928548,36.423561171211134],[137.6284235016434,36.42372980218869],[137.63330433192948,36.425022306034634],[137.63778574631522,36.431366774856826],[137.63991221757487,36.445829775423874],[137.64320639376012,36.448664532042585],[137.64529335870157,36.45453033310844],[137.64946613475433,36.454835359764104],[137.65179394263646,36.45829063960139],[137.6550678337136,36.45872591866629],[137.6546986898927,36.463585053707334],[137.6566373278505,36.47041366715706],[137.6507798311244,36.48012027932748],[137.65200070037213,36.488200251740295],[137.65764963712115,36.4931085859925],[137.66109102513076,36.49392469376966],[137.6662368613421,36.49321774840041],[137.667694942068,36.49601163982538],[137.66675994841296,36.50008966690467],[137.66874555076663,36.509461305894604],[137.67424778200962,36.51087102737608],[137.67725752331614,36.51435464035444],[137.68307085613515,36.51270102723066],[137.6901064458558,36.51373602729586],[137.6942961606394,36.51068244134166],[137.69690647165646,36.51450297273408],[137.70546955897305,36.51788769356227],[137.70275180325314,36.52469572063103],[137.70851522729595,36.53340094579704],[137.7075238389541,36.53597205356749],[137.6987004671529,36.537482613331974],[137.68731155618343,36.53622344105901],[137.68459763877013,36.53780733334179],[137.68949883330458,36.55357341378209],[137.68773775569298,36.56207450543411],[137.6938872496969,36.56905950469246],[137.69852533137896,36.56961117131857],[137.71320596608257,36.57708005440105],[137.7181201693104,36.582235891972914],[137.72196016922646,36.58340199970257],[137.72510686109285,36.586696171391225],[137.7306777169032,36.58796422536875],[137.73953688711777,36.587974224930576],[137.7478632809657,36.586853945753035],[137.75090216570243,36.58834061322875],[137.75309719767756,36.593722278660266],[137.75076697781378,36.60063727918714],[137.7478078341643,36.60365089207505],[137.7439406612326,36.61274505424092],[137.7442454216889,36.6175092253705],[137.74667880728123,36.624472837851215],[137.7513299480188,36.62674561261997],[137.75255666735643,36.63504617074426],[137.75462169873242,36.63928144068598],[137.75625535679933,36.64688838678967],[137.75627930034955,36.65275310776974],[137.7535026983909,36.65782922493884],[137.7593313358725,36.66133866734566],[137.7617405323997,36.666970332614824],[137.75846671866418,36.67615480200254],[137.7599036707179,36.680529251923474],[137.759738417594,36.6859323059312],[137.75422204900838,36.687459801728494],[137.7536015051054,36.69146980228959],[137.75660900080481,36.6941348019796],[137.75527649781213,36.69845730615981],[137.75114038891786,36.700540081159886],[137.75006427994265,36.70497980207625],[137.75177399457425,36.71188038737006],[137.75269817118374,36.719332053831295],[137.75097038917215,36.72688761267324],[137.75543175137432,36.73076761263525],[137.75414703026127,36.73328038678045],[137.75798786025166,36.73731650455312],[137.75928564221863,36.740610667248575],[137.75524924835418,36.743032081065735],[137.7556786899197,36.745540414358686],[137.75177230924476,36.75110819808492],[137.75904258065066,36.76017513507446],[137.75997980462432,36.76426291889862],[137.7624448121784,36.76615513475173],[137.76338674410306,36.768233468000176],[137.75784452720325,36.77449517131515],[137.75218927361618,36.77704797338532],[137.7496720487261,36.77971269428548],[137.75085652420933,36.791313278684925],[137.7542937483579,36.79658908132109],[137.75097374814004,36.800556891987014],[137.74925433162218,36.809693027311425],[137.7456271337852,36.812166639578834],[137.74487185525197,36.815218026690616],[137.73199080443214,36.82363977475586],[137.7300686123766,36.826764505177835],[137.73443858637177,36.831399468011114],[137.73264944181835,36.836137774638644],[137.73415666689675,36.84219635977422],[137.73287055812978,36.84503580186083],[137.73510972793167,36.85099327891675],[137.73516111519336,36.855190747654945],[137.73244224431414,36.858012946140605],[137.73406530477007,36.86106017118999],[137.73283199699915,36.86706180226042],[137.7340661609246,36.86903153157999],[137.7320658879305,36.87368733260439],[137.724910921302,36.87790261331503],[137.7187956680857,36.886175612614466],[137.71602483797597,36.88780033321888],[137.71298347560696,36.89375808097071],[137.71418099935374,36.899924171063674],[137.71257185500713,36.90408055877083],[137.71784046666426,36.90780386535613],[137.71712827465024,36.91184997279805],[137.7179313620428,36.92264046768349],[137.7204566673414,36.9266896400149],[137.71337364467797,36.935052360178304],[137.71380727618487,36.93788597285942],[137.71139839172247,36.940663198048185],[137.7111550837402,36.94423483756776],[137.70676313930744,36.94436927901904],[137.698643385384,36.94226819831874],[137.6874642277919,36.94320069365716],[137.67984282688496,36.94835566698049],[137.6722261348283,36.95098094631368],[137.6666233333002,36.95018680177952],[137.66620642019018,36.95369317120293],[137.65773888494164,36.95982900000837],[137.6515363938895,36.9690203869813],[137.63767386525672,36.976548720646974],[137.6349847466488,36.97979794601844]]],[[[137.05318345035596,36.81017894630139],[137.0534952534033,36.81033374840382],[137.05326732832464,36.810657837988856],[137.05290345003425,36.81035922529804],[137.05318345035596,36.81017894630139]]],[[[137.07531914376352,36.802415000152166],[137.06442968927877,36.81167891924679],[137.0643765888086,36.81162741417387],[137.07526603070278,36.80236350497182],[137.07531914376352,36.802415000152166]]],[[[137.04536538300613,36.81435253174402],[137.0455312188907,36.81471086481463],[137.04514483776416,36.81472222505067],[137.04536538300613,36.81435253174402]]],[[[136.99551750972535,36.86210241439494],[136.99511936366775,36.86330222511765],[136.99503046658288,36.863283180174676],[136.9954286117411,36.86208335955945],[136.99551750972535,36.86210241439494]]],[[[136.99584610941054,36.86437001806195],[136.99546752270805,36.864248080784364],[136.99529704272436,36.8639449463023],[136.99587622590718,36.86399119843509],[136.99584610941054,36.86437001806195]]],[[[136.99555032418823,36.86463787393876],[136.99515797695915,36.865045008720244],[136.99504204895152,36.864976892269794],[136.99543428016796,36.86456975658905],[136.99555032418823,36.86463787393876]]],[[[137.00992313894176,36.89523561313308],[137.00987385159704,36.895246090234934],[137.00958865139523,36.894365883278965],[137.00963691261347,36.894355765905914],[137.00992313894176,36.89523561313308]]],[[[137.04001966257738,36.931368918740645],[137.03998785985186,36.93118621607107],[137.0401412581126,36.93121746841149],[137.04001966257738,36.931368918740645]]],[[[137.04004830058864,36.93189150488911],[137.040252192185,36.93201261299174],[137.04013302212138,36.93212705442005],[137.03989885934493,36.93200205405162],[137.04004830058864,36.93189150488911]]],[[[137.04146391712618,36.93240852333474],[137.0408295587372,36.93226979301659],[137.0407733070425,36.93200217096347],[137.0416919842977,36.93209064896433],[137.04146391712618,36.93240852333474]]],[[[137.04235885857452,36.93221900020677],[137.0425910887078,36.93234038709926],[137.04257914391246,36.9325776129665],[137.04219858589613,36.93237622508275],[137.04235885857452,36.93221900020677]]],[[[137.04204311289936,36.9327856486388],[137.04182636819235,36.932769378104354],[137.04185291797785,36.93266729695824],[137.04204311289936,36.9327856486388]]],[[[137.0412216856323,36.948905017852326],[137.04119712065062,36.948955639790995],[137.04051531762786,36.94877350459359],[137.04053987001907,36.94872288265498],[137.0412216856323,36.948905017852326]]],[[[137.41342308730566,36.86615766704273],[137.41374313893482,36.8664225047948],[137.41362444910908,36.86651510798589],[137.4130070303503,36.8660041707559],[137.41312574625624,36.865911640409934],[137.41342308730566,36.86615766704273]]],[[[137.41416464308384,36.88973699986269],[137.41401983065077,36.889783171056536],[137.4139278084217,36.88959708064078],[137.41407260736503,36.88955083840051],[137.41416464308384,36.88973699986269]]],[[[137.41666666673336,36.909019135424785],[137.41703852111095,36.90955435974598],[137.416823021965,36.909650892075035],[137.41666666673336,36.909019135424785]]],[[[137.41791949428932,36.91075450501643],[137.4177303371854,36.91084322493492],[137.4171031131183,36.90998022470768],[137.41729224414178,36.90989158572813],[137.41791949428932,36.91075450501643]]],[[[137.4199741124154,36.9158467749088],[137.41981391707873,36.91589994642544],[137.41937169884488,36.91503997331614],[137.41953177726975,36.9149868377724],[137.4199741124154,36.9158467749088]]],[[[137.14172416273993,36.77326722530228],[137.14174150526628,36.77303597273203],[137.14220302205194,36.7726650266697],[137.14244700362633,36.77270266689459],[137.14172416273993,36.77326722530228]]],[[[137.08373444908557,36.78697750500788],[137.08350428019844,36.786901532080094],[137.08316005209474,36.785672333311595],[137.0833573282781,36.785602613369974],[137.08373444908557,36.78697750500788]]],[[[137.0830585600046,36.786708468321194],[137.08262635482254,36.787036720868],[137.0826050058164,36.78702246841226],[137.08303953304812,36.786692586293896],[137.0830585600046,36.786708468321194]]],[[[137.58848367068492,36.97776738655568],[137.5885164455775,36.977841837830624],[137.58840033680622,36.97792877529281],[137.58834616074682,36.97780127930565],[137.58848367068492,36.97776738655568]]],[[[137.59027286560035,36.98244572099327],[137.5902803632482,36.982622945892274],[137.5901256420848,36.98252266698756],[137.59027286560035,36.98244572099327]]]]}},{"type":"Feature","id":"JP-16-capital","properties":{"Kind":"capital","PrefectureCode":"16","PrefectureName":"Toyama","CapitalName":"Toyama","CapitalNameJapanese":"富山市","PointKind":"prefecture-representative-point"},"geometry":{"type":"Point","coordinates":[137.211304,36.695267]}}]}
