{"type":"FeatureCollection","bbox":[138.180145525096,35.16838444128899,139.13371477321823,35.97138063990468],"displayBbox":[138.180145525096,35.16838444128899,139.13371477321823,35.97138063990468],"DataVersion":"2019-boundaries-v1","Attribution":{"BoundarySource":"MLIT National Land Numerical Information, via Fabio Crisci / piuccio","BoundarySourceURL":"https://github.com/piuccio/open-data-jp-prefectures-geojson/tree/513fb852832c99470e16b95a30ddd68bf3469dc0","BoundaryDate":"2019-01-01","CapitalSource":"Geospatial Information Authority of Japan (GSI), prefecture representative points","CapitalSourceURL":"https://maps.gsi.go.jp/","CapitalSourceRetrieved":"2026-10-04","Notice":"Simplified and enriched by Ashiato Kai. Modern geographic context, not historical immigration-era boundaries. See GEOLOCATION.md and THIRD_PARTY_NOTICES.md."},"features":[{"type":"Feature","id":"JP-19","bbox":[138.180145525096,35.16838444128899,139.13371477321823,35.97138063990468],"properties":{"Kind":"prefecture","PrefectureCode":"19","PrefectureName":"Yamanashi","PrefectureNameJapanese":"山梨県"},"geometry":{"type":"Polygon","coordinates":[[[138.72901128374383,35.909220613440596],[138.72410596581778,35.90798505376728],[138.7079701947688,35.909636441068926],[138.7056843843269,35.905950612830566],[138.7001616341522,35.90306283757997],[138.6968835801132,35.89906866688551],[138.69342527855383,35.89925033263677],[138.69193221779767,35.895849774747376],[138.68584557741156,35.89386561310761],[138.68562280185085,35.8897295051126],[138.68361197081583,35.888314504610776],[138.6826775617202,35.88146113462369],[138.67598758775705,35.86983808066293],[138.66907980518897,35.87142863962009],[138.65593069974204,35.875867532260884],[138.65195683484012,35.87395446832409],[138.64604741935295,35.87372030644701],[138.64252325594362,35.87477225243754],[138.63423411201472,35.87005308068518],[138.62833968912537,35.87332669387189],[138.62202691331152,35.870448359704085],[138.61785082955225,35.87104641426066],[138.61075613458797,35.87368946779475],[138.60676061041386,35.8784558647464],[138.60604535710763,35.8918541984126],[138.60766092081485,35.89602558591213],[138.60722980471178,35.899683081009414],[138.61063564162168,35.90433530632936],[138.61231705638716,35.90866891893552],[138.60776732770012,35.908208359927926],[138.60253846967476,35.909843919161574],[138.60051654999882,35.91380169429283],[138.59677766535708,35.91689005433261],[138.59242963661848,35.9182767207941],[138.58583408607433,35.91838338668401],[138.58098185512858,35.91705005361712],[138.57915352801297,35.91300394617525],[138.5766665886922,35.91144394618124],[138.57235296981378,35.9121161714242],[138.56441522698117,35.91733394620468],[138.55803355410535,35.9160042248152],[138.55384411181637,35.91899338693531],[138.54535800286965,35.91477727884842],[138.53935522696224,35.91425255860872],[138.5306460312894,35.915605612908735],[138.5293718547274,35.914548666687665],[138.52137102535255,35.918694224758724],[138.513060195172,35.92003117130156],[138.5106493636772,35.92234394611626],[138.50567128430237,35.91886727860208],[138.50275791164836,35.91219505365888],[138.4946492742447,35.91115172137489],[138.49600566772745,35.90807561279934],[138.49471204872214,35.902083108049055],[138.48978258130114,35.89645117118465],[138.48214282702986,35.89877341406185],[138.47165447467432,35.896190359697414],[138.46048749660076,35.90352425184278],[138.45422191990576,35.90320622458762],[138.45020994803076,35.909149000426055],[138.4490099736314,35.912786505392944],[138.44441885904314,35.91773289175961],[138.44441610891636,35.921729558972004],[138.44728194610502,35.92358483787001],[138.4475055769209,35.929248721351485],[138.45149282733223,35.932950359671395],[138.45433341065848,35.9383061983724],[138.45056289236368,35.945411467565236],[138.44628372201623,35.94762563981146],[138.4431612452953,35.951137585930894],[138.42419319076316,35.95897480164581],[138.416831530251,35.95898313476391],[138.41125652406936,35.96053286539944],[138.40841569432894,35.962486468076065],[138.401217081803,35.964518134604305],[138.39825513586584,35.964317027308994],[138.39068652426374,35.96633841368691],[138.38368041521903,35.9693453599005],[138.38177208801153,35.971249802036766],[138.37046041531596,35.97138063990468],[138.3694439952443,35.9672245318867],[138.36190286602448,35.96259564037655],[138.36162369577698,35.95855535964216],[138.3597056163212,35.95570202662731],[138.36007949417342,35.951013694426535],[138.35738114132664,35.95094146807435],[138.3521644754103,35.9479731351521],[138.34504666697012,35.941333134716444],[138.3457288593994,35.93524594574387],[138.34203243804666,35.925669279313865],[138.3393707784387,35.92459761298949],[138.33516880679508,35.92004289216578],[138.33152766496983,35.91437705355821],[138.3309101688693,35.910892332615106],[138.32632428024135,35.90317653167165],[138.32431817064708,35.902329864931346],[138.3127834112255,35.890974306219334],[138.30767866413908,35.887449306440374],[138.30324836631917,35.87942569364088],[138.29305581087704,35.86706236003994],[138.28364077779975,35.859315721343535],[138.27894966309657,35.86039125205468],[138.272841089145,35.86492930574292],[138.26783885937596,35.87041374839583],[138.26444053180512,35.87591125190278],[138.25884167290496,35.87894653215676],[138.24860360637138,35.88592455897128],[138.24189469538396,35.88452817083845],[138.2382349681693,35.88237899979106],[138.23259855987567,35.8761317746617],[138.2298599479783,35.869424558896355],[138.22678878117733,35.85740374828441],[138.22417405988506,35.856211251747936],[138.2189220883837,35.8468168023536],[138.21614569416852,35.84549125201971],[138.21265761335826,35.8370151354402],[138.20677955902954,35.83153541422803],[138.2047000782461,35.82813902739423],[138.20349313859754,35.82263208100579],[138.2058031390037,35.819690413881574],[138.2056928659331,35.81573430609342],[138.1933167187916,35.80383763969536],[138.18778503205363,35.799952919191924],[138.18560197095428,35.79535291930182],[138.18517418863792,35.79107989222331],[138.18930836578852,35.78777100043135],[138.19149169938248,35.784288775106916],[138.19963058368455,35.78101044137884],[138.20532725015255,35.782585441165224],[138.20872530522877,35.78061822455146],[138.21182085624753,35.77577627915201],[138.21521031110706,35.77446350458712],[138.2172919709477,35.771374891837866],[138.2212805838319,35.77067099966695],[138.22467861192843,35.76568877531679],[138.23216138773796,35.76355155895732],[138.236701946038,35.757714892328465],[138.22208306058485,35.750479612644085],[138.21924775627895,35.7455087746103],[138.2129149678516,35.741574333288895],[138.20716358033508,35.73559683822356],[138.20054997410205,35.73311905400118],[138.1974744231062,35.72703241361506],[138.18664413681756,35.72215353215984],[138.18626136197236,35.72026269406814],[138.18184830055873,35.71833797311899],[138.180145525096,35.71453769355975],[138.18085608304182,35.71123769426424],[138.18666717295173,35.704432694313425],[138.1911593899939,35.70189853159201],[138.19398299591865,35.6954935321009],[138.19347494191516,35.68796546823182],[138.19129771741575,35.685378251804934],[138.19311713404852,35.68110019841549],[138.1933021398819,35.67226463990124],[138.1992049156744,35.66930627866191],[138.20548905257783,35.66426433303258],[138.20816849537982,35.658420720939546],[138.20808461741126,35.65578877493209],[138.21102569368088,35.65177180192717],[138.21626403415792,35.64845708072977],[138.218670661322,35.64454930610566],[138.22809871568325,35.64593983785329],[138.23231535706816,35.64009733282569],[138.22832452735508,35.627210386949855],[138.22888369612576,35.625203135216566],[138.23608005225265,35.62227146765417],[138.2365970041485,35.618975080935286],[138.2340875619915,35.61497008060479],[138.2362542275506,35.61272897276393],[138.23567561633672,35.606186467831265],[138.2406356157411,35.60510786503602],[138.24357807966476,35.59152425214256],[138.23943335886247,35.58660591922785],[138.2387908562131,35.5834753602997],[138.24117058375555,35.580005640048284],[138.24046085588384,35.5763167478197],[138.24515391671991,35.569315639904914],[138.24444891118833,35.56346174766156],[138.2503411145509,35.55845202743916],[138.25204749719433,35.55569366732891],[138.25948221773024,35.55297866713181],[138.26007527925083,35.54289561314209],[138.25758136209026,35.53512061342565],[138.25734830098338,35.53084866733218],[138.26259163359703,35.52713394567513],[138.264680532081,35.519953666728384],[138.26897632909436,35.51412533321758],[138.2668952268333,35.51297033301449],[138.2602488331172,35.505899774954685],[138.25890994763608,35.493223945828504],[138.2597929703694,35.489168945890185],[138.25858797685373,35.48513172105214],[138.25788075179537,35.476017531883656],[138.25550878090553,35.47278225229917],[138.2534826721876,35.46596169407695],[138.24628544731559,35.463478081348455],[138.2440684700839,35.45897558595459],[138.24433930001874,35.45412336040482],[138.24830538308697,35.44718474817762],[138.2553342539727,35.444576973248786],[138.25523258111878,35.441210585999784],[138.25944367098873,35.4310833600091],[138.25926778158293,35.421887532183916],[138.25761552463678,35.41478505358742],[138.25809771683623,35.40739422536325],[138.25205571969582,35.40434117090837],[138.24644569391376,35.399798667374625],[138.24743983058374,35.394803386667036],[138.2459370301699,35.39106980173],[138.2401175226056,35.388135919137426],[138.23685442339297,35.384270918967786],[138.2328546427276,35.37665594641487],[138.2320170816231,35.371224838055866],[138.23729263334837,35.37001538660087],[138.24272875542783,35.36585122515396],[138.24675988286242,35.36714761317188],[138.25125571967578,35.36352900026321],[138.2510023608703,35.3583526131826],[138.25514119291176,35.348469559422654],[138.25392143972272,35.345420945820024],[138.2569794683278,35.33859097259534],[138.24873741919657,35.33160238684076],[138.25203522684433,35.32926125190528],[138.25153603116303,35.325943775185124],[138.25502325581863,35.324184333440314],[138.25480350198006,35.319817386563216],[138.25791655020873,35.31647127902636],[138.2618471343378,35.31509905387827],[138.26979022004264,35.31439735965046],[138.27554608258572,35.30996569396166],[138.27640744514758,35.30741874827669],[138.2852671981227,35.30427486499309],[138.28985224408586,35.30946927898407],[138.2940714791156,35.311971504981045],[138.2964523353071,35.316508135042454],[138.3029315297664,35.31663341420074],[138.31127966292615,35.31958810800484],[138.31346219162685,35.322610892179],[138.3189555510579,35.32412450514187],[138.32446199742333,35.32720808078835],[138.32803949422737,35.32767225237262],[138.33528505765935,35.326534467891406],[138.34337333261328,35.3179945048426],[138.34999469459956,35.31525033333628],[138.35761500642752,35.31775700018545],[138.35946605671325,35.31337783781703],[138.36467077783425,35.312025919360735],[138.36759852075522,35.309543694286106],[138.37059486396186,35.30476508094381],[138.37247869003954,35.29941094555875],[138.36944230901543,35.295776775278],[138.3667645011808,35.290320386976305],[138.36769447482027,35.286457612628794],[138.36670442287084,35.2805123600574],[138.3692660571828,35.276678468336684],[138.36703185523595,35.27018819782711],[138.37355569384022,35.26332294599723],[138.37821396889956,35.25393710761148],[138.38092647167935,35.252990440756264],[138.38250978030214,35.24955325168128],[138.38615228280162,35.24624353161374],[138.38671197138046,35.2395193600305],[138.39179691269737,35.22482494591458],[138.3906732808473,35.21990105429029],[138.39429325622882,35.20781327925948],[138.39958377357232,35.20022550490319],[138.40757433179,35.20293022494997],[138.41365763928866,35.20106633324474],[138.4190345778835,35.19763580185082],[138.4247253825704,35.18995997307434],[138.42748038910872,35.182667197932915],[138.43094175106103,35.18038691922101],[138.44054230888048,35.17807053182963],[138.44136036279053,35.179373865311675],[138.45683341083327,35.17821191874509],[138.4611300783905,35.17949135993837],[138.47221588815273,35.17610969410714],[138.47816977961168,35.17604913465988],[138.48425727615245,35.17419302658698],[138.48782866386182,35.16965194578074],[138.4914922437721,35.16838444128899],[138.49566557740457,35.17154944065419],[138.49629002616382,35.17439083786695],[138.50113364520166,35.17652333278562],[138.5062308559693,35.18606889166608],[138.51230946810756,35.188974720806755],[138.51422474707454,35.19404389161235],[138.5173328022671,35.1986086128972],[138.52424669303048,35.198976108260865],[138.52848280203978,35.197539441292236],[138.53319252911194,35.200861667332106],[138.5312164200019,35.21111305372449],[138.52738002636715,35.216803612896456],[138.5322750317673,35.22339083841649],[138.52951557718222,35.23107917136673],[138.52690252862885,35.232572224928276],[138.52415144043664,35.24151163985033],[138.52308394336933,35.24860302710806],[138.52056533082543,35.25074191890451],[138.52066588762068,35.25543469375617],[138.51424282704488,35.262230802109855],[138.51542230859275,35.2673080272437],[138.5203214400825,35.27088413459518],[138.51985644561853,35.27478274782561],[138.5216556158141,35.2834760812562],[138.5202092478586,35.288221918806585],[138.51610202338975,35.296083864978414],[138.51671313880036,35.298497468183655],[138.51275233475246,35.303299972915454],[138.5135873282926,35.304728585555836],[138.51209319104794,35.31355525157363],[138.52539980465735,35.32186610783464],[138.52677730163123,35.325926386793356],[138.53508620006812,35.330564721185],[138.53484564221264,35.34105610785315],[138.5306284441474,35.34557944143813],[138.52944871618536,35.34968750497444],[138.53102121855443,35.353532225431934],[138.52986819685987,35.359625278883584],[138.53070158241212,35.376130837668086],[138.5281710511532,35.37904694605976],[138.53174883304223,35.38430917073168],[138.5345916080164,35.38622638683836],[138.5358477171984,35.38988027925154],[138.53246389119568,35.397411667014865],[138.53124724966085,35.40212194627088],[138.53182700391312,35.40940891898646],[138.53829533096484,35.41417725217849],[138.5457461610565,35.41678502710738],[138.54690005239559,35.4191200268678],[138.55296897523806,35.42304725202911],[138.5556070303403,35.426129467900694],[138.55905732793337,35.4342128019793],[138.56332121879927,35.43455335994963],[138.5704804149393,35.43948197301472],[138.57742155606002,35.4408933330609],[138.58208325573776,35.44555527915287],[138.58850652405692,35.436795838357284],[138.5924207000553,35.436100558993644],[138.59771847043112,35.43180194620288],[138.6012961605894,35.419067775357576],[138.60913603110305,35.393176387180574],[138.61803661509782,35.395427775171754],[138.6225293897196,35.395441666999375],[138.63895494211692,35.39828277463039],[138.66338577193585,35.39828222514461],[138.67118296961837,35.39282999980469],[138.6805356158261,35.35767833298871],[138.68903005159564,35.35903610783015],[138.69865335866564,35.3596533332348],[138.70044450061323,35.362673891586894],[138.71314085586584,35.363613333288754],[138.71875282688154,35.36549389212945],[138.72480530472114,35.36524500025661],[138.73078141393114,35.36279861316552],[138.7468706360711,35.36633110789438],[138.78646405986854,35.374262532090256],[138.79945185481927,35.37666864034554],[138.8083743840706,35.375656973190814],[138.81557243811756,35.376435027054924],[138.8219405060496,35.37418169383017],[138.82893302184152,35.37796808066247],[138.83398141381122,35.38385474779841],[138.8437394941824,35.38659641379354],[138.8508261995695,35.39046002720852],[138.85634119309168,35.38799919790472],[138.86283263271991,35.390148901350756],[138.87091911802293,35.382980532125885],[138.87346360586082,35.381709252280245],[138.87929153018,35.38595417104818],[138.88794155585822,35.386353053650566],[138.89264938985752,35.39037055905413],[138.89833024624397,35.39183055893318],[138.90286697792874,35.396331946362295],[138.91093674393562,35.39773722519283],[138.91640291776048,35.40061361322773],[138.9157679118597,35.40431527942667],[138.9180663038169,35.411339170766155],[138.925663605591,35.41531083772503],[138.92672586320805,35.42002555873262],[138.93016978011133,35.42087055902914],[138.93064452682347,35.42632917135421],[138.92672758810772,35.43048722460577],[138.92740374788468,35.437644721027084],[138.93210961057014,35.44284889176299],[138.95448255502595,35.45983666702864],[138.9592523091468,35.4622291712393],[138.96923014335653,35.4635152791069],[138.9734634761586,35.46654502673164],[138.97876933863415,35.46374169422387],[138.98503518782377,35.46854669367502],[138.98882158185063,35.47364058594434],[138.9977966153216,35.47497364022138],[139.0081413621342,35.47455891875916],[139.0148583013696,35.47991089217396],[139.02095027203745,35.478793080736125],[139.02368555104738,35.48097310842229],[139.0275494423529,35.480967802422185],[139.0278744492465,35.48452783798939],[139.0306202719081,35.488701999897444],[139.0369350316265,35.49094864036749],[139.03938197090133,35.49492558634677],[139.04393338491786,35.49943972076653],[139.04601922210952,35.509663053707015],[139.05140233544944,35.510578026654684],[139.0533384436144,35.50882910787709],[139.06008124465382,35.50749936040722],[139.06855405982208,35.51089072093009],[139.074466303677,35.50993961322263],[139.08076053187312,35.51273602724592],[139.08578997422796,35.51208630573848],[139.0943045008521,35.52187130641573],[139.10411455304427,35.52689102709928],[139.10663569358246,35.532174359758926],[139.11392185510954,35.5384874413424],[139.11171383872272,35.5445352247209],[139.1133857719359,35.547864387231755],[139.1119607781675,35.54979355892567],[139.11521944192373,35.55371105432175],[139.12128586285235,35.55617327937341],[139.12841092072745,35.56264772091566],[139.12964177694653,35.567038278593714],[139.12701788616653,35.571711612800755],[139.12810902730985,35.57523161324838],[139.1277709991324,35.58100022458075],[139.12401211356826,35.582154107825886],[139.12143766481643,35.58691825197582],[139.12459688693684,35.592647413647285],[139.12933328070642,35.5945963326547],[139.13301613488682,35.606481585756626],[139.1324075231887,35.60891963972966],[139.1277853046481,35.61264491942757],[139.13371477321823,35.615810747967714],[139.12979450071566,35.617932414149664],[139.12603810627365,35.6230051984312],[139.12346505776623,35.62405961306075],[139.12438953295066,35.63075099985883],[139.1236209471491,35.63407989167371],[139.1269687553039,35.64190044115247],[139.11726377360435,35.65489653234914],[139.12006741907624,35.657497919393506],[139.11981022016562,35.660408198379685],[139.12389827468564,35.662918467913016],[139.12749247729607,35.667248747631675],[139.1300024770328,35.66761319789083],[139.131341387695,35.671994586081325],[139.1268511410674,35.67686291938827],[139.11934725007563,35.68051317134581],[139.11633586300968,35.68388510831113],[139.11261503225796,35.6849636940193],[139.10826335856723,35.68974174798336],[139.10562474678466,35.69101591914938],[139.09710752309377,35.69226589225718],[139.09224500570247,35.69057061264368],[139.0881274965867,35.69162838714038],[139.08166027210393,35.69551669414017],[139.07210941621668,35.69540836000783],[139.0706066670641,35.69762613493822],[139.06486053158835,35.69815474834303],[139.06311778216002,35.70046277473733],[139.05202221835077,35.704904440887276],[139.0506816727211,35.70736886478136],[139.04667277562817,35.709484134984905],[139.03871500579294,35.71128691865641],[139.03477778196918,35.71495883798002],[139.0289775225947,35.71676799964354],[139.02252836639104,35.72199133313359],[139.02089949361675,35.72728074790825],[139.01379481168124,35.73498933269161],[139.01038927424565,35.74229210829424],[139.00568985700136,35.74813291899909],[139.00515542228493,35.75045153221248],[138.99882819706374,35.75113819786958],[138.9924315558717,35.75551763992718],[138.98936214005084,35.7634895857758],[138.98439688680696,35.76776486475677],[138.98366160829664,35.77201680183401],[138.98532133591095,35.7744167749143],[138.98642522674288,35.78225289165766],[138.9850452530361,35.7852676134097],[138.9768758106702,35.78902899998843],[138.97710525290518,35.79275177507441],[138.97179610880346,35.79899819800846],[138.97032167300688,35.80458430632075],[138.97205946807003,35.81369735964546],[138.96977002616586,35.81585263978752],[138.96964697822557,35.82273013498781],[138.9704792216388,35.827357081264324],[138.9692967192683,35.831382918886675],[138.96219533065005,35.82960764008055],[138.95326199694364,35.83651738676804],[138.94733894863361,35.843297134655074],[138.9485475880009,35.84954435978443],[138.94393341119803,35.854818801746376],[138.9351467191458,35.85101546808943],[138.92637613485078,35.848918278755605],[138.92262333320036,35.85068661299687],[138.91094608339506,35.852727467898376],[138.90467438411565,35.84847497324148],[138.89916130974666,35.846720531727215],[138.8944090528356,35.84079302727645],[138.89203849478076,35.839845251557165],[138.88564795099217,35.84713330615722],[138.87970263277032,35.84692246819742],[138.87398066117862,35.85177694564959],[138.86943150535978,35.857249171012484],[138.86555399472115,35.85868027927154],[138.85881116670203,35.857574441407394],[138.8568558876891,35.8602555587471],[138.85662841766737,35.86461638663701],[138.8454486899052,35.86739086529627],[138.84172119337848,35.86491300013489],[138.83242669283766,35.86225041422529],[138.8285024381371,35.86573777467862],[138.81968241181391,35.86523322533316],[138.8136048635737,35.862367774853],[138.80840488997376,35.87001953237558],[138.80449341104213,35.86975583766184],[138.79697033661182,35.87213000019938],[138.79180752299885,35.87597530611555],[138.79278810598635,35.88193277507759],[138.79156031105958,35.88399777497739],[138.7911186638953,35.89080777515875],[138.78911505801364,35.89324166706933],[138.77715525291262,35.90041917070823],[138.77083992212476,35.90050030574457],[138.7656671080507,35.89910836026269],[138.75829011679548,35.902408359558194],[138.7535717508357,35.902866693643034],[138.74910697840437,35.901607532161904],[138.73918438415205,35.90584394604133],[138.73488797739833,35.9040008916279],[138.72901128374383,35.909220613440596]]]}},{"type":"Feature","id":"JP-19-capital","properties":{"Kind":"capital","PrefectureCode":"19","PrefectureName":"Yamanashi","CapitalName":"Kofu","CapitalNameJapanese":"甲府市","PointKind":"prefecture-representative-point"},"geometry":{"type":"Point","coordinates":[138.568451,35.664108]}}]}
