{"type":"FeatureCollection","bbox":[139.5206434106649,37.73391791867704,140.6464623607494,39.21549574783057],"displayBbox":[139.54384525305602,37.73391791867704,140.6464623607494,39.13335058576098],"DataVersion":"2019-boundaries-v1","Attribution":{"BoundarySource":"MLIT National Land Numerical Information, via Fabio Crisci / piuccio","BoundarySourceURL":"https://github.com/piuccio/open-data-jp-prefectures-geojson/tree/513fb852832c99470e16b95a30ddd68bf3469dc0","BoundaryDate":"2019-01-01","CapitalSource":"Geospatial Information Authority of Japan (GSI), prefecture representative points","CapitalSourceURL":"https://maps.gsi.go.jp/","CapitalSourceRetrieved":"2026-10-04","Notice":"Simplified and enriched by Ashiato Kai. Modern geographic context, not historical immigration-era boundaries. See GEOLOCATION.md and THIRD_PARTY_NOTICES.md."},"features":[{"type":"Feature","id":"JP-06","bbox":[139.5206434106649,37.73391791867704,140.6464623607494,39.21549574783057],"properties":{"Kind":"prefecture","PrefectureCode":"06","PrefectureName":"Yamagata","PrefectureNameJapanese":"山形県"},"geometry":{"type":"MultiPolygon","coordinates":[[[[140.54711644596728,38.88920780239823],[140.547472802328,38.89107166712381],[140.54117736724174,38.89597861282277],[140.53795224370117,38.90036861292123],[140.5354999741445,38.90071861287373],[140.52599596574134,38.89745200000982],[140.52424063569686,38.89962838724034],[140.5158218940652,38.9003556402007],[140.51142044110054,38.898983972632266],[140.50521289226128,38.894937332791756],[140.49978114088697,38.89506402658361],[140.49445377382267,38.89883066700173],[140.49229369579746,38.9022126134214],[140.49226418904118,38.90648508112167],[140.48514846972614,38.91139869439428],[140.48179002618883,38.916364801994064],[140.4798522443856,38.91467674843324],[140.47356464329368,38.915861748221175],[140.47162683541023,38.91485563977602],[140.4666417512159,38.91636455917711],[140.46171243757897,38.92035619827999],[140.4619746169351,38.92537813489304],[140.45935897473692,38.928011170878904],[140.45830833995797,38.933884504666196],[140.45172374765286,38.93750283788569],[140.451511166807,38.94359669443196],[140.44958250322998,38.945595026689205],[140.45355136160617,38.95181138708591],[140.45369267207923,38.95859472056998],[140.44983474687615,38.96332474803876],[140.4512280026703,38.97176777496287],[140.44644153015258,38.973108081372914],[140.44553224361823,38.980411973034165],[140.43773600461304,38.98209477455424],[140.43646369594285,38.98638338688386],[140.43244444855247,38.98939089157642],[140.43185856002458,38.99190200017722],[140.4205781450654,38.992342864931345],[140.4138728016885,38.99004455930901],[140.41084328069292,38.99384817085644],[140.40531933891646,38.99173541425802],[140.40190596568777,38.992374027339565],[140.39408949373524,38.99127797319994],[140.3896966670676,38.99221213498208],[140.386959663158,38.99441161320544],[140.38308211384856,38.994005251840974],[140.37457894925922,38.995711945649816],[140.37474031101658,38.99824250478781],[140.37051936367777,39.00432335983527],[140.3670079121855,39.00541227875374],[140.3640336707174,39.00949533304322],[140.36260328101662,39.01821366672738],[140.3607343324236,39.01989813469123],[140.3614301432865,39.02438258608754],[140.35783564210124,39.025326748330826],[140.35416564193088,39.02384844095286],[140.3442524383994,39.02582486482572],[140.3393790266208,39.0289137752506],[140.3320614400834,39.0305890809214],[140.32785386476417,39.03463105417984],[140.3187957456272,39.031261666792545],[140.31736577231266,39.02812250494969],[140.3186827763891,39.02503055931294],[140.3107225289216,39.01358922506273],[140.30327605694458,39.01535341432867],[140.30216352812442,39.01710286460559],[140.2943917767592,39.01811205412804],[140.29206085632347,39.02389735957553],[140.28663491636837,39.028092640263196],[140.2845157197247,39.02808683783735],[140.270288858644,39.03253577500607],[140.26621022002564,39.03128774803122],[140.26210846973015,39.03473358588633],[140.25717455336303,39.03319027910817],[140.25287649815198,39.02822502676361],[140.2487519968073,39.028171721247986],[140.24585861158573,39.030768946229955],[140.24002299626432,39.02972730557076],[140.23685800319436,39.02757010807409],[140.22750180286596,39.02705961331054],[140.22363620015062,39.02846322479803],[140.2219266932624,39.03105461317989],[140.2168421917138,39.033082414421926],[140.21406024598366,39.03252353163572],[140.20821963672688,39.034463837835915],[140.20060177735024,39.03570441392759],[140.2036262261695,39.03934717093523],[140.2024806355729,39.041621613047084],[140.20327031137583,39.048599387152024],[140.20476583717368,39.05349630630957],[140.20178608286153,39.05621491908329],[140.20114855975828,39.05967713539155],[140.19810713443678,39.06125658592276],[140.19382406013233,39.06033689243367],[140.18877372202974,39.06149413464664],[140.18792152985475,39.05856858607143],[140.18408428006558,39.05871802731514],[140.17492033680412,39.05731000015646],[140.1711567190074,39.05103169355789],[140.16250053207398,39.054260891926674],[140.15750108930388,39.04910453184874],[140.15080297018096,39.049179279000555],[140.14388977998942,39.061344278815454],[140.13743442296027,39.06548872082783],[140.12983907901037,39.06299846840466],[140.1247887552969,39.0638385053428],[140.1200823089515,39.06802544122121],[140.11686282685798,39.06823102714026],[140.1149033066423,39.077784332780766],[140.1027237216225,39.083101026691054],[140.09396917044091,39.08470605394126],[140.0835282492294,39.08510719833856],[140.0735142541796,39.08687250456251],[140.06397077812892,39.091455586406255],[140.0624568611953,39.09288502732221],[140.0669402199153,39.09770750509733],[140.0671449164048,39.09979138716284],[140.06287344965006,39.10694250469288],[140.061455357279,39.11338836038459],[140.0621274970864,39.13335058576098],[140.0077663941039,39.123040279385464],[139.99764083006028,39.11583922520015],[139.9944467187412,39.1055156403346],[139.94805224391598,39.117166693787965],[139.94565394267534,39.112830892231955],[139.90603953319794,39.11882830638126],[139.86958985688648,39.11825817127766],[139.86915652395453,39.11331958563045],[139.87322214038954,39.110310107825285],[139.87358243757944,39.10597344112148],[139.87771664081038,39.10529317144278],[139.87742360571485,39.09960483809283],[139.87936447489062,39.096711505031976],[139.87712180312883,39.0899024410449],[139.87345172471737,39.08791817058716],[139.87075999987417,39.080338892126235],[139.87230805417346,39.0771118377412],[139.86812639371817,39.07255886519954],[139.870327587848,39.070356865277176],[139.86978202312196,39.061552720981354],[139.867068469934,39.0521347210406],[139.8579088074456,39.02984864030253],[139.851589364058,39.012749775381906],[139.84810180305578,39.0058155860205],[139.84264119333648,38.990290945670665],[139.83685713434932,38.97853155898429],[139.8327635022339,38.973546973014436],[139.82601038866858,38.974861198185806],[139.81888697835143,38.96052469355982],[139.82944958503037,38.957973639771694],[139.83373980534782,38.963978946371356],[139.83753486434262,38.96286327891727],[139.83505730225272,38.957724559041196],[139.83152538309002,38.95465017086872],[139.82400639427976,38.95326110771401],[139.82176783421824,38.94923453174829],[139.81429086892854,38.95033641439409],[139.81155525267286,38.94488105401746],[139.81776724955898,38.94298705390946],[139.81600219244729,38.93684153221102],[139.81309280199127,38.93459422534329],[139.80792805393662,38.93615446815426],[139.80522542211565,38.93072602718445],[139.81025975408443,38.92920327890823],[139.80763761338517,38.92192286494833],[139.80792841816208,38.919873837907346],[139.8049399476206,38.91134522520201],[139.80361535686325,38.90239058565703],[139.79506730171465,38.878918747901935],[139.79287216631747,38.87087538688962],[139.7856047727421,38.85419205372034],[139.78440435767504,38.84978664014136],[139.7810291435802,38.84315274790106],[139.77740182883144,38.832345639839446],[139.7679051876744,38.812369775344905],[139.76131843070107,38.79925184669543],[139.7534002202441,38.78542574780005],[139.7464300517056,38.7751856398055],[139.73949732823917,38.77084569417349],[139.7334889108846,38.76831750474912],[139.7303288847703,38.76379519818988],[139.7254781970612,38.76240408098363],[139.7233895845617,38.75908191879557],[139.7192318289858,38.75744722470972],[139.70767946803312,38.75017953166014],[139.70872671866323,38.74496841366141],[139.7080453311272,38.7439431712404],[139.70579002568923,38.74447483784354],[139.7006071976641,38.73744405409985],[139.69666686128664,38.73417491863762],[139.69877549899013,38.731190198269076],[139.69634936373222,38.7284755047408],[139.69352374782272,38.72806494624035],[139.69255291798288,38.72597966662835],[139.69182883333406,38.724866359894634],[139.68526627801634,38.72231608132216],[139.68118219220446,38.7175958375779],[139.67091267188232,38.71879969435048],[139.66661116687192,38.71578319823607],[139.66741306086408,38.71400844103675],[139.66254922236874,38.711736026896176],[139.6635474446589,38.708351865446275],[139.66061652443307,38.704300586003285],[139.65227780807447,38.701520197898844],[139.65007919589823,38.69554827863021],[139.6460004673478,38.6922658017254],[139.64190775613815,38.6907894144],[139.64091016876932,38.68827710790225],[139.63524880698697,38.68466163992281],[139.62710500609126,38.68745966732985],[139.6259371078113,38.68553053160878],[139.62438097310348,38.684627532234856],[139.6237904152955,38.68270586538341],[139.6211303888564,38.678482251554726],[139.61473564163657,38.674302558816066],[139.61539953286217,38.672188946063045],[139.6132025286738,38.66996635975977],[139.6101570042424,38.66949136033804],[139.61123505755188,38.66431980171751],[139.60603085623904,38.661184279430984],[139.60591019509945,38.6594080536388],[139.60180919573781,38.65496261303423],[139.60033713415146,38.65113086529726],[139.5953282745803,38.64584325186462],[139.59607083040453,38.641430721050995],[139.59356352773466,38.63905877534228],[139.58959686100638,38.63311797261639],[139.5886539434248,38.628426919067124],[139.5849729697269,38.62177553231504],[139.58299802883607,38.62024463977838],[139.57695369615624,38.61162541408163],[139.57372194641073,38.609753693777975],[139.5740807516255,38.605023053870866],[139.56828182864353,38.60215163998623],[139.57010357991635,38.59957463985779],[139.56396413673554,38.595189360300765],[139.56539243821055,38.593220864851105],[139.56360044100757,38.58963299976318],[139.5596139172485,38.586506612790004],[139.55974189437302,38.58127027870046],[139.55754972763793,38.5754661981066],[139.55441221784963,38.57352027923753],[139.55191033719234,38.56886846760574],[139.54956605732775,38.56657546798351],[139.54797425370896,38.56595527931273],[139.54581693930038,38.56245061320527],[139.5482182487732,38.55977889198232],[139.54384525305602,38.55622650514914],[139.54781080372572,38.552947729853884],[139.55134177680168,38.55197125227153],[139.55659625201554,38.54524374780078],[139.5607265503901,38.54286708065132],[139.56508658867517,38.54256041363226],[139.57176108890314,38.53851374771136],[139.57713944213162,38.539620386871434],[139.5828294940859,38.5325337480341],[139.59547374801514,38.526820972909604],[139.59944603100962,38.52221902688666],[139.60797302223727,38.524923441163935],[139.6115752791759,38.52409261328353],[139.61389277633066,38.52625177489955],[139.6216761613258,38.52539674806155],[139.62685121920845,38.52213174768207],[139.63139208777466,38.52178036007558],[139.63268208790805,38.518504531858696],[139.6368873933386,38.515730386847906],[139.63601905293706,38.51307761344117],[139.64052050601663,38.510832053956165],[139.647357755656,38.510589531981395],[139.65306364467153,38.506967864975024],[139.66202703012345,38.5084561979952],[139.6671143060804,38.50649810770159],[139.67480713384225,38.50645200035956],[139.68288219235933,38.504958918919044],[139.6929114399111,38.50682972101487],[139.69590591432654,38.50387944108337],[139.70162263297823,38.50159999964035],[139.7025281972186,38.49916277484226],[139.71024355389693,38.49945941442047],[139.7174391698818,38.498138559447],[139.7207219714419,38.4963455046414],[139.72083224361324,38.49215802737109],[139.7246800523426,38.49016550473431],[139.72575758764265,38.48656386473061],[139.71604639432576,38.479025865151584],[139.7122702462749,38.47920700030289],[139.7120374972328,38.47172869412401],[139.71596530515478,38.46720702698275],[139.71514725034535,38.45943844123116],[139.72013286603897,38.45069208107475],[139.71782758797292,38.447710720573355],[139.71845452695493,38.44527183832474],[139.71650868992413,38.43213191855324],[139.7185551098305,38.42921886515853],[139.71704092130153,38.42098864031357],[139.7136700518315,38.416873107907634],[139.71204338509426,38.41270091911218],[139.70588527918233,38.40757846797197],[139.70338917037395,38.40021825177098],[139.70480138837343,38.39356133328897],[139.70952810633707,38.387487694401614],[139.71232674438386,38.38693741363079],[139.72206321674412,38.394024558786384],[139.72580547294433,38.39163650532049],[139.72623547298872,38.38735344090861],[139.73111885914807,38.381447333127994],[139.72894494235527,38.37683846772114],[139.73287833956374,38.37141708103354],[139.74380647209102,38.36464455919912],[139.74621788634647,38.36192650490432],[139.75228321729674,38.35896953221817],[139.76162858619034,38.361061413753305],[139.77072172492774,38.35290558622387],[139.77501622601812,38.35396861276132],[139.78393963660506,38.35296941380744],[139.78856442271,38.351132467589366],[139.78964330699307,38.3487105321654],[139.79815700444226,38.351573801789584],[139.80357233509528,38.35506683786434],[139.8164913364061,38.35601233290288],[139.81997360579737,38.351902612815366],[139.82545116683798,38.350340386999335],[139.82723561603098,38.345002639959944],[139.83688099875917,38.34393066696674],[139.83872352796845,38.3427856672248],[139.8483783400884,38.342798693904626],[139.8477299999396,38.336579837889246],[139.85209228293263,38.333705666683215],[139.8568934108023,38.33227897319608],[139.8653201689907,38.325772585936136],[139.86687963658608,38.32162591900101],[139.87503360611606,38.316649251561785],[139.8793255774135,38.30342927863836],[139.88852345029704,38.300958973178126],[139.89888800287906,38.293152305634464],[139.89982438418804,38.28744425195072],[139.8980249163169,38.278035134613845],[139.89990466936501,38.27580569367785],[139.89535961085744,38.27226710784083],[139.88868538312397,38.269419359615824],[139.88416394261196,38.265017440802296],[139.87659830057123,38.26178941425013],[139.87514771659391,38.25416361296044],[139.87569494236777,38.25212777537661],[139.86857655026768,38.247985586165896],[139.8639184442809,38.238862026961044],[139.8638545528454,38.23489369378899],[139.8601853305886,38.231066225026325],[139.8469751881545,38.22455794559278],[139.83862483816586,38.223548251550596],[139.8366136959654,38.22130186468934],[139.83113530485048,38.21996661336857],[139.81928102529912,38.212792775366324],[139.8109537222366,38.211515837885656],[139.80688616056796,38.20704780181467],[139.80229642014376,38.2065664405888],[139.8001941631302,38.20238089236432],[139.7941110507844,38.19873786466076],[139.79049741922063,38.19800341442607],[139.78648041473946,38.19417233308678],[139.78117119329602,38.19424094596292],[139.77605894856174,38.198151504888074],[139.77007666730447,38.19722541362199],[139.7637413355942,38.19895791887291],[139.75824488969,38.19303600011136],[139.7535298314366,38.19354266736025],[139.74690394316247,38.19636794602394],[139.74308335871012,38.20010433324842],[139.7386519457308,38.20210017078631],[139.7313765886587,38.20083322477353],[139.72478902679222,38.20281989192455],[139.72364958486048,38.204934892331494],[139.71839119309914,38.204502134965594],[139.7132239170502,38.206644359649545],[139.70887610864554,38.204312135196915],[139.6986362776422,38.202945748447576],[139.70260549934437,38.19947769374062],[139.6983673929409,38.19505910779162],[139.6983643316487,38.19131077487242],[139.6963720878017,38.186586081282655],[139.69234510983904,38.18249358591032],[139.6878983921971,38.182385838135986],[139.68750977985258,38.17806389243475],[139.68245555128271,38.169609468402314],[139.68552946821046,38.16649391915911],[139.68472697796767,38.159420891560956],[139.69052116691842,38.15528422508697],[139.69156671872918,38.1452350809343],[139.68836863780245,38.134655108346635],[139.69055308655572,38.11927208064208],[139.69389282689247,38.115885440660634],[139.6921466933153,38.11300100009612],[139.686353061045,38.111042107607204],[139.6826705063388,38.108074081353834],[139.67478708165856,38.09157689166028],[139.67326260668403,38.08691746816669],[139.67234396899903,38.07693277482775],[139.67922488971692,38.07665583759689],[139.68180905294548,38.07538222490979],[139.6864657721777,38.07688610810743],[139.69097357986686,38.07374389216693],[139.69156552532877,38.071192225041216],[139.68655046673075,38.065980305746564],[139.69272552486314,38.0570286402596],[139.69027438395574,38.052431171061755],[139.68205263342236,38.04952644089258],[139.6801490006759,38.04326508111865],[139.67483228338324,38.04058453215049],[139.66267383872673,38.04001483771464],[139.65755936367373,38.037398720674446],[139.65635572004055,38.03308594625946],[139.6567648899877,38.0285176402769],[139.65341678325797,38.02514097287764],[139.65239066130005,38.020564612566886],[139.65440817070055,38.01474405369515],[139.65301258116574,38.00934464014307],[139.65262644555412,38.00296189167801],[139.65526814470923,38.000833837611594],[139.6542939433109,37.996507441165534],[139.6503519710667,37.99641272097034],[139.6435130217086,37.994548865238016],[139.64496997378535,37.99188774792128],[139.64007435774545,37.98711774828553],[139.6393401952938,37.98436694607773],[139.64425577178645,37.97977583778476],[139.64077213992243,37.97488641357717],[139.63860654995233,37.96865419813281],[139.64291547257108,37.967112531718044],[139.6452468606542,37.9626270002359],[139.6422960051566,37.95931310821345],[139.64204489015958,37.95518227923884],[139.64010097318146,37.95233897276546],[139.64299625237516,37.94683425219904],[139.63938564163414,37.93471653244205],[139.63178613472235,37.930304864977586],[139.63030221827285,37.92606794567922],[139.62704552493108,37.9243379459395],[139.62510992218517,37.917537694409134],[139.62861328067845,37.91244408092962],[139.626344357706,37.90917046774297],[139.63197405975507,37.89896717079836],[139.6293170820178,37.89365746821761],[139.6318398566242,37.88927358620708],[139.6379534757724,37.88377525172655],[139.63845763930863,37.880022774731344],[139.65044518759544,37.87587944068372],[139.65148741910912,37.87398444142889],[139.6567021919526,37.87174027859106],[139.65713102467714,37.86353777534811],[139.66905247729005,37.85666197267193],[139.67900335881802,37.851529720720066],[139.68082919571088,37.84695086479064],[139.68729980524188,37.846830558883255],[139.69200374787476,37.84877638692075],[139.69597658934822,37.848530559038124],[139.70616810607328,37.85592830574677],[139.71563652380655,37.85415827898146],[139.71648011666412,37.85134827889999],[139.71599868978774,37.8470196944034],[139.71883230876415,37.845063026837295],[139.71927258086498,37.84419025187867],[139.71938425418,37.84259497327946],[139.71921313927498,37.84195802664169],[139.71991758812624,37.84132746788839],[139.72085647224844,37.83968664042618],[139.72407869007952,37.83691774835546],[139.72746260691383,37.835293865019935],[139.72755175131238,37.834005802026184],[139.72932674413403,37.83126138680359],[139.73040564190694,37.83054138687555],[139.73284871589556,37.83068969407418],[139.73622291825313,37.82810913532836],[139.73845844400205,37.823150000172404],[139.74130678308165,37.8202927748917],[139.75542194566628,37.82213191905288],[139.75789642038353,37.82461969384383],[139.77317133608835,37.830042414226114],[139.77642775603613,37.82994602668782],[139.78241474704305,37.8320404676935],[139.78830977967266,37.82649574798046],[139.78886700410897,37.823316026713314],[139.79326924757777,37.820837135425506],[139.79495674355894,37.81764158609036],[139.79923761272573,37.8168885315805],[139.8025837481415,37.814114080800266],[139.80412900105262,37.80627299979915],[139.80823819683542,37.80364935993009],[139.8132963041811,37.80399963957177],[139.8158949680784,37.807434081217934],[139.82161394312902,37.811993775292535],[139.82730233493487,37.81284377492034],[139.83085627759522,37.815128775072935],[139.83833358013067,37.814698197663745],[139.84520063600064,37.81986958631239],[139.85059014262106,37.8212990002487],[139.85598549933138,37.82588289238163],[139.85857858563327,37.82653733263186],[139.86368335880002,37.82479372075369],[139.87200758797985,37.81716289225375],[139.87679372235243,37.816571775067416],[139.87616871601347,37.813247612787166],[139.88007180337104,37.810105946332385],[139.88655185488426,37.8091637212288],[139.88923413684597,37.811059838340896],[139.89807949437318,37.81017538658489],[139.90251455320413,37.81370122543126],[139.90747769124255,37.815407027112656],[139.9100885598392,37.814094532236936],[139.916361672853,37.814392027070426],[139.92292620038393,37.81331786512743],[139.9254648381318,37.81415646764691],[139.92795211379905,37.82162977539389],[139.93016325622932,37.825524505351666],[139.92817380028077,37.82771086516436],[139.93259856007558,37.82939391939391],[139.93726416281095,37.828195305668885],[139.94087805427887,37.821738918916026],[139.94834450109795,37.818043919391414],[139.94987588826166,37.816369198279915],[139.95791902714143,37.814861386843575],[139.9598981705642,37.808951386797105],[139.96213038860662,37.8058025050816],[139.95936422777697,37.797952802280065],[139.9601458879224,37.79564753230784],[139.968816199608,37.78746755888079],[139.9672597798151,37.78380755917158],[139.97199282720726,37.77886950502369],[139.9733870039072,37.77577810797334],[139.97875788556803,37.77375200015473],[139.97803977961223,37.7662409190832],[139.98311119332698,37.76436535957373],[139.98649871644272,37.76040813482763],[139.99256875534388,37.758699531758054],[139.9985465885543,37.761358972738435],[140.0019943842335,37.7594000811489],[140.01023474713588,37.763990333287325],[140.01291894915028,37.76178505443676],[140.01928233521164,37.76195977472389],[140.02185958535165,37.765295585922615],[140.03087411165097,37.76768805416043],[140.0374980537922,37.76797997319727],[140.0447028662444,37.773991612822726],[140.04848208817793,37.7790493325607],[140.0525218553994,37.77879238725893],[140.05448518784124,37.775035748201276],[140.05355708209368,37.77080744081081],[140.05892574602638,37.77115186496667],[140.06460411219007,37.76779717070292],[140.06717275042217,37.764134107902805],[140.06904272424242,37.75790250489672],[140.07732946788076,37.75732027930752],[140.08032116698837,37.75608805432029],[140.0867837482714,37.75799525197937],[140.0911365236317,37.751502252027365],[140.0962157200795,37.74693422483466],[140.09649016888625,37.74376258577479],[140.10228325616742,37.73761264031117],[140.1070835800432,37.73818346789278],[140.1153711672456,37.734356000029436],[140.12737105063354,37.73391791867704],[140.13270391705214,37.73811925180206],[140.14008403435082,37.73942727884588],[140.14399910517466,37.74625250544881],[140.14600975364726,37.75272022455874],[140.15402180296394,37.75339769374864],[140.16156082956866,37.756716252353215],[140.16693230927876,37.757244864858706],[140.17140486444305,37.755990666735954],[140.17826163386735,37.75650258602559],[140.1915626330092,37.75310450486904],[140.1995985863058,37.752811135225784],[140.20438778197058,37.74769838687109],[140.20740975405693,37.748976414330116],[140.215546809138,37.74819553209818],[140.21868267226762,37.74618246804653],[140.2355073276011,37.745886000238784],[140.23892603111153,37.748136532075364],[140.24042722443687,37.75352705403037],[140.24437124533677,37.758413972726714],[140.24929413691495,37.7606453328159],[140.25495014323462,37.76461780197002],[140.25541158177919,37.76817308102295],[140.26048031101766,37.77096527902444],[140.26617525258587,37.77917691937938],[140.27628797700856,37.7817680001931],[140.27860586267047,37.78819964030123],[140.28233900064447,37.791969359998006],[140.28221131040368,37.798229054227534],[140.28644885922756,37.80083572119162],[140.29033641979004,37.80125627925395],[140.2921928273372,37.80409433278726],[140.29880182904128,37.80780819828976],[140.29314985708027,37.81170680162762],[140.29058399505539,37.81510402662957],[140.2865842539602,37.81523125192081],[140.27830805397355,37.82107322544903],[140.2750110889906,37.8208804413793],[140.26878099864427,37.82409100039939],[140.26211596557937,37.834416305668015],[140.26218491570137,37.84039186539235],[140.26730335856325,37.847679919093025],[140.2653000521558,37.85481769428122],[140.26562871569274,37.8625479734103],[140.26993272441575,37.866681054287255],[140.2685632808708,37.871075774927135],[140.26993250318253,37.87429494585513],[140.2649157718455,37.879517720866204],[140.2649394159214,37.8862307750303],[140.27072007816912,37.890737440580494],[140.2670567185927,37.89672327865645],[140.2646436963496,37.90621605362804],[140.2645676128052,37.91208691877631],[140.26658267155312,37.91708830588067],[140.27219802941556,37.920048305684816],[140.27665756239662,37.926633585971274],[140.27934124460285,37.93371969420855],[140.2785854471607,37.94253583815845],[140.2752887807527,37.947246639920536],[140.27807466911077,37.952628585940545],[140.2762782751223,37.9565880266162],[140.27335933926213,37.956789972978925],[140.27131769115863,37.966640224866524],[140.27329775638646,37.97080161280422],[140.27723671859974,37.975577747615034],[140.28000258085444,37.976644413708755],[140.27500144016437,37.98386827919779],[140.2768787551505,37.994179359889586],[140.27914461683065,37.9955126938558],[140.28273691287825,38.00146019832954],[140.28954452715823,38.007095468081445],[140.2867003627316,38.01085961288089],[140.28174505778827,38.020028693969095],[140.28119367085128,38.02588172106465],[140.27658805379576,38.02857222462853],[140.2759205841677,38.03597746808572],[140.2786828662214,38.04013772107902],[140.27910953337835,38.04333408070329],[140.28187596580324,38.044122694406894],[140.282046809113,38.049098774588856],[140.27709036292993,38.05616066678141],[140.2819260049812,38.05951953210075],[140.28908472088324,38.059338720705455],[140.29211891115892,38.055811252287526],[140.2966081451499,38.05715183838669],[140.30053097262635,38.054013531799114],[140.30447686141804,38.054016864686616],[140.30843055812386,38.0576768383155],[140.31499955888262,38.05839158620279],[140.317595422291,38.05605717100167],[140.32497552520044,38.05501469397302],[140.33170369606876,38.0562419187296],[140.3403757722242,38.05518361273357],[140.34459752265764,38.053373612901964],[140.35004538268834,38.053987532398764],[140.3515159657893,38.05702136024763],[140.35564411208622,38.05847553162056],[140.36454147920597,38.05631305420417],[140.37498083020125,38.05743917088108],[140.3769886377155,38.06041355893865],[140.38239927390748,38.06435653212833],[140.38016422839644,38.06947091904772],[140.38393788622454,38.07101946797411],[140.3918371731471,38.07101083807976],[140.39655252907608,38.06935805413093],[140.4034456679833,38.07072438692097],[140.40418649800858,38.07373158584409],[140.40961241188336,38.076742053802775],[140.41326883319016,38.077330919086705],[140.41767416313223,38.0803352788501],[140.42066477316087,38.08525853195573],[140.4182592215859,38.09659144124208],[140.41903700385467,38.0991483334289],[140.4174058881713,38.102919386820304],[140.4256101945549,38.11491586537494],[140.42386963677438,38.119387720866655],[140.42668358038304,38.12374572128806],[140.43104061043584,38.126857053610195],[140.44109574587208,38.12980366700566],[140.44568525337183,38.129854774578234],[140.44262771669582,38.135760531623305],[140.44274386503741,38.13900436016314],[140.44591172514606,38.14360486457292],[140.44996732763013,38.147018720737435],[140.45200933905983,38.15106005367858],[140.467658197368,38.15697583816444],[140.46700208797608,38.16077438742809],[140.46914907906682,38.1630015863542],[140.46964827474812,38.17064153218104],[140.47520503188673,38.175866747952114],[140.48015069969506,38.182135027109894],[140.4776298307521,38.19183799972399],[140.47901902700653,38.19453630580591],[140.47730372218905,38.20078680176954],[140.47232839204173,38.20620150469574],[140.4732995330471,38.20992563955667],[140.47094783377554,38.21456810813174],[140.47235286619184,38.22080753164232],[140.4742884437568,38.22447944107341],[140.4693322826588,38.228327505210245],[140.46850005183603,38.23324608094191],[140.47106647233988,38.23478383800375],[140.46920702958084,38.242924919349605],[140.4696142803748,38.2476004407078],[140.47253321713436,38.25223041410237],[140.46949817070413,38.25640817060065],[140.4728057198082,38.261396198275975],[140.47118016912952,38.26936144057805],[140.47300630369807,38.27181919779781],[140.4797614137583,38.27362333315034],[140.48787902729532,38.274504693936535],[140.4905924123101,38.276415505071554],[140.49198605661127,38.28011602733284],[140.49694834029378,38.28314350506878],[140.49527610940504,38.28514517111279],[140.4925280294451,38.29276291897361],[140.49259358012966,38.302687586163245],[140.50069399503195,38.30381363988761],[140.50427961091543,38.30807361330665],[140.5043123867074,38.3141449733119],[140.50942302165515,38.31324244068617],[140.511735550955,38.311164666815955],[140.52028347570194,38.309515197768235],[140.523914136828,38.316801252276036],[140.52974202337577,38.32069758572504],[140.53066094704513,38.32520422519491],[140.5280064721211,38.32731450506043],[140.52510891134727,38.33268474820261],[140.52377725012002,38.34271553179639],[140.52166805393756,38.34966717070341],[140.52275224422078,38.35318158636119],[140.52631258106078,38.3575259998251],[140.53374216556858,38.36208508056205],[140.54086341121752,38.36208533327158],[140.5454035279505,38.364074468162244],[140.54955413661423,38.372206612944865],[140.5525778084192,38.3765296396312],[140.5565542795564,38.377596559333824],[140.56368444917803,38.37744177521779],[140.56757143957032,38.3853311713965],[140.57143593971693,38.38736586504268],[140.57822608286745,38.39295663993704],[140.5745309988066,38.396681080567475],[140.57371649811796,38.40772102670405],[140.57130116731503,38.41057213479621],[140.57203891086715,38.41515961342549],[140.57830652362725,38.42035038696082],[140.5805346173787,38.426967559005675],[140.58169736703996,38.43344419759171],[140.5806267826,38.4374355857837],[140.58532516202672,38.440418865438346],[140.5897672238783,38.43916746780445],[140.59235752318125,38.441721054083416],[140.59776461694355,38.436528838035485],[140.59919766504026,38.43927713473204],[140.60443191989725,38.44404430599997],[140.60961863838952,38.4464420541575],[140.61258005192792,38.45270172140738],[140.6196546173668,38.45580333295749],[140.60821022002574,38.45840255893103],[140.6062912844153,38.46329033288259],[140.60815683536975,38.46882446757519],[140.6057834498464,38.47481889237804],[140.6027155772622,38.478856387012684],[140.6043525547267,38.48204553227555],[140.59900411205024,38.48468417103771],[140.59765130956032,38.487369170750696],[140.58944752298487,38.49038974798856],[140.58371963655202,38.491011999704085],[140.57368863802026,38.49491122537279],[140.57335360638388,38.49718205400865],[140.56740849500613,38.50130261272545],[140.56933379961526,38.50434817133112],[140.56346116729912,38.51064066743288],[140.56601868991072,38.513509531739544],[140.57030208797107,38.51530422510996],[140.5677839691549,38.51917089172332],[140.56840396896803,38.52245561333592],[140.57195569390024,38.52563808113257],[140.56834561555775,38.527790333257315],[140.56252442266407,38.52669563979197],[140.55837072572842,38.52979258565938],[140.55442425417607,38.53512289170811],[140.55408450109894,38.54075897264852],[140.5561145011834,38.54280146791348],[140.56022152959997,38.54291477529671],[140.5647371344113,38.54585864036403],[140.56633961118416,38.551658054375764],[140.56985185497922,38.55517802694442],[140.56663180271562,38.55956250520552],[140.578643307143,38.56807130584616],[140.5751143323606,38.57217217120876],[140.57549489037694,38.5746524411573],[140.5710042282626,38.58025689204197],[140.57199586301874,38.58661689215592],[140.5678880027292,38.59000633262622],[140.56954994807177,38.594217721071004],[140.55844586318608,38.59763666739832],[140.55827250267396,38.60227499999132],[140.56228308689504,38.604907467605585],[140.56034386527722,38.60945497316851],[140.55221788624647,38.61334391868695],[140.54687108932933,38.62195613506765],[140.543264085769,38.62404838712342],[140.54241708178301,38.629271720613474],[140.53764002606647,38.633839531968874],[140.54013752342803,38.63822894570933],[140.54413805412798,38.64813725243232],[140.5466547466193,38.64970333274266],[140.55454016869385,38.647120531987014],[140.56275221824035,38.64806244142858],[140.5658319969492,38.645366864789025],[140.569403774065,38.638212694060655],[140.57340744519752,38.63762766708322],[140.57594358013216,38.63921291914096],[140.57978644618765,38.63567458601341],[140.58994102505835,38.63381813529878],[140.59643247727706,38.63884117088338],[140.60201977988902,38.640603919435364],[140.6022625293923,38.64320586495876],[140.6057980800174,38.64878055907559],[140.60446610942347,38.651180559135526],[140.6060563554165,38.65548858602949],[140.60987749744857,38.660692999582295],[140.61243527906493,38.66225744132788],[140.61436941591592,38.669333801813536],[140.61889169909273,38.67295600031923],[140.6195291700352,38.67765986471102],[140.62199194637128,38.68123483801742],[140.62131496821132,38.68489177463573],[140.62444275003293,38.6876742518653],[140.62352518793716,38.692870639868204],[140.62072846994295,38.69629091899077],[140.62363488993833,38.699784775247224],[140.61636005177502,38.70048202682415],[140.6070021400368,38.703300108213455],[140.60910433229913,38.70956230615553],[140.6078779124358,38.71157758613674],[140.60703894928815,38.72131310791366],[140.61530260732957,38.726742504862784],[140.62088988296182,38.73154855921871],[140.6220673671154,38.736413531759126],[140.62035564159964,38.73865825217666],[140.62303622564139,38.741687107673954],[140.62871457831523,38.74412153198318],[140.6313393000687,38.74711400001115],[140.63128566809917,38.75226313493579],[140.63635953336586,38.7621566936765],[140.64339153029493,38.76484525200681],[140.6464623607494,38.76951630643242],[140.64344703015638,38.7718432788443],[140.64159891076122,38.775756891867104],[140.63684605670016,38.77743025230433],[140.627434863728,38.7738758923586],[140.62045172516707,38.77566146840212],[140.61359133597148,38.77865041378561],[140.61301574558024,38.78141402683593],[140.60352616140324,38.78370519813643],[140.60269108872285,38.78941353240867],[140.59910297002614,38.79167827892945],[140.60005044087518,38.794914667378066],[140.5988767833369,38.799735504789794],[140.5957400262813,38.802194414041026],[140.59774834011387,38.80873302670784],[140.595141894383,38.81092274818633],[140.5972401952788,38.81608386477859],[140.5994065892428,38.81739077486441],[140.59854844355584,38.82596466663608],[140.59294027217584,38.82778805377569],[140.59072824930934,38.83604419798138],[140.5862778858159,38.83633508099922],[140.58002581064272,38.841381278623146],[140.57352072560104,38.84248355876929],[140.5692931133865,38.846802505231494],[140.56304136196934,38.848542026993016],[140.55913131026182,38.84725094587452],[140.5572531912818,38.85030374761993],[140.55655150514792,38.85562572055062],[140.5530172504458,38.859130197800425],[140.54753408572958,38.86116689243818],[140.54132228309697,38.86130938731844],[140.5392697280156,38.86394105363678],[140.53878182871847,38.87138686461219],[140.54157875535532,38.87629735993528],[140.54769516240185,38.88118925188252],[140.54555564197938,38.885988108064794],[140.54711644596728,38.88920780239823]]],[[[139.5425197800639,38.5568353326845],[139.54224922172432,38.557268197968995],[139.54210654967756,38.55721277544927],[139.54238680900414,38.556785171198726],[139.5425197800639,38.5568353326845]]],[[[139.53979153015507,38.558005748166806],[139.53941922161982,38.55790422460035],[139.5393795327393,38.55781202700348],[139.53979564185545,38.557974837568736],[139.53979153015507,38.558005748166806]]],[[[139.54127114065068,38.56112708095009],[139.54090724976982,38.560981531972175],[139.54110724999964,38.560824585885996],[139.54127114065068,38.56112708095009]]],[[[139.5459653310353,38.563680386640556],[139.54575477276467,38.56367122524688],[139.5457703373313,38.56345400030193],[139.545991166759,38.56358205386874],[139.5459653310353,38.563680386640556]]],[[[139.54426433173364,38.563765333003744],[139.54404583694588,38.56370808126297],[139.54418175058743,38.56344813492353],[139.5443835539579,38.563651027373055],[139.54426433173364,38.563765333003744]]],[[[139.54656800271118,38.564144694022445],[139.54630147873036,38.56405153235238],[139.54638936407798,38.56388422517688],[139.5465733069126,38.56401955875566],[139.54656800271118,38.564144694022445]]],[[[139.54697847038017,38.564768667040425],[139.54674691293974,38.56451491882848],[139.54680552535478,38.56442127871907],[139.5470673926461,38.56471761342715],[139.54697847038017,38.564768667040425]]],[[[139.54914291821115,38.566945333060744],[139.54883525294463,38.56681263989145],[139.54899841784277,38.566695558952915],[139.54914291821115,38.566945333060744]]],[[[139.54683347628395,38.56779919797464],[139.54694966329635,38.567161666777565],[139.54735241208425,38.56716441420639],[139.5472008043737,38.56752194598107],[139.54683347628395,38.56779919797464]]],[[[139.5403269388372,38.56659766684891],[139.54080910495634,38.56237277508353],[139.54103394266235,38.56240027904971],[139.5403269388372,38.56659766684891]]],[[[139.55010022044883,38.56833033307845],[139.55041924775014,38.567825198274306],[139.55064369604975,38.56807766675098],[139.55010022044883,38.56833033307845]]],[[[139.55009121913452,38.56993925169519],[139.54997505820245,38.56989813469124],[139.55022577210173,38.56972341440411],[139.55022997373442,38.569833333141844],[139.55009121913452,38.56993925169519]]],[[[139.55275758759262,38.573907585766506],[139.55270703040514,38.57378841390425],[139.5529070297357,38.57380925209537],[139.55289730176912,38.573898972959284],[139.55275758759262,38.573907585766506]]],[[[139.55366027220384,38.57499619801615],[139.5526570298981,38.57483564025267],[139.5533334109083,38.57425508110714],[139.55366027220384,38.57499619801615]]],[[[139.5535275880278,38.57540591924783],[139.55352924817635,38.57550258557592],[139.55332730181362,38.57558064043428],[139.5532536959014,38.5754973056562],[139.55338535664896,38.57537646824949],[139.5535275880278,38.57540591924783]]],[[[139.55476007831498,38.57774869364732],[139.55478119259806,38.577910360274984],[139.55464786001085,38.57788646798616],[139.55476007831498,38.57774869364732]]],[[[139.55724121880723,38.58103727874749],[139.55699233502833,38.58116255880509],[139.5569787156952,38.58099644143266],[139.55724121880723,38.58103727874749]]],[[[139.55791705572756,38.58289644091809],[139.55774344970052,38.58275033256183],[139.55801844439577,38.582713945991884],[139.55791705572756,38.58289644091809]]],[[[139.55743399478308,38.58385866694397],[139.55747871626977,38.58396283811453],[139.55735038930914,38.58405394573305],[139.5572464978277,38.58390838686262],[139.55743399478308,38.58385866694397]]],[[[139.55799566816563,38.58542561330148],[139.5580984435884,38.58554089199862],[139.55801399544964,38.58564894644178],[139.55791011655867,38.585552000424514],[139.55799566816563,38.58542561330148]]],[[[139.5610898306312,38.58931950509111],[139.5611831649711,38.58945477481808],[139.5609390008343,38.58949977509462],[139.56086732756523,38.58935338704924],[139.5610898306312,38.58931950509111]]],[[[139.5615642796679,38.58941561294023],[139.5615463291998,38.58953750525171],[139.5613875619864,38.58948472134284],[139.56137289224523,38.589372279107465],[139.5615642796679,38.58941561294023]]],[[[139.56140177667078,38.58962338690981],[139.56143427996813,38.58980394559569],[139.56129066093536,38.58979283806906],[139.56129066093536,38.589642558657204],[139.56140177667078,38.58962338690981]]],[[[139.5612334496641,38.589938946425264],[139.5612334496641,38.59005144082141],[139.56103233517422,38.590045892004355],[139.5610003885572,38.58993617111747],[139.5612334496641,38.589938946425264]]],[[[139.56369208821934,38.59470586498372],[139.56370124511648,38.59496225180652],[139.56342871636218,38.594860864937004],[139.56369208821934,38.59470586498372]]],[[[139.57361377415646,38.60986302705709],[139.57370727577018,38.60994925225623],[139.57360216570748,38.61010230607661],[139.5734771077823,38.609931918723134],[139.57361377415646,38.60986302705709]]],[[[139.57443099889156,38.611604135222706],[139.57471377362185,38.611873305908375],[139.57453099900647,38.61200691908408],[139.57443099889156,38.611604135222706]]],[[[139.57601630400927,38.61317191884905],[139.57591214003332,38.613303864681654],[139.57584741942298,38.613179973177296],[139.57601630400927,38.61317191884905]]],[[[139.57621325643674,38.61339941405174],[139.57629046683167,38.61351825226558],[139.57610930020405,38.613588613423815],[139.57606269823498,38.61344469401746],[139.57621325643674,38.61339941405174]]],[[[139.57863686100245,38.61597780183416],[139.57852250321105,38.615916801719095],[139.5786632174336,38.615808613276954],[139.57874894890494,38.61591444099872],[139.57863686100245,38.61597780183416]]],[[[139.57926830109125,38.616846054102155],[139.5792124118234,38.61677058569404],[139.5794914138977,38.61671805359538],[139.57949797715003,38.616771171152664],[139.57926830109125,38.616846054102155]]],[[[139.58129866360252,38.61842517098489],[139.58120452706737,38.618309531659634],[139.58134732771703,38.618296612898405],[139.58129866360252,38.61842517098489]]],[[[139.5802899480227,38.61846858575666],[139.57996138790782,38.61796155877897],[139.58036352785462,38.617802919269366],[139.5805278339924,38.618302945924256],[139.5802899480227,38.61846858575666]]],[[[139.58698119272788,38.62760794604992],[139.5869388850216,38.62747950487528],[139.5872576910897,38.627506918909205],[139.58698119272788,38.62760794604992]]],[[[139.58824927368505,38.62856172114658],[139.5882144492375,38.628506197902766],[139.58839861240608,38.62843155866955],[139.58842002616336,38.62852244055824],[139.58824927368505,38.62856172114658]]],[[[139.58764775583927,38.62910150503046],[139.58763455289238,38.62893283808006],[139.5878246425932,38.62895586522103],[139.58764775583927,38.62910150503046]]],[[[139.58905005161864,38.63260717118408],[139.5888231391766,38.63243753206649],[139.58903572002248,38.6323916936218],[139.58905005161864,38.63260717118408]]],[[[139.5894662776467,38.63296327933193],[139.5892177167243,38.632897135094765],[139.58921007788285,38.63275772129185],[139.58949160795146,38.632879612704016],[139.5894662776467,38.63296327933193]]],[[[139.59173977996693,38.63634541370993],[139.59176724975885,38.636446585641465],[139.59164894933963,38.63652633302388],[139.59152311260164,38.63647913480429],[139.59173977996693,38.63634541370993]]],[[[139.592639104711,38.64220072058686],[139.5925955766246,38.64234902688611],[139.59167834008338,38.642182865446955],[139.59172194641076,38.6420342515795],[139.592639104711,38.64220072058686]]],[[[139.5946241629748,38.64233322489844],[139.5948488846684,38.6424257210702],[139.5948577816614,38.642659332562175],[139.59460639416977,38.642561559168655],[139.5946241629748,38.64233322489844]]],[[[139.59485221755585,38.64280683756556],[139.59497888526744,38.6429896130802],[139.5946877819157,38.642970441332864],[139.59485221755585,38.64280683756556]]],[[[139.5957764975874,38.64697391911113],[139.5955413617445,38.64714153205614],[139.5953280290654,38.64693480219944],[139.5957764975874,38.64697391911113]]],[[[139.59804583694586,38.64970597315221],[139.59804472088717,38.6504304139325],[139.5978225029063,38.650405973057275],[139.59804583694586,38.64970597315221]]],[[[139.60510557706084,38.65946983796272],[139.60492780807192,38.65962122533932],[139.60476975402105,38.659521774710186],[139.60489447470036,38.65943317080422],[139.60510557706084,38.65946983796272]]],[[[139.60504669305055,38.65997427938953],[139.6050489107787,38.66013817093989],[139.60484197137998,38.66014510831013],[139.6048464203261,38.65999344124435],[139.60504669305055,38.65997427938953]]],[[[139.60522447462984,38.66129094622022],[139.6051311411893,38.66112872111364],[139.60532697755798,38.66112344119392],[139.60522447462984,38.66129094622022]]],[[[139.6046719707349,38.661469837563004],[139.60457197062,38.661747053583724],[139.60434503209763,38.661614559164605],[139.6046719707349,38.661469837563004]]],[[[139.6057405838609,38.66138344059334],[139.60572031134336,38.66178455891031],[139.60542031099862,38.661622332904415],[139.6057405838609,38.66138344059334]]],[[[139.60639058415825,38.66198066687434],[139.60623503202123,38.66198427855164],[139.60595058365254,38.661523721342746],[139.60636836640708,38.66160761280116],[139.60639058415825,38.66198066687434]]],[[[139.60670085566005,38.66322844113972],[139.60648280243947,38.66317094568262],[139.60649613488874,38.66288150517738],[139.60674308692398,38.66302261330304],[139.60670085566005,38.66322844113972]]],[[[139.60955228301157,38.663832864694996],[139.60975255483663,38.66405258615799],[139.60946783397344,38.664143135297536],[139.60955228301157,38.663832864694996]]],[[[139.60945894867166,38.66924174810822],[139.6096325546987,38.669383135023736],[139.60943894864863,38.6694667476923],[139.60927005237113,38.66929953224769],[139.60945894867166,38.66924174810822]]],[[[139.61186849503508,38.67013386478607],[139.61197131002803,38.670178080853816],[139.61190169890438,38.670273694075775],[139.61175175134235,38.67021305368951],[139.61186849503508,38.67013386478607]]],[[[139.61162352780366,38.67020041371819],[139.61164708194735,38.670571000051666],[139.61146824906052,38.67053644090407],[139.61137725025992,38.670185252047816],[139.61162352780366,38.67020041371819]]],[[[139.62049927432213,38.678749468013564],[139.6205234498974,38.67892808056649],[139.62031345010575,38.678845585755255],[139.62049927432213,38.678749468013564]]],[[[139.62050678276194,38.679983640033015],[139.620567886299,38.68030613512008],[139.6202464982773,38.68056530624392],[139.6201115046423,38.68012725187123],[139.62050678276194,38.679983640033015]]],[[[139.62280150458582,38.68239280238595],[139.62291649819792,38.68266502716932],[139.62264732841152,38.682718640253086],[139.62262927362212,38.68250725190819],[139.62280150458582,38.68239280238595]]],[[[139.6237753831275,38.68341613464696],[139.62401542207408,38.68366530620898],[139.6238973275997,38.68382253198433],[139.62367094665694,38.68352669370199],[139.6237753831275,38.68341613464696]]],[[[139.62508625202895,38.68519391896422],[139.62521208786768,38.68554027936045],[139.62503236105465,38.68565280163551],[139.6248743061044,38.68527280209821],[139.62508625202895,38.68519391896422]]],[[[139.61775230862224,38.68700086469818],[139.61736674408007,38.68696946756694],[139.6175425813251,38.68676613534893],[139.61775230862224,38.68700086469818]]],[[[139.6177495333144,38.687313081433615],[139.61788924839016,38.68737586490431],[139.61800313943343,38.68765446767958],[139.61766564185598,38.687544747692016],[139.6177495333144,38.687313081433615]]],[[[139.63989966263944,38.68824636008151],[139.64005355372854,38.68833580215562],[139.6400435541667,38.68842886490023],[139.63984938963767,38.68840136003479],[139.63989966263944,38.68824636008151]]],[[[139.63234775594424,38.68862163997676],[139.63232053166723,38.6887063327311],[139.63129683518082,38.68876405391802],[139.6313091963624,38.68865819831723],[139.63234775594424,38.68862163997676]]],[[[139.64107802902788,38.68982330600085],[139.6408838653981,38.68973330634708],[139.64099163385686,38.689412198014566],[139.64132581113734,38.68964886540289],[139.64107802902788,38.68982330600085]]],[[[139.65300697838939,38.7025818646614],[139.65299252898205,38.70268046812913],[139.65283808031324,38.702742414331],[139.65274114059127,38.70268325243023],[139.65290197084937,38.702578531773895],[139.65300697838939,38.7025818646614]]],[[[139.6533080804037,38.702902251737555],[139.65338997356844,38.70302891944914],[139.6532432563713,38.70307319757006],[139.6532276126643,38.702913279224504],[139.6533080804037,38.702902251737555]]],[[[139.65569036291993,38.70343250460644],[139.65567871580015,38.70325219773082],[139.6559842541701,38.70331819807643],[139.65569036291993,38.70343250460644]]],[[[139.658520051859,38.7040091346139],[139.65845319086213,38.70416550513403],[139.65828749707043,38.70414097342723],[139.6583714137098,38.70402850511147],[139.658520051859,38.7040091346139]]],[[[139.6588591700147,38.704494081436735],[139.6587935275993,38.70435563980101],[139.65903435794928,38.70431191925974],[139.65905383906352,38.70446083799732],[139.6588591700147,38.704494081436735]]],[[[139.66143883303573,38.70773486487218],[139.66152019470132,38.707893802057356],[139.6612928919535,38.70795364024838],[139.66129510968165,38.707816386617026],[139.66143883303573,38.70773486487218]]],[[[139.66186525287924,38.710689504716925],[139.66175747093064,38.710358054180915],[139.662151698642,38.710362000406064],[139.66186525287924,38.710689504716925]]],[[[139.66148941630354,38.710678613027596],[139.66159727559386,38.71077977506661],[139.66145063573833,38.71081835957966],[139.66133503238586,38.710742838111514],[139.66148941630354,38.710678613027596]]],[[[139.66366797719547,38.712969170990505],[139.66359461679815,38.71314225181351],[139.66351491618047,38.71307577482719],[139.66366797719547,38.712969170990505]]],[[[139.66681263299665,38.715267640289426],[139.66642725011752,38.71529253172503],[139.66648494162678,38.715076108076005],[139.66681263299665,38.715267640289426]]],[[[139.6666754216335,38.71546886539585],[139.66654805424935,38.71573069401637],[139.6664254217958,38.71571302683475],[139.66656247667697,38.715441251712434],[139.6666754216335,38.71546886539585]]],[[[139.66706542163195,38.71633553215912],[139.66689275000044,38.71629305358164],[139.66686605722282,38.716179505180094],[139.6670446427961,38.716179891888544],[139.66706542163195,38.71633553215912]]],[[[139.67085335889544,38.71908580196822],[139.670841335859,38.71892950519259],[139.6709621139105,38.718916558552394],[139.67095775579583,38.71904394572158],[139.67085335889544,38.71908580196822]]],[[[139.6747944749851,38.719293918579524],[139.6748062776876,38.71948963983505],[139.67470722365954,38.71947641440505],[139.67462897544692,38.71931253184789],[139.6747944749851,38.719293918579524]]],[[[139.68305610865252,38.72004241442596],[139.68257841755997,38.719801945603365],[139.68268564192886,38.7196851083811],[139.68305610865252,38.72004241442596]]],[[[139.67654386500737,38.72020227881217],[139.6766677816928,38.72045105377316],[139.67649306140572,38.72055541380138],[139.67619180290944,38.720104467647104],[139.67654386500737,38.72020227881217]]],[[[139.6835319462424,38.72066672109236],[139.6833293002071,38.72060569399764],[139.6833411146008,38.72050369379048],[139.68350719779903,38.72055958575635],[139.6835319462424,38.72066672109236]]],[[[139.68325418882978,38.72071663976118],[139.68297167310425,38.72068353211938],[139.68303613470994,38.72059961278194],[139.68325418882978,38.72071663976118]]],[[[139.6839487163602,38.72123544066312],[139.68368136230504,38.72088544071056],[139.68379077832185,38.720788467713646],[139.68413133629224,38.72122263971312],[139.6839487163602,38.72123544066312]]],[[[139.6842708948859,38.721405505159964],[139.68417055842463,38.721518225285934],[139.6839682487357,38.72126274767771],[139.68415216638948,38.72125308086504],[139.6842708948859,38.721405505159964]]],[[[139.6749999997503,38.72136638734895],[139.6747094944477,38.7209690542785],[139.67478605733072,38.720936864844475],[139.6749999997503,38.72136638734895]]],[[[139.68446413671063,38.72189244128322],[139.68419408558862,38.72154555928017],[139.6843075233736,38.72144550520596],[139.68462705609386,38.72186274836719],[139.68446413671063,38.72189244128322]]],[[[139.67760027163524,38.72152438744058],[139.67850961122963,38.72172125173444],[139.67839313913214,38.72196355877128],[139.67760027163524,38.72152438744058]]],[[[139.67366966322447,38.72429866734967],[139.67377522744482,38.72443810813223],[139.67356688690234,38.72456477494444],[139.67350243788724,38.724398666565264],[139.67366966322447,38.72429866734967]]],[[[139.6810439430236,38.72498500025762],[139.68085814488757,38.72488905428645],[139.6811801426495,38.72467697256428],[139.68135108938134,38.72488958578583],[139.6810439430236,38.72498500025762]]],[[[139.68260988303973,38.726202864870345],[139.68151641984696,38.72527191906386],[139.68318377371224,38.72358980192786],[139.68386352807943,38.72501738664312],[139.68260988303973,38.726202864870345]]],[[[139.69274885867299,38.726950359771365],[139.69263661518767,38.72689064029089],[139.6927630868471,38.72674386463768],[139.69289839164753,38.72684741437672],[139.69274885867299,38.726950359771365]]],[[[139.6964660309826,38.73001908131562],[139.69612102496535,38.72973744063046],[139.6967424124324,38.7297346401416],[139.6964660309826,38.73001908131562]]],[[[139.69992466888846,38.73799017100964],[139.7000288328644,38.73811405442012],[139.6998382746167,38.7383337749838],[139.69970549870982,38.738071838444625],[139.69992466888846,38.73799017100964]]],[[[139.70197941561764,38.74000930638442],[139.70195775634545,38.74018097257385],[139.7017280290254,38.7401923597896],[139.70174219244825,38.740054305761646],[139.70197941561764,38.74000930638442]]],[[[139.7052730612029,38.74419899958423],[139.7054094676729,38.744322891987906],[139.70530169921415,38.74458761282813],[139.7051008302392,38.74422705393545],[139.7052730612029,38.74419899958423]]],[[[139.70797994771647,38.744216252178376],[139.70793066127112,38.744889413615624],[139.70784516182482,38.74488238721244],[139.70789508409098,38.744213054189174],[139.70797994771647,38.744216252178376]]],[[[139.7083331132826,38.751601197936964],[139.70843367097723,38.751671747952855],[139.70839922244625,38.751796197936244],[139.70823616097016,38.7517448016813],[139.7083331132826,38.751601197936964]]],[[[139.72259863801685,38.75919097328483],[139.72241752265063,38.75920927898511],[139.72244202288107,38.75904291879573],[139.72261224386,38.75901950494625],[139.72259863801685,38.75919097328483]]],[[[139.72620204878558,38.76287650474694],[139.72596717284682,38.762855775373794],[139.72597900073038,38.762778135102906],[139.72613863758806,38.76277317084521],[139.72620204878558,38.76287650474694]]],[[[139.72688457756124,38.763036639829124],[139.72718175133684,38.7632839731769],[139.7270743578954,38.763371360300084],[139.72688457756124,38.763036639829124]]],[[[139.72192070028018,38.763686414396545],[139.7219176650683,38.7632934412394],[139.72219311302183,38.76334205409256],[139.72192070028018,38.763686414396545]]],[[[139.72771328124304,38.76356991891669],[139.72820544692388,38.763705801981246],[139.7281603890907,38.763821640056676],[139.72771328124304,38.76356991891669]]],[[[139.72840518814894,38.76652589155668],[139.7281684946804,38.76594753215295],[139.72910922241272,38.764566305690494],[139.72921038894833,38.764600306359114],[139.7283099481457,38.765933973074425],[139.72840518814894,38.76652589155668]]],[[[139.72757150492112,38.766706252391714],[139.72727102523766,38.768066639763674],[139.72702642043305,38.76801997304335],[139.72757150492112,38.766706252391714]]],[[[139.72602214030962,38.76860669434353],[139.72557500638152,38.767701747937394],[139.72565247668047,38.767677531892616],[139.72602214030962,38.76860669434353]]],[[[139.7356381970452,38.76923741407546],[139.73549058412323,38.769399801959366],[139.7353950581355,38.76930694605875],[139.7354837483764,38.76923433299811],[139.7356381970452,38.76923741407546]]],[[[139.73684374814047,38.77003344089064],[139.73639671943317,38.76991810823415],[139.7366357196628,38.769723837585104],[139.73684374814047,38.77003344089064]]],[[[139.73820596563291,38.77066438725171],[139.73828357982336,38.77054186541483],[139.73841391676888,38.77063161325839],[139.73820596563291,38.77066438725171]]],[[[139.73980481184265,38.773272837571426],[139.73982972755994,38.77313505423939],[139.73998946783968,38.77320161306403],[139.73980481184265,38.773272837571426]]],[[[139.74147988279037,38.773750224693174],[139.74146880674016,38.77365017061891],[139.741665771758,38.77355189180639],[139.74171274964374,38.77358738714827],[139.74147988279037,38.773750224693174]]],[[[139.79201779508526,38.941666666583444],[139.79892923519606,38.94661164910838],[139.79862105102075,38.94670481977164],[139.79201779508526,38.941666666583444]]],[[[139.82104172519553,38.96604402721016],[139.8182198828414,38.96085319791678],[139.8011163810162,38.94856572123109],[139.80134343734983,38.94839568461322],[139.8183783919493,38.96076646819802],[139.82104172519553,38.96604402721016]]],[[[139.5247945778076,39.17835833297073],[139.5248776391918,39.17853583755891],[139.52473652387152,39.17857277541333],[139.52469680891068,39.17842305358113],[139.5247945778076,39.17835833297073]]],[[[139.52519961087341,39.17849917129979],[139.52514905278667,39.178631386929],[139.52503319132882,39.17853000005948],[139.52519961087341,39.17849917129979]]],[[[139.52531849495267,39.178776107631336],[139.52550655038704,39.178867504831544],[139.5254596111722,39.179016667285396],[139.52514902670623,39.17891833271494],[139.52531849495267,39.178776107631336]]],[[[139.52368070000432,39.17889861328041],[139.52364819670697,39.179196946282104],[139.52333014337148,39.17906444107115],[139.52368070000432,39.17889861328041]]],[[[139.52417985701481,39.179359999664314],[139.52406041535596,39.179543053968814],[139.52392319140222,39.179444440608506],[139.52417985701481,39.179359999664314]]],[[[139.52364763912726,39.17996999991561],[139.5235362517966,39.180280559200526],[139.52331625244312,39.18019389243426],[139.52364763912726,39.17996999991561]]],[[[139.52492097302456,39.18041000042126],[139.52491347627597,39.180626666887235],[139.52479069993092,39.18056194627684],[139.52492097302456,39.18041000042126]]],[[[139.52521374821595,39.18053083782797],[139.525148755111,39.1807363868748],[139.5249751355941,39.18078138715134],[139.52502569368085,39.18058999972874],[139.52521374821595,39.18053083782797]]],[[[139.52487014334247,39.181155559081844],[139.52372070005038,39.180815000212135],[139.52439680856594,39.18015389238826],[139.52487014334247,39.181155559081844]]],[[[139.52546680934586,39.180615278772166],[139.52617929993482,39.18102361324918],[139.5259984696537,39.18156083766257],[139.52531124461836,39.18117250500717],[139.52546680934586,39.180615278772166]]],[[[139.5237568087298,39.18157500018617],[139.52359403413743,39.1815569462961],[139.52341319126583,39.181329999679804],[139.52376403388314,39.181315838055525],[139.5237568087298,39.18157500018617]]],[[[139.52608513641997,39.18169861290073],[139.5260165244431,39.18200833311812],[139.52570902734976,39.181794441060674],[139.52608513641997,39.18169861290073]]],[[[139.5463321923769,39.18214189233453],[139.54640024587468,39.182184666789],[139.54632442313368,39.18232410757156],[139.54620997361144,39.18221410789482],[139.5463321923769,39.18214189233453]]],[[[139.5479241632696,39.18185133307264],[139.54694053158028,39.18235217091603],[139.5464124766545,39.181817441221995],[139.547942218059,39.18126327897721],[139.5479241632696,39.18185133307264]]],[[[139.52503652421626,39.182503613151255],[139.52438208756337,39.182267224552845],[139.52492097302456,39.18166499983994],[139.52518847007195,39.182073053728516],[139.52503652421626,39.182503613151255]]],[[[139.5459388585915,39.18221717098572],[139.54600747056838,39.18237189214915],[139.54590635529416,39.18258299990555],[139.54572191963098,39.1825941083315],[139.54575802920976,39.18230994594728],[139.5459388585915,39.18221717098572]]],[[[139.52656513607224,39.1819697207261],[139.52639041488578,39.182422225405446],[139.52603985735357,39.18216166662768],[139.52656513607224,39.1819697207261]]],[[[139.54069055812283,39.18323822526395],[139.53992299574975,39.18398313461404],[139.5398608301133,39.183937171163564],[139.54069055812283,39.18323822526395]]],[[[139.52139900126292,39.184040306315126],[139.52147150460632,39.18386836043652],[139.5216739950589,39.18374472074231],[139.5217281711183,39.18399500026908],[139.52139900126292,39.184040306315126]]],[[[139.54819461728778,39.183754224777715],[139.547542749998,39.1842973325559],[139.54748744528945,39.184243946101276],[139.54819461728778,39.183754224777715]]],[[[139.5216476134467,39.18414889225761],[139.52166316542286,39.184262505410345],[139.52152927435657,39.18431889200332],[139.52145705609837,39.18419502657929],[139.5216476134467,39.18414889225761]]],[[[139.52419761322938,39.1848958376728],[139.52381066103328,39.18439472103961],[139.52443625193155,39.1842877745612],[139.52419761322938,39.1848958376728]]],[[[139.52236817095434,39.184757774651644],[139.5223790005905,39.18490694609875],[139.5222192738005,39.1849133330839],[139.52218732808274,39.184791667401555],[139.52236817095434,39.184757774651644]]],[[[139.52375649756436,39.18564138734018],[139.52339844418293,39.18552889204477],[139.52360455260805,39.18498861263441],[139.52422289227275,39.185244720667356],[139.52375649756436,39.18564138734018]]],[[[139.53865296955894,39.1859121983893],[139.53849408633312,39.18557441392812],[139.53886269775535,39.18561386538761],[139.53865296955894,39.1859121983893]]],[[[139.5231959402405,39.18609166709683],[139.52340927381897,39.18620417138544],[139.52312732826363,39.18645250477931],[139.52306566804623,39.18612833335595],[139.5231959402405,39.18609166709683]]],[[[139.55029289210336,39.18482717083731],[139.55019547304266,39.18518227893907],[139.55019610886336,39.186659694189586],[139.55011525261693,39.18667880208511],[139.5501103630029,39.18518102708276],[139.55029289210336,39.18482717083731]]],[[[139.52283427967836,39.18662917119934],[139.5206434106649,39.18671086471471],[139.52129483818635,39.185135586138415],[139.52275844434678,39.18524999968781],[139.52283427967836,39.18662917119934]]],[[[139.55053050557842,39.18800586507865],[139.55061121883273,39.188803414446056],[139.55053243822147,39.188819720953404],[139.55053050557842,39.18800586507865]]],[[[139.55241280190933,39.19092008129678],[139.5523669778538,39.190977801584324],[139.55188466874256,39.19065174787994],[139.55193050628793,39.19059572101577],[139.55241280190933,39.19092008129678]]],[[[139.53927464301046,39.19163886534142],[139.53922046695106,39.19134635994658],[139.5395388071703,39.191447747715415],[139.53927464301046,39.19163886534142]]],[[[139.55346910511514,39.19166213529934],[139.55267066092233,39.19117244095543],[139.55271658929917,39.19111402729055],[139.55346910511514,39.19166213529934]]],[[[139.55459591427007,39.192647332708304],[139.55381686125918,39.1919918375533],[139.55387797738683,39.191944278705535],[139.55459591427007,39.192647332708304]]],[[[139.5385190533117,39.19268025239177],[139.53815377387764,39.1922469185605],[139.5385660051171,39.19213136017419],[139.5385190533117,39.19268025239177]]],[[[139.5563437736463,39.19234286543093],[139.55750252941823,39.19284041355428],[139.5574719713544,39.192903224903944],[139.5563437736463,39.19234286543093]]],[[[139.5629358627,39.194735467667726],[139.56279836625163,39.19463408079827],[139.56305863814566,39.19436658644884],[139.56319613459402,39.19471574823325],[139.5629358627,39.194735467667726]]],[[[139.56508335920978,39.19545877530231],[139.5642155772871,39.19503377458909],[139.56504002627628,39.19476350493187],[139.56508335920978,39.19545877530231]]],[[[139.53863433200888,39.197624973213976],[139.5379220878342,39.19763330633208],[139.5381246169576,39.19733219802259],[139.53863433200888,39.197624973213976]]],[[[139.53886572037675,39.19754330577899],[139.53920571986816,39.197881081246976],[139.53897795127148,39.19792025211797],[139.5387718293565,39.19777108067086],[139.53886572037675,39.19754330577899]]],[[[139.5658569776175,39.19784794572615],[139.5656869778718,39.198067386600655],[139.56547724967538,39.19797183812989],[139.5656978084072,39.19782266668278],[139.5658569776175,39.19784794572615]]],[[[139.54092294383884,39.198517197810474],[139.54029016915604,39.198449414109234],[139.53997600538844,39.19808358608867],[139.54074600492424,39.1980358024104],[139.54092294383884,39.198517197810474]]],[[[139.5446365890075,39.19861827891049],[139.54437241225708,39.19842966679573],[139.54455325602805,39.198227170947234],[139.5448240859629,39.19852217106137],[139.5446365890075,39.19861827891049]]],[[[139.5434468354032,39.19856494641522],[139.5434012838423,39.19873272123817],[139.54317182901673,39.19857883824284],[139.5434468354032,39.19856494641522]]],[[[139.54077849473185,39.198851919180754],[139.54029739341001,39.19883802735313],[139.54041683506898,39.19857330561359],[139.54077849473185,39.198851919180754]]],[[[139.54339961110327,39.19895050466209],[139.54325155571473,39.19904605403224],[139.5429443320154,39.19878438728972],[139.54324433236013,39.198716892270795],[139.54339961110327,39.19895050466209]]],[[[139.56733946774227,39.19881600025826],[139.56746975432577,39.19884405371016],[139.56741169859106,39.19918183817134],[139.56718031112257,39.199105721352],[139.56710447489172,39.1989115586216],[139.56733946774227,39.19881600025826]]],[[[139.5435732171303,39.19918689236124],[139.54341433210584,39.1991924411783],[139.5435840602562,39.19886050500833],[139.5437071081966,39.1988941081766],[139.5435732171303,39.19918689236124]]],[[[139.56861197066598,39.19971100016255],[139.5681311409395,39.19961794641114],[139.56827946792316,39.199254891899784],[139.56860114102994,39.199449053730916],[139.56861197066598,39.19971100016255]]],[[[139.54777491627942,39.200073559147484],[139.54726491614304,39.19998050539607],[139.54746380031418,39.19984827897497],[139.54777491627942,39.200073559147484]]],[[[139.54507488979436,39.2037088382923],[139.5451121136332,39.203861053944536],[139.54495516215104,39.20390494625633],[139.54491238679725,39.20374800017015],[139.54507488979436,39.2037088382923]]],[[[139.56051399472517,39.20393725170288],[139.56051564228312,39.20400219804304],[139.55880852129633,39.20398435999027],[139.55880360560195,39.203919413650056],[139.56051399472517,39.20393725170288]]],[[[139.5448096113745,39.2043116133903],[139.54450406041417,39.20428050494138],[139.5446401692085,39.2041377213788],[139.54492878143822,39.20414022509135],[139.5448096113745,39.2043116133903]]],[[[139.54588128399416,39.20431827916531],[139.54584489022955,39.20441883775919],[139.54559489039195,39.20435800042145],[139.54573405957922,39.20421772057142],[139.54588128399416,39.20431827916531]]],[[[139.5455684952899,39.20475272096138],[139.54566211381552,39.204864666771016],[139.5454904413309,39.20493855866761],[139.54542405967265,39.20474661276603],[139.5455684952899,39.20475272096138]]],[[[139.5478646173583,39.20698244068711],[139.5479515557198,39.20722717139688],[139.54768766495386,39.207232999903056],[139.5478646173583,39.20698244068711]]],[[[139.54605321728218,39.20731744084725],[139.54604238674676,39.207449667268406],[139.54580377412492,39.20743272134308],[139.54589433225772,39.20729189200728],[139.54605321728218,39.20731744084725]]],[[[139.55039182921962,39.20855046802973],[139.54887961110524,39.207151891846365],[139.55018992242708,39.20288217067571],[139.54724325597158,39.198533837966295],[139.54151630393437,39.19501330601929],[139.53979547278288,39.18920774783936],[139.54213747106746,39.18228525236253],[139.54475386509887,39.18138997276907],[139.5483469129797,39.1884368921489],[139.5540599219279,39.193424891945256],[139.56308697758197,39.19560880200464],[139.5647725292289,39.19866683780435],[139.55526108882827,39.20571064013399],[139.55039182921962,39.20855046802973]]],[[[139.5516901687663,39.209706586090135],[139.55174072595378,39.20980797295965],[139.5516251621716,39.21006130568475],[139.5514804405699,39.209892413903844],[139.5516901687663,39.209706586090135]]],[[[139.54539819696924,39.210693000281765],[139.54537236124554,39.2108729995893],[139.54519153006515,39.210770774551634],[139.54539819696924,39.210693000281765]]],[[[139.55242016915554,39.21243102737009],[139.55247099883763,39.2125099185979],[139.55230099909193,39.21263102670059],[139.5522068346777,39.2125465857564],[139.55242016915554,39.21243102737009]]],[[[139.55233710777134,39.21294325242923],[139.55234795089723,39.21310935990908],[139.55221044095913,39.213106586399874],[139.55218155563432,39.21298546840467],[139.55233710777134,39.21294325242923]]],[[[139.55587683484816,39.21496130591959],[139.55544654971857,39.214888252191145],[139.55537795123155,39.21452213458889],[139.55567769077288,39.21448353208939],[139.55587683484816,39.21496130591959]]],[[[139.55095958471713,39.21549574783057],[139.5502581971581,39.21542269410213],[139.5505004151621,39.214952694011686],[139.55081875538133,39.2150540808812],[139.55095958471713,39.21549574783057]]],[[[139.87496869035283,39.089498891860444],[139.87481172538094,39.0898145053352],[139.87474702995155,39.08979497295968],[139.87490389060213,39.089479360384246],[139.87496869035283,39.089498891860444]]],[[[139.8694923865645,39.11181874843652],[139.86948878118233,39.111920135306036],[139.86936238686474,39.11201569366938],[139.86930099914184,39.111903198373966],[139.8694923865645,39.11181874843652]]],[[[139.86871208799255,39.112843748040575],[139.8688962520605,39.11306041360723],[139.86874736659774,39.11316791856467],[139.86859985709782,39.113037918864904],[139.86871208799255,39.112843748040575]]]]}},{"type":"Feature","id":"JP-06-capital","properties":{"Kind":"capital","PrefectureCode":"06","PrefectureName":"Yamagata","CapitalName":"Yamagata","CapitalNameJapanese":"山形市","PointKind":"prefecture-representative-point"},"geometry":{"type":"Point","coordinates":[140.363693,38.240433]}}]}
