{"type":"FeatureCollection","DataVersion":"natural-earth-lowres-snapshot-2026-10-04","Attribution":{"BoundarySource":"Natural Earth (public domain), low-resolution Admin-0 country geometry","BoundarySourceURL":"https://www.naturalearthdata.com/","TermsURL":"https://www.naturalearthdata.com/about/terms-of-use/","Notice":"Curated source snapshot for reproducible historical-region asset generation. Korea is the dissolved union of modern North and South Korea outer geometries; Sakhalin is isolated from the Russia geometry. Historical semantics are applied by the build script."},"features":[{"type":"Feature","id":"source-korea-peninsula","properties":{"Kind":"source","Name":"Korean Peninsula"},"geometry":{"type":"MultiPolygon","coordinates":[[[[130.78000735893113,42.22000722916885],[130.78000366004676,42.220007813203225],[130.78000485358513,42.22001036108258],[130.78000735893113,42.22000722916885]]],[[[129.21291954968007,37.43239248305595],[129.46044966035817,36.78418915460283],[129.4683044780665,35.63214061130395],[129.0913765809296,35.082484239231434],[128.1858504578791,34.89037710218639],[127.3865194031884,34.47567373304412],[126.48574751190876,34.39004588473648],[126.37391971242914,34.934560451795946],[126.55923139862779,35.6845405136479],[126.11739790253229,36.72548472751926],[126.86014326386339,36.893924058574626],[126.17475874237624,37.74968577732804],[125.68910363169721,37.94001007745902],[125.5684391622957,37.75208873142962],[125.2753304383362,37.669070542952724],[125.24008711151316,37.85722443292744],[124.98103315643397,37.94882090916478],[124.71216067921938,38.10834605564979],[124.98599409393398,38.54847422947968],[125.2219486837787,38.66585724543067],[125.13285851450752,38.84855927179859],[125.3865897970606,39.387957872061165],[125.32111575734682,39.55138458918421],[124.7374821310424,39.66034434667162],[124.26562462778531,39.928493353834156],[125.07994184784064,40.56982371679245],[126.18204511932943,41.10733612727637],[126.86908328664987,41.81656932226619],[127.34378299368302,41.50315176041597],[128.20843305879066,41.46677155208249],[128.0522152039723,41.99428457291795],[129.59666873587952,42.42498179785456],[129.99426720593323,42.985386867843786],[130.63999970690955,42.39502427522179],[130.6400000000001,42.39500000000004],[130.77999231657833,42.22000960427719],[130.40003055228902,42.28000356705971],[129.96594852103726,41.94136790625106],[129.66736209525482,41.60110443782523],[129.70518924369247,40.88282786718433],[129.18811486218,40.66180776627199],[129.01039961152821,40.485436102859815],[128.63336836152672,40.18984691015031],[127.96741417858135,40.02541250259756],[127.53343550019417,39.7568500839767],[127.5021195822253,39.32393077245153],[127.38543419811027,39.213472398427655],[127.78334272675772,39.05089834243742],[128.34971642467661,38.61224294692785],[129.21291954968007,37.43239248305595]]]]}},{"type":"Feature","id":"source-sakhalin","properties":{"Kind":"source","Name":"Sakhalin"},"geometry":{"type":"Polygon","coordinates":[[[142.91461551327654,53.704577541714784],[143.2608476096321,52.74076040303906],[143.23526777564763,51.75666026468876],[143.64800744036285,50.747600409541505],[144.6541475770856,48.97639069273754],[143.1739278505172,49.306551418650315],[142.55866824765013,47.86157501890495],[143.53349246640403,46.83672801369252],[143.50527713437265,46.137907619809525],[142.74770063697383,46.74076487892651],[142.09203006405454,45.966755276058834],[141.906925083585,46.80592886004656],[142.01844282447087,47.78013296161296],[141.90444461483503,48.85918854429957],[142.1358000022057,49.61516307229739],[142.17998335181528,50.9523424342819],[141.59407596249002,51.9354348822025],[141.6825460145737,53.301966457728795],[142.60693403541075,53.762145087287934],[142.20974897681543,54.225475979216874],[142.65478641171302,54.36588084575389],[142.91461551327654,53.704577541714784]]]}}]}
